{"type":"FeatureCollection","features":[{"type":"Feature","id":21,"geometry":{"type":"Polygon","coordinates":[[[-118.16953,53.97189],[-118.26425,54.03566],[-118.27275,54.04136],[-118.28456,54.04929],[-118.28891,54.05221],[-118.45326,54.16207],[-118.46411,54.16902],[-118.50316,54.14249],[-118.55127,54.10093],[-118.57602,54.0683],[-118.58446,54.06051],[-118.60902,54.03783],[-118.66154,53.99401],[-118.71975,53.96403],[-118.75526,53.94616],[-118.78784,53.92976],[-118.81232,53.91741],[-118.89046,53.88978],[-118.91448,53.87613],[-118.91915,53.87348],[-118.93427,53.86806],[-118.94789,53.86317],[-118.9653,53.85432],[-118.9653,53.85432],[-118.97247,53.85068],[-118.99154,53.8394],[-119.02465,53.8198],[-119.02464,53.81979],[-119.05515,53.80172],[-119.07931,53.76836],[-119.10018,53.75524],[-119.11843,53.74024],[-119.13671,53.72745],[-119.16009,53.71272],[-119.17683,53.7012],[-119.19714,53.68901],[-119.19911,53.68782],[-119.20794,53.68873],[-119.21484,53.689],[-119.21938,53.69139],[-119.229,53.69309],[-119.23299,53.69856],[-119.24041,53.70391],[-119.25463,53.70851],[-119.26935,53.70951],[-119.29163,53.70871],[-119.31796,53.71389],[-119.34045,53.71512],[-119.36273,53.71431],[-119.39358,53.71318],[-119.41928,53.71223],[-119.44659,53.7102],[-119.46399,53.70394],[-119.48036,53.69618],[-119.50283,53.68921],[-119.52549,53.68315],[-119.50615,53.66567],[-119.50028,53.66239],[-119.50026,53.66235],[-119.50023,53.66227],[-119.50015,53.66211],[-119.50002,53.66179],[-119.49985,53.66137],[-119.49966,53.66128],[-119.49741,53.66027],[-119.4965,53.65885],[-119.49649,53.65854],[-119.49642,53.6576],[-119.49542,53.65609],[-119.49552,53.65254],[-119.4951,53.65196],[-119.49507,53.65142],[-119.49556,53.65069],[-119.49553,53.65029],[-119.4952,53.64998],[-119.49489,53.64958],[-119.49484,53.64873],[-119.49511,53.64827],[-119.49494,53.64743],[-119.49576,53.64637],[-119.49724,53.64543],[-119.49777,53.64506],[-119.49799,53.64453],[-119.49794,53.64363],[-119.49761,53.64323],[-119.49526,53.6418],[-119.49413,53.64155],[-119.49304,53.64135],[-119.49203,53.641],[-119.49191,53.64016],[-119.49334,53.63878],[-119.49374,53.63778],[-119.49447,53.63736],[-119.49469,53.63722],[-119.49474,53.63682],[-119.49554,53.63635],[-119.49784,53.63549],[-119.49974,53.63512],[-119.50002,53.63482],[-119.50022,53.63467],[-119.50066,53.63433],[-119.50083,53.63382],[-119.50111,53.63317],[-119.50151,53.63261],[-119.50154,53.63257],[-119.50184,53.63221],[-119.50268,53.63125],[-119.50318,53.63067],[-119.5038,53.63017],[-119.50438,53.62968],[-119.50464,53.62949],[-119.50489,53.62931],[-119.50558,53.62912],[-119.50583,53.62908],[-119.50666,53.62894],[-119.50756,53.6287],[-119.50807,53.62828],[-119.50829,53.62797],[-119.50847,53.62772],[-119.50852,53.62704],[-119.50839,53.62649],[-119.50815,53.62588],[-119.50771,53.62541],[-119.5076,53.62528],[-119.50753,53.62501],[-119.50751,53.62401],[-119.5073,53.6239],[-119.50716,53.62373],[-119.50714,53.6237],[-119.50749,53.62325],[-119.50844,53.62264],[-119.50864,53.62219],[-119.50855,53.62188],[-119.50753,53.62122],[-119.50762,53.62023],[-119.50713,53.61961],[-119.50666,53.61936],[-119.50589,53.61915],[-119.50542,53.61884],[-119.50533,53.61866],[-119.50548,53.61857],[-119.50636,53.61815],[-119.50703,53.61804],[-119.50762,53.61767],[-119.50819,53.61721],[-119.50874,53.61621],[-119.50875,53.6162],[-119.50902,53.61589],[-119.50962,53.61564],[-119.5107,53.61519],[-119.51145,53.61505],[-119.51177,53.615],[-119.51407,53.61488],[-119.51566,53.61457],[-119.51762,53.61418],[-119.51813,53.61385],[-119.51847,53.61326],[-119.51883,53.61298],[-119.51943,53.61284],[-119.52157,53.61279],[-119.52177,53.61279],[-119.52192,53.61288],[-119.52214,53.61287],[-119.52215,53.61287],[-119.52228,53.61282],[-119.52247,53.61274],[-119.52281,53.61273],[-119.52284,53.61273],[-119.52325,53.61272],[-119.52329,53.61271],[-119.52369,53.61268],[-119.52425,53.6126],[-119.52538,53.61258],[-119.52628,53.61238],[-119.5265,53.61233],[-119.52698,53.61187],[-119.5285,53.6104],[-119.52931,53.61034],[-119.52933,53.61034],[-119.52934,53.61034],[-119.53026,53.61058],[-119.53038,53.61061],[-119.53297,53.61058],[-119.53427,53.61057],[-119.53492,53.61073],[-119.53602,53.611],[-119.53708,53.61094],[-119.53773,53.61052],[-119.53807,53.60979],[-119.53856,53.60924],[-119.5401,53.60831],[-119.54069,53.60816],[-119.54143,53.60779],[-119.54237,53.60718],[-119.54272,53.60677],[-119.54271,53.60646],[-119.54174,53.60544],[-119.54171,53.60495],[-119.54212,53.60422],[-119.54278,53.60394],[-119.5432,53.60407],[-119.54332,53.60411],[-119.54453,53.60412],[-119.54497,53.60389],[-119.54579,53.60377],[-119.54602,53.60373],[-119.5466,53.60341],[-119.54681,53.60304],[-119.54666,53.60183],[-119.54678,53.60133],[-119.54788,53.60081],[-119.55072,53.60017],[-119.55138,53.59984],[-119.55312,53.59863],[-119.5553,53.59854],[-119.55622,53.59862],[-119.55731,53.59922],[-119.55825,53.59978],[-119.55932,53.5999],[-119.56263,53.59973],[-119.5653,53.60004],[-119.56643,53.60002],[-119.56723,53.59959],[-119.56697,53.59897],[-119.56715,53.5982],[-119.56759,53.59792],[-119.56763,53.5979],[-119.56831,53.5976],[-119.56987,53.59697],[-119.57069,53.59682],[-119.5723,53.59665],[-119.57437,53.59643],[-119.57585,53.59595],[-119.5772,53.59574],[-119.57772,53.5955],[-119.5782,53.59558],[-119.57826,53.59563],[-119.57833,53.59576],[-119.57844,53.59588],[-119.57879,53.59604],[-119.57903,53.59609],[-119.57931,53.59612],[-119.57955,53.59609],[-119.57975,53.59603],[-119.58008,53.59586],[-119.58053,53.59557],[-119.58075,53.59532],[-119.581,53.59499],[-119.58131,53.59455],[-119.58137,53.5944],[-119.58145,53.59426],[-119.58182,53.59393],[-119.58199,53.59384],[-119.58221,53.59379],[-119.58251,53.5938],[-119.58301,53.59386],[-119.58329,53.59381],[-119.58346,53.59374],[-119.58361,53.59365],[-119.58372,53.59353],[-119.58378,53.59338],[-119.58397,53.59312],[-119.58432,53.59277],[-119.58452,53.59251],[-119.58459,53.59235],[-119.58469,53.59181],[-119.5847,53.59146],[-119.58476,53.59119],[-119.58491,53.59103],[-119.58526,53.59087],[-119.58541,53.59076],[-119.58549,53.59062],[-119.58551,53.59045],[-119.58542,53.59014],[-119.58543,53.58997],[-119.58568,53.58955],[-119.58581,53.58945],[-119.58597,53.58935],[-119.58616,53.58928],[-119.58639,53.58923],[-119.58664,53.58921],[-119.58691,53.58922],[-119.58698,53.58936],[-119.58695,53.58971],[-119.58711,53.58998],[-119.58723,53.5901],[-119.58731,53.59015],[-119.58737,53.5902],[-119.5875,53.59024],[-119.58758,53.59026],[-119.58787,53.59028],[-119.58816,53.59029],[-119.58842,53.59026],[-119.58884,53.59016],[-119.58897,53.59006],[-119.58888,53.58993],[-119.58873,53.58984],[-119.58837,53.58968],[-119.58807,53.58948],[-119.58816,53.58938],[-119.58843,53.58936],[-119.58896,53.58943],[-119.58946,53.58952],[-119.59034,53.58951],[-119.59093,53.58953],[-119.59136,53.58966],[-119.59151,53.58975],[-119.59163,53.58986],[-119.59177,53.58996],[-119.59234,53.59019],[-119.59284,53.59027],[-119.59307,53.59025],[-119.59325,53.58977],[-119.59339,53.58967],[-119.59364,53.58965],[-119.59392,53.58967],[-119.59403,53.58978],[-119.59401,53.59013],[-119.59407,53.59045],[-119.5942,53.59073],[-119.5943,53.59086],[-119.59459,53.59106],[-119.59485,53.59127],[-119.59516,53.59146],[-119.59551,53.59162],[-119.59572,53.59168],[-119.59624,53.59175],[-119.59672,53.59186],[-119.59801,53.59206],[-119.59854,53.59214],[-119.59878,53.59218],[-119.59898,53.59224],[-119.59936,53.59239],[-119.59985,53.59248],[-119.60043,53.59251],[-119.60072,53.59251],[-119.60097,53.59248],[-119.60207,53.59222],[-119.60261,53.59219],[-119.60309,53.59212],[-119.60348,53.59199],[-119.60366,53.59191],[-119.60387,53.59186],[-119.60443,53.59185],[-119.60467,53.59182],[-119.60487,53.59176],[-119.605,53.59165],[-119.60496,53.59152],[-119.60477,53.59144],[-119.60431,53.59134],[-119.60413,53.59127],[-119.60408,53.59111],[-119.60411,53.59076],[-119.60419,53.59043],[-119.60425,53.58987],[-119.60429,53.58971],[-119.60444,53.58961],[-119.60464,53.58954],[-119.60485,53.5895],[-119.60542,53.58928],[-119.60566,53.58926],[-119.60651,53.58905],[-119.60673,53.58901],[-119.60701,53.58902],[-119.60746,53.58894],[-119.60785,53.58881],[-119.60818,53.58865],[-119.6083,53.58855],[-119.60838,53.58841],[-119.60872,53.58826],[-119.60886,53.58818],[-119.60912,53.58797],[-119.60942,53.58778],[-119.60963,53.58775],[-119.6098,53.58768],[-119.61003,53.58746],[-119.61034,53.5871],[-119.61058,53.58688],[-119.61079,53.58662],[-119.61095,53.58654],[-119.61118,53.58651],[-119.6117,53.58653],[-119.61196,53.58653],[-119.61214,53.58648],[-119.61225,53.58637],[-119.6123,53.58622],[-119.61245,53.58613],[-119.61269,53.5861],[-119.61282,53.58598],[-119.61275,53.58567],[-119.61276,53.58548],[-119.61272,53.58516],[-119.61276,53.58511],[-119.61282,53.58503],[-119.61305,53.58499],[-119.61328,53.58505],[-119.61358,53.58524],[-119.614,53.58556],[-119.61431,53.58574],[-119.61455,53.58579],[-119.61484,53.58579],[-119.61506,53.58574],[-119.61565,53.58554],[-119.61607,53.58543],[-119.61663,53.58522],[-119.61698,53.58507],[-119.6172,53.58502],[-119.61744,53.58499],[-119.61771,53.58497],[-119.61796,53.58502],[-119.61811,53.58512],[-119.6182,53.58524],[-119.61841,53.58566],[-119.61862,53.58589],[-119.61876,53.58599],[-119.61898,53.58606],[-119.61927,53.58608],[-119.61951,53.58604],[-119.61989,53.5859],[-119.62044,53.58567],[-119.62088,53.58557],[-119.62114,53.58559],[-119.62133,53.58566],[-119.62149,53.58576],[-119.62174,53.58598],[-119.62202,53.58636],[-119.62218,53.58663],[-119.62231,53.58674],[-119.62254,53.5868],[-119.6228,53.58677],[-119.62302,53.58672],[-119.62338,53.58657],[-119.6236,53.58653],[-119.62388,53.58655],[-119.62436,53.58664],[-119.62463,53.58664],[-119.62498,53.58647],[-119.62517,53.5864],[-119.62563,53.58632],[-119.62588,53.5863],[-119.62645,53.58629],[-119.62661,53.58627],[-119.6267,53.58626],[-119.62701,53.58605],[-119.62718,53.58587],[-119.62765,53.58561],[-119.62784,53.58554],[-119.62805,53.5855],[-119.6283,53.58547],[-119.62851,53.58542],[-119.6287,53.58536],[-119.62879,53.58522],[-119.62876,53.58507],[-119.62852,53.58485],[-119.62808,53.58454],[-119.62798,53.58442],[-119.62794,53.58428],[-119.62804,53.58414],[-119.62816,53.58402],[-119.62831,53.58392],[-119.62848,53.58383],[-119.62873,53.58381],[-119.62901,53.58382],[-119.62928,53.58402],[-119.6295,53.58409],[-119.62978,53.58413],[-119.63025,53.58406],[-119.63049,53.58403],[-119.63068,53.58396],[-119.63119,53.5837],[-119.63139,53.58362],[-119.63158,53.58355],[-119.63179,53.58351],[-119.63204,53.58349],[-119.6325,53.58341],[-119.63276,53.58345],[-119.63317,53.58358],[-119.63343,53.58359],[-119.63364,53.58354],[-119.63414,53.5833],[-119.6349,53.58323],[-119.63539,53.58318],[-119.63559,53.58312],[-119.63602,53.58281],[-119.63643,53.5827],[-119.63659,53.58262],[-119.63664,53.58245],[-119.63672,53.58229],[-119.63687,53.58219],[-119.63714,53.58218],[-119.63762,53.58229],[-119.63781,53.58236],[-119.63796,53.58245],[-119.63816,53.58252],[-119.63844,53.58255],[-119.63866,53.5825],[-119.63886,53.58244],[-119.63937,53.58239],[-119.64019,53.58238],[-119.64038,53.58232],[-119.6405,53.58219],[-119.64059,53.58184],[-119.64068,53.5813],[-119.64076,53.58116],[-119.64091,53.58106],[-119.64137,53.58096],[-119.64239,53.58089],[-119.6429,53.58086],[-119.64311,53.5808],[-119.6432,53.58065],[-119.64315,53.58051],[-119.64303,53.5804],[-119.64288,53.5803],[-119.6429,53.58017],[-119.64332,53.58008],[-119.64403,53.57999],[-119.64456,53.57996],[-119.64541,53.58002],[-119.6456,53.57996],[-119.64586,53.57973],[-119.64609,53.57948],[-119.64624,53.57939],[-119.64645,53.57912],[-119.64661,53.57903],[-119.64714,53.57881],[-119.64729,53.5787],[-119.6474,53.57857],[-119.64796,53.57813],[-119.64809,53.57801],[-119.64819,53.57788],[-119.64833,53.57777],[-119.64859,53.57776],[-119.64911,53.57783],[-119.64964,53.5779],[-119.65021,53.57792],[-119.65072,53.5779],[-119.65116,53.57783],[-119.65133,53.57776],[-119.65155,53.57771],[-119.6518,53.57769],[-119.65231,53.57777],[-119.65234,53.57777],[-119.6526,53.57778],[-119.65286,53.57777],[-119.65309,53.57773],[-119.65343,53.57759],[-119.65367,53.57757],[-119.65394,53.5776],[-119.65467,53.57775],[-119.65524,53.57778],[-119.65553,53.57781],[-119.65583,53.57799],[-119.65602,53.57806],[-119.65627,53.57812],[-119.65656,53.57814],[-119.65682,53.57812],[-119.65728,53.57806],[-119.65771,53.57796],[-119.65825,53.57796],[-119.6585,53.578],[-119.65889,53.57816],[-119.65911,53.57821],[-119.6594,53.57823],[-119.66024,53.57825],[-119.66046,53.5782],[-119.66059,53.5781],[-119.66091,53.57792],[-119.6611,53.57785],[-119.66131,53.57779],[-119.66155,53.57776],[-119.66183,53.57776],[-119.66204,53.57771],[-119.66219,53.57762],[-119.66228,53.57748],[-119.66244,53.57739],[-119.66265,53.57735],[-119.66292,53.57735],[-119.66313,53.57741],[-119.66348,53.57759],[-119.66367,53.57767],[-119.66383,53.57776],[-119.66405,53.57782],[-119.66434,53.57784],[-119.66458,53.5778],[-119.6647,53.57769],[-119.66474,53.57751],[-119.66486,53.5774],[-119.66502,53.5773],[-119.66542,53.57718],[-119.66594,53.57694],[-119.66631,53.57679],[-119.66664,53.57662],[-119.66683,53.57654],[-119.66722,53.57642],[-119.66754,53.57624],[-119.66772,53.57617],[-119.66793,53.57611],[-119.6682,53.57612],[-119.6684,53.5762],[-119.66868,53.5764],[-119.66902,53.57657],[-119.66924,53.57663],[-119.66946,53.57658],[-119.66954,53.57643],[-119.66952,53.57605],[-119.66967,53.57584],[-119.67004,53.57569],[-119.67046,53.57557],[-119.67062,53.57549],[-119.67093,53.57509],[-119.67109,53.5748],[-119.6712,53.57467],[-119.67167,53.57439],[-119.67184,53.57431],[-119.67204,53.57425],[-119.67248,53.57415],[-119.67265,53.57406],[-119.67274,53.57392],[-119.67273,53.57377],[-119.6726,53.57365],[-119.67231,53.57345],[-119.67222,53.57334],[-119.67213,53.57305],[-119.67218,53.57288],[-119.67226,53.57275],[-119.67238,53.57263],[-119.6724,53.57248],[-119.6723,53.57219],[-119.67214,53.5721],[-119.67191,53.57203],[-119.67176,53.572],[-119.67142,53.57193],[-119.67119,53.57187],[-119.671,53.5718],[-119.67094,53.57166],[-119.67099,53.57149],[-119.67115,53.57141],[-119.67201,53.5712],[-119.6729,53.57105],[-119.67332,53.57095],[-119.67352,53.57089],[-119.67366,53.57079],[-119.67371,53.57063],[-119.6737,53.57047],[-119.67383,53.57036],[-119.67424,53.57026],[-119.67471,53.57017],[-119.67511,53.57006],[-119.6761,53.56996],[-119.67698,53.56977],[-119.6774,53.56967],[-119.67784,53.56957],[-119.67825,53.56945],[-119.67843,53.56938],[-119.6786,53.56928],[-119.67877,53.56919],[-119.67936,53.56899],[-119.68037,53.56869],[-119.68067,53.56849],[-119.68087,53.56844],[-119.68135,53.56839],[-119.68161,53.56837],[-119.68183,53.56832],[-119.68243,53.56814],[-119.68265,53.5681],[-119.68282,53.56802],[-119.683,53.56776],[-119.68314,53.56765],[-119.68373,53.56746],[-119.68462,53.56708],[-119.68484,53.56703],[-119.68509,53.56701],[-119.68566,53.56703],[-119.68655,53.56707],[-119.68753,53.56698],[-119.68773,53.56693],[-119.68791,53.56685],[-119.68803,53.56674],[-119.68812,53.5666],[-119.68838,53.56637],[-119.68867,53.56618],[-119.68883,53.5661],[-119.68903,53.56604],[-119.68926,53.566],[-119.68954,53.56599],[-119.69131,53.56609],[-119.69185,53.56607],[-119.69237,53.56608],[-119.69243,53.56609],[-119.69315,53.566],[-119.69337,53.56596],[-119.69356,53.5659],[-119.69373,53.56581],[-119.69387,53.5657],[-119.69393,53.56554],[-119.69395,53.56541],[-119.69382,53.56537],[-119.69379,53.56515],[-119.69384,53.56499],[-119.69398,53.56489],[-119.69415,53.5648],[-119.69495,53.56456],[-119.69516,53.56452],[-119.69551,53.56437],[-119.69588,53.56424],[-119.69628,53.56413],[-119.6965,53.56408],[-119.69696,53.56381],[-119.69705,53.56368],[-119.69717,53.56355],[-119.69736,53.56348],[-119.69767,53.56344],[-119.69845,53.56351],[-119.69927,53.5635],[-119.70056,53.56323],[-119.70079,53.56319],[-119.70108,53.56302],[-119.70165,53.56282],[-119.70187,53.56279],[-119.70243,53.56279],[-119.70272,53.56281],[-119.70326,53.56281],[-119.7035,53.56278],[-119.7039,53.56265],[-119.70442,53.56241],[-119.70464,53.56237],[-119.7053,53.56231],[-119.70631,53.56226],[-119.70684,53.56225],[-119.70731,53.56218],[-119.70851,53.56225],[-119.70927,53.5622],[-119.70949,53.56216],[-119.70965,53.56191],[-119.70982,53.56184],[-119.71031,53.56178],[-119.71051,53.56173],[-119.71096,53.56165],[-119.71117,53.56159],[-119.71162,53.56152],[-119.7119,53.56151],[-119.71238,53.56161],[-119.71239,53.56161],[-119.71265,53.5616],[-119.71293,53.56161],[-119.71318,53.56159],[-119.71366,53.56154],[-119.71388,53.5615],[-119.71407,53.56144],[-119.71432,53.56142],[-119.71489,53.56144],[-119.71514,53.56142],[-119.71581,53.56129],[-119.71605,53.56127],[-119.71666,53.5613],[-119.71693,53.56133],[-119.7175,53.56155],[-119.71779,53.56157],[-119.71831,53.56155],[-119.71897,53.56149],[-119.72018,53.56153],[-119.7207,53.56149],[-119.72138,53.56137],[-119.72189,53.56132],[-119.72269,53.56127],[-119.72293,53.56124],[-119.72314,53.56118],[-119.72348,53.56103],[-119.72367,53.56096],[-119.7239,53.56091],[-119.72449,53.56094],[-119.72464,53.56098],[-119.72472,53.561],[-119.72489,53.56108],[-119.72504,53.56118],[-119.72524,53.56143],[-119.72551,53.56165],[-119.72568,53.56174],[-119.72591,53.56179],[-119.72616,53.56177],[-119.72636,53.56171],[-119.7269,53.56149],[-119.72711,53.56144],[-119.72737,53.56142],[-119.72796,53.56143],[-119.72825,53.56145],[-119.72851,53.5615],[-119.72893,53.56162],[-119.72916,53.56167],[-119.7296,53.56179],[-119.73059,53.56196],[-119.73071,53.56198],[-119.73114,53.56203],[-119.73139,53.56207],[-119.73185,53.56218],[-119.73321,53.56235],[-119.73349,53.56234],[-119.73379,53.56236],[-119.73461,53.56246],[-119.7349,53.56248],[-119.73518,53.56248],[-119.73562,53.56238],[-119.7358,53.56231],[-119.73615,53.56221],[-119.73651,53.5622],[-119.73682,53.56222],[-119.73735,53.5623],[-119.73785,53.5624],[-119.73814,53.5624],[-119.73841,53.56239],[-119.73902,53.56241],[-119.73952,53.5625],[-119.73981,53.56252],[-119.74005,53.56247],[-119.74024,53.56241],[-119.74041,53.56232],[-119.74069,53.56211],[-119.74091,53.56185],[-119.74116,53.56163],[-119.74134,53.56156],[-119.74176,53.56144],[-119.74203,53.56142],[-119.7423,53.56145],[-119.74272,53.56159],[-119.74299,53.5616],[-119.74342,53.5615],[-119.74366,53.56147],[-119.74426,53.56149],[-119.74451,53.56153],[-119.74481,53.56154],[-119.74499,53.56147],[-119.74509,53.56133],[-119.74524,53.56123],[-119.74549,53.5612],[-119.74555,53.56122],[-119.74592,53.56133],[-119.74618,53.56137],[-119.74678,53.56139],[-119.74766,53.56144],[-119.74791,53.56147],[-119.7485,53.56149],[-119.74877,53.56152],[-119.7489,53.56162],[-119.74897,53.56176],[-119.74901,53.56209],[-119.749,53.56243],[-119.74904,53.56259],[-119.74917,53.56286],[-119.74926,53.56299],[-119.74942,53.56308],[-119.74988,53.56319],[-119.74989,53.5632],[-119.75002,53.56324],[-119.75008,53.56326],[-119.75036,53.56338],[-119.75087,53.56353],[-119.75094,53.56356],[-119.75109,53.56359],[-119.7513,53.56362],[-119.75192,53.56367],[-119.75222,53.56368],[-119.75237,53.56372],[-119.75245,53.56374],[-119.75255,53.56386],[-119.75257,53.56402],[-119.75237,53.56428],[-119.75236,53.56444],[-119.75243,53.56458],[-119.75265,53.56483],[-119.75278,53.56493],[-119.75295,53.56502],[-119.75312,53.56511],[-119.75351,53.56526],[-119.75373,53.56532],[-119.75399,53.56536],[-119.75428,53.56539],[-119.75475,53.56549],[-119.75537,53.5657],[-119.75589,53.56595],[-119.75629,53.5661],[-119.75733,53.56623],[-119.75757,53.56628],[-119.75798,53.56643],[-119.75849,53.56668],[-119.759,53.56678],[-119.7599,53.5668],[-119.76072,53.56677],[-119.76123,53.56672],[-119.76155,53.56675],[-119.76167,53.56676],[-119.76172,53.56677],[-119.76221,53.56689],[-119.76248,53.56691],[-119.76271,53.56687],[-119.76298,53.56686],[-119.76326,53.56688],[-119.76375,53.56697],[-119.76398,53.56703],[-119.76417,53.56711],[-119.76475,53.5675],[-119.76514,53.56766],[-119.76583,53.56799],[-119.76624,53.56813],[-119.7667,53.56823],[-119.76691,53.5683],[-119.76744,53.56836],[-119.76787,53.56849],[-119.76811,53.56854],[-119.76838,53.56857],[-119.76865,53.56856],[-119.76911,53.56847],[-119.76991,53.56838],[-119.77059,53.56829],[-119.77132,53.56818],[-119.77191,53.56821],[-119.77217,53.56825],[-119.77241,53.56831],[-119.7726,53.56838],[-119.77283,53.56862],[-119.77306,53.56904],[-119.77322,53.56912],[-119.77348,53.56912],[-119.77365,53.56904],[-119.77379,53.56893],[-119.77389,53.56881],[-119.77398,53.56866],[-119.77408,53.56853],[-119.7744,53.56834],[-119.77459,53.56827],[-119.77484,53.56823],[-119.77501,53.56829],[-119.77484,53.56856],[-119.77478,53.56872],[-119.77486,53.56886],[-119.77504,53.56893],[-119.77528,53.5689],[-119.77548,53.56883],[-119.77582,53.56866],[-119.77603,53.56862],[-119.77629,53.56859],[-119.77659,53.56859],[-119.7767,53.56871],[-119.77669,53.56888],[-119.77671,53.56904],[-119.77691,53.56911],[-119.7772,53.56914],[-119.77745,53.5691],[-119.77763,53.56904],[-119.77779,53.56895],[-119.77793,53.56884],[-119.7782,53.56843],[-119.77844,53.56818],[-119.77871,53.56797],[-119.77887,53.56788],[-119.77907,53.56782],[-119.77933,53.56783],[-119.77978,53.56794],[-119.78006,53.56795],[-119.78022,53.56787],[-119.78019,53.56772],[-119.78022,53.56758],[-119.78038,53.5675],[-119.78058,53.56744],[-119.78081,53.5674],[-119.78165,53.56739],[-119.78247,53.56735],[-119.78336,53.56739],[-119.78356,53.56746],[-119.78372,53.56756],[-119.78426,53.56779],[-119.78448,53.56786],[-119.78474,53.56787],[-119.78495,53.56781],[-119.78512,53.56773],[-119.78541,53.56753],[-119.7856,53.56745],[-119.78582,53.5674],[-119.78632,53.56734],[-119.78648,53.56742],[-119.78607,53.56775],[-119.786,53.56788],[-119.78612,53.568],[-119.78632,53.56806],[-119.78657,53.5681],[-119.78746,53.56814],[-119.78772,53.56811],[-119.78874,53.56782],[-119.7892,53.56774],[-119.78946,53.56772],[-119.78976,53.56774],[-119.78997,53.5678],[-119.79042,53.56809],[-119.79098,53.56832],[-119.79202,53.56864],[-119.79224,53.56869],[-119.7928,53.56875],[-119.79336,53.56874],[-119.79365,53.56877],[-119.79414,53.56886],[-119.79454,53.56899],[-119.79472,53.56907],[-119.79492,53.56914],[-119.7951,53.56915],[-119.79519,53.56916],[-119.79521,53.56916],[-119.79522,53.56916],[-119.79524,53.56916],[-119.7957,53.56912],[-119.79599,53.56912],[-119.79646,53.56923],[-119.79659,53.56927],[-119.79666,53.5693],[-119.79684,53.56938],[-119.79712,53.56958],[-119.79743,53.56976],[-119.79756,53.56986],[-119.79797,53.56981],[-119.79825,53.5698],[-119.79871,53.56989],[-119.79905,53.57006],[-119.79925,53.57013],[-119.7995,53.57017],[-119.7998,53.57018],[-119.80006,53.57021],[-119.80092,53.57046],[-119.80115,53.57051],[-119.80176,53.57071],[-119.80288,53.57115],[-119.80311,53.5712],[-119.80337,53.57117],[-119.80356,53.57107],[-119.80357,53.57101],[-119.80367,53.57089],[-119.80372,53.57073],[-119.80358,53.57063],[-119.80335,53.57059],[-119.80325,53.57047],[-119.80309,53.5702],[-119.80297,53.56991],[-119.80288,53.56979],[-119.80274,53.56969],[-119.80266,53.56967],[-119.80252,53.56963],[-119.80231,53.56961],[-119.80226,53.5696],[-119.80225,53.56944],[-119.80235,53.56912],[-119.80247,53.569],[-119.80277,53.56882],[-119.8031,53.56866],[-119.8033,53.56843],[-119.80341,53.56832],[-119.80346,53.56817],[-119.8034,53.56803],[-119.80343,53.56788],[-119.80359,53.56781],[-119.80409,53.56776],[-119.80451,53.56767],[-119.80466,53.56759],[-119.80487,53.56754],[-119.8051,53.56752],[-119.80531,53.56747],[-119.80555,53.56745],[-119.80581,53.56745],[-119.80603,53.56741],[-119.80623,53.56735],[-119.80627,53.56723],[-119.80618,53.56712],[-119.8059,53.56694],[-119.80556,53.56677],[-119.80546,53.56666],[-119.80542,53.5665],[-119.80554,53.56639],[-119.80585,53.56621],[-119.80595,53.56609],[-119.80601,53.56594],[-119.80619,53.56587],[-119.80646,53.56588],[-119.80665,53.56581],[-119.8066,53.56567],[-119.80647,53.56556],[-119.80646,53.56541],[-119.80662,53.56532],[-119.80685,53.56534],[-119.80701,53.56543],[-119.80722,53.56539],[-119.80734,53.56528],[-119.80755,53.56504],[-119.80769,53.56494],[-119.80782,53.56482],[-119.8079,53.56469],[-119.80804,53.56458],[-119.80822,53.56449],[-119.80842,53.56443],[-119.80867,53.5644],[-119.80927,53.56442],[-119.80981,53.56448],[-119.8101,53.56447],[-119.81057,53.56439],[-119.81083,53.56436],[-119.81112,53.56438],[-119.8114,53.56438],[-119.81158,53.56429],[-119.81183,53.56427],[-119.81211,53.56427],[-119.81256,53.56417],[-119.81281,53.56418],[-119.813,53.56426],[-119.81313,53.56436],[-119.81325,53.56447],[-119.81343,53.56455],[-119.81366,53.56452],[-119.8137,53.56437],[-119.81367,53.5642],[-119.81373,53.56404],[-119.8139,53.56397],[-119.81415,53.56397],[-119.8143,53.56406],[-119.81456,53.56409],[-119.81505,53.56401],[-119.81532,53.56399],[-119.81619,53.56404],[-119.81644,53.56401],[-119.81662,53.56395],[-119.81672,53.56382],[-119.81677,53.56366],[-119.81679,53.56348],[-119.81686,53.56333],[-119.81709,53.5631],[-119.81723,53.563],[-119.81764,53.56288],[-119.8178,53.5628],[-119.81817,53.56265],[-119.81839,53.5626],[-119.81888,53.56253],[-119.81933,53.56244],[-119.81947,53.56235],[-119.81957,53.56222],[-119.81971,53.56154],[-119.81979,53.5614],[-119.81992,53.56129],[-119.82009,53.56121],[-119.82023,53.56111],[-119.82016,53.56098],[-119.81999,53.5609],[-119.81979,53.56083],[-119.81952,53.56081],[-119.81928,53.56085],[-119.81897,53.56103],[-119.81861,53.56118],[-119.81842,53.56116],[-119.81847,53.56103],[-119.81857,53.5609],[-119.81862,53.56074],[-119.81866,53.56039],[-119.81865,53.56024],[-119.81851,53.56013],[-119.81832,53.56006],[-119.81804,53.56005],[-119.81759,53.56015],[-119.81743,53.56006],[-119.81735,53.55992],[-119.81732,53.55976],[-119.81732,53.55941],[-119.81723,53.55928],[-119.81706,53.55919],[-119.8168,53.55915],[-119.81654,53.55914],[-119.81635,53.55907],[-119.81585,53.55881],[-119.81578,53.55867],[-119.81581,53.55851],[-119.8159,53.55837],[-119.8163,53.55805],[-119.81641,53.55793],[-119.81666,53.55751],[-119.81676,53.55738],[-119.81688,53.55727],[-119.81698,53.55714],[-119.81701,53.55698],[-119.81696,53.55683],[-119.81677,53.55676],[-119.81664,53.55686],[-119.81659,53.55702],[-119.81645,53.55712],[-119.81627,53.55706],[-119.81619,53.55693],[-119.81616,53.55676],[-119.81606,53.55665],[-119.81589,53.55657],[-119.81578,53.55645],[-119.81589,53.55634],[-119.81612,53.55637],[-119.81633,53.55644],[-119.81655,53.55649],[-119.81669,53.55639],[-119.81667,53.55623],[-119.81669,53.55607],[-119.81699,53.55569],[-119.81712,53.55558],[-119.81755,53.55547],[-119.81762,53.55534],[-119.81753,53.55521],[-119.81738,53.55512],[-119.81717,53.55505],[-119.81695,53.555],[-119.81688,53.55488],[-119.81706,53.55481],[-119.81736,53.55481],[-119.81759,53.55477],[-119.81774,53.55448],[-119.81794,53.55436],[-119.8182,53.55448],[-119.81851,53.55467],[-119.81889,53.55482],[-119.81905,53.55474],[-119.81898,53.5546],[-119.81895,53.55445],[-119.81911,53.55434],[-119.81953,53.55433],[-119.81983,53.55452],[-119.82004,53.55459],[-119.82019,53.5545],[-119.8203,53.55418],[-119.8204,53.55406],[-119.82055,53.55398],[-119.82075,53.5539],[-119.821,53.55387],[-119.8213,53.55388],[-119.82153,53.55393],[-119.82181,53.55412],[-119.82217,53.55429],[-119.82264,53.55425],[-119.82273,53.55413],[-119.8224,53.55396],[-119.82238,53.5538],[-119.82246,53.55366],[-119.82272,53.55344],[-119.8232,53.5532],[-119.82338,53.55313],[-119.82354,53.55285],[-119.82353,53.55269],[-119.82357,53.55254],[-119.82373,53.55245],[-119.82427,53.55243],[-119.82439,53.55232],[-119.82456,53.55205],[-119.82459,53.55189],[-119.82448,53.55141],[-119.82439,53.55129],[-119.82419,53.55121],[-119.82408,53.55109],[-119.82412,53.55095],[-119.82423,53.55083],[-119.82439,53.55074],[-119.82459,53.55068],[-119.82506,53.5506],[-119.82527,53.55054],[-119.82543,53.55046],[-119.82554,53.55036],[-119.82573,53.55012],[-119.82586,53.55006],[-119.82604,53.55],[-119.82626,53.54996],[-119.82644,53.54989],[-119.82669,53.5497],[-119.82703,53.54953],[-119.82726,53.54949],[-119.82777,53.54946],[-119.82797,53.5494],[-119.8281,53.5493],[-119.8283,53.54908],[-119.82848,53.54914],[-119.8286,53.54904],[-119.82864,53.54852],[-119.82878,53.54842],[-119.82913,53.54827],[-119.82928,53.54818],[-119.82936,53.54804],[-119.82921,53.54776],[-119.82918,53.5476],[-119.82921,53.54743],[-119.82931,53.54731],[-119.8295,53.54723],[-119.82972,53.54718],[-119.83,53.54718],[-119.83023,53.54722],[-119.83043,53.54729],[-119.83067,53.54734],[-119.83079,53.54722],[-119.83082,53.54688],[-119.83094,53.54676],[-119.83112,53.54668],[-119.83135,53.54664],[-119.83163,53.54664],[-119.83151,53.54657],[-119.83166,53.54648],[-119.83175,53.54636],[-119.83167,53.54623],[-119.83151,53.54613],[-119.8311,53.54601],[-119.83094,53.54591],[-119.83079,53.54564],[-119.83067,53.54552],[-119.83048,53.54546],[-119.83031,53.54537],[-119.83022,53.54524],[-119.83037,53.54514],[-119.8311,53.54505],[-119.83129,53.54498],[-119.83133,53.54481],[-119.83135,53.54464],[-119.83149,53.54454],[-119.8318,53.54436],[-119.83192,53.54425],[-119.83193,53.54409],[-119.83183,53.54396],[-119.8317,53.54385],[-119.83155,53.54376],[-119.83137,53.54368],[-119.83122,53.54358],[-119.83116,53.54345],[-119.83136,53.54339],[-119.83161,53.5434],[-119.8318,53.54347],[-119.83204,53.54347],[-119.8322,53.54338],[-119.83233,53.54327],[-119.83224,53.54315],[-119.83191,53.54298],[-119.83201,53.54288],[-119.83276,53.54279],[-119.83299,53.54275],[-119.83313,53.54265],[-119.83317,53.54234],[-119.83369,53.54229],[-119.83389,53.54223],[-119.83436,53.54196],[-119.83449,53.54186],[-119.83457,53.54173],[-119.83445,53.54158],[-119.83436,53.54157],[-119.83397,53.54153],[-119.83355,53.54141],[-119.83332,53.54111],[-119.83383,53.54095],[-119.83394,53.54084],[-119.83403,53.5407],[-119.83415,53.5404],[-119.83436,53.54036],[-119.83473,53.54051],[-119.83498,53.54055],[-119.83522,53.54052],[-119.83523,53.54049],[-119.83531,53.54034],[-119.83527,53.54016],[-119.83532,53.54003],[-119.83544,53.53992],[-119.83541,53.53977],[-119.83545,53.53965],[-119.83563,53.53972],[-119.83576,53.53984],[-119.83589,53.53978],[-119.83607,53.53952],[-119.83616,53.5395],[-119.83639,53.53951],[-119.83655,53.5396],[-119.83691,53.53975],[-119.83763,53.53965],[-119.83756,53.53951],[-119.83753,53.53938],[-119.83767,53.53928],[-119.83786,53.53921],[-119.83797,53.53907],[-119.83798,53.53894],[-119.83822,53.53886],[-119.83872,53.53887],[-119.83894,53.5389],[-119.83903,53.53889],[-119.83921,53.53879],[-119.83921,53.53831],[-119.83927,53.53818],[-119.83936,53.53806],[-119.83969,53.53789],[-119.83984,53.53782],[-119.8401,53.53765],[-119.84039,53.5375],[-119.84095,53.53731],[-119.84113,53.53727],[-119.84131,53.53707],[-119.84147,53.53699],[-119.8417,53.53699],[-119.84182,53.53691],[-119.84191,53.5368],[-119.842,53.53655],[-119.84221,53.53633],[-119.84236,53.53608],[-119.8425,53.5357],[-119.84259,53.53558],[-119.84275,53.53554],[-119.84295,53.53556],[-119.84313,53.53552],[-119.8434,53.53537],[-119.84352,53.53526],[-119.84366,53.53516],[-119.84413,53.53509],[-119.84428,53.53501],[-119.84436,53.53486],[-119.84438,53.53471],[-119.84457,53.53446],[-119.84484,53.53426],[-119.84515,53.53408],[-119.84517,53.53405],[-119.84515,53.53391],[-119.84468,53.53367],[-119.8447,53.53352],[-119.84477,53.53339],[-119.84487,53.53328],[-119.84502,53.53318],[-119.8451,53.53304],[-119.84512,53.53291],[-119.84499,53.53264],[-119.84519,53.53224],[-119.84524,53.5321],[-119.84521,53.53196],[-119.84508,53.53188],[-119.84504,53.53175],[-119.84517,53.53165],[-119.84537,53.5316],[-119.84546,53.53149],[-119.84549,53.53137],[-119.84559,53.53127],[-119.84571,53.53103],[-119.84571,53.53076],[-119.84577,53.53065],[-119.84591,53.53058],[-119.84624,53.53043],[-119.84636,53.53033],[-119.84651,53.53008],[-119.84687,53.52978],[-119.84702,53.52957],[-119.84713,53.52947],[-119.84754,53.52924],[-119.84801,53.529],[-119.8482,53.52893],[-119.84836,53.52884],[-119.84861,53.52864],[-119.84892,53.52846],[-119.84904,53.52836],[-119.84938,53.52818],[-119.84948,53.52787],[-119.84949,53.52772],[-119.84957,53.5276],[-119.84959,53.52759],[-119.84975,53.52733],[-119.84978,53.527],[-119.84983,53.52682],[-119.84978,53.5267],[-119.84962,53.52661],[-119.84921,53.52649],[-119.84911,53.52636],[-119.84916,53.52623],[-119.84934,53.52596],[-119.84939,53.5258],[-119.84939,53.52566],[-119.84949,53.52555],[-119.84939,53.52543],[-119.84919,53.52539],[-119.84916,53.52537],[-119.84918,53.52506],[-119.84924,53.52494],[-119.8494,53.52485],[-119.85007,53.52468],[-119.85035,53.52464],[-119.85058,53.52465],[-119.85071,53.52474],[-119.85109,53.52488],[-119.85138,53.5249],[-119.85193,53.52486],[-119.85219,53.52483],[-119.85241,53.52484],[-119.85261,53.52491],[-119.85284,53.52489],[-119.85297,53.52483],[-119.85313,53.52459],[-119.85321,53.52437],[-119.85345,53.5241],[-119.85354,53.52394],[-119.85371,53.52372],[-119.85379,53.52367],[-119.85428,53.5231],[-119.85464,53.52276],[-119.85469,53.52259],[-119.85457,53.52173],[-119.85463,53.52145],[-119.85467,53.52128],[-119.85462,53.52112],[-119.85461,53.52099],[-119.8549,53.5208],[-119.85503,53.5207],[-119.8551,53.52053],[-119.85495,53.52035],[-119.85479,53.52023],[-119.85474,53.52008],[-119.85473,53.51995],[-119.85487,53.51985],[-119.85524,53.5197],[-119.85545,53.51961],[-119.85569,53.51958],[-119.8559,53.51952],[-119.85602,53.51942],[-119.85585,53.51913],[-119.85585,53.51897],[-119.85589,53.51884],[-119.85596,53.51871],[-119.85606,53.5186],[-119.8562,53.5185],[-119.85638,53.51842],[-119.85659,53.51818],[-119.85663,53.51805],[-119.85674,53.51793],[-119.85706,53.51774],[-119.85748,53.51764],[-119.85822,53.51734],[-119.85842,53.51727],[-119.8586,53.51719],[-119.85871,53.51707],[-119.85901,53.5169],[-119.85912,53.51679],[-119.8596,53.51654],[-119.85981,53.51647],[-119.86024,53.51636],[-119.86039,53.51628],[-119.86061,53.51607],[-119.86077,53.51598],[-119.86113,53.51566],[-119.86122,53.51562],[-119.86136,53.51553],[-119.86159,53.51533],[-119.86167,53.51522],[-119.86172,53.51511],[-119.86184,53.51502],[-119.86221,53.51488],[-119.86231,53.51474],[-119.8623,53.5146],[-119.86235,53.51448],[-119.8625,53.51438],[-119.86305,53.51417],[-119.86327,53.51412],[-119.86349,53.51415],[-119.86367,53.51421],[-119.86388,53.51424],[-119.86425,53.51411],[-119.86448,53.51412],[-119.86466,53.51419],[-119.86486,53.51414],[-119.86506,53.51391],[-119.86517,53.51363],[-119.8654,53.5136],[-119.86584,53.51366],[-119.86602,53.5135],[-119.86609,53.51307],[-119.86599,53.513],[-119.86581,53.51293],[-119.86576,53.5128],[-119.86587,53.51269],[-119.86587,53.51263],[-119.86593,53.51252],[-119.86633,53.51227],[-119.86641,53.51216],[-119.86643,53.51202],[-119.86637,53.51188],[-119.86624,53.51179],[-119.86591,53.51164],[-119.86564,53.51141],[-119.86556,53.51129],[-119.86538,53.51122],[-119.86515,53.51117],[-119.86491,53.51119],[-119.86469,53.51123],[-119.86449,53.51115],[-119.86445,53.51101],[-119.86454,53.51089],[-119.8647,53.51079],[-119.86472,53.51061],[-119.8647,53.51048],[-119.86483,53.51029],[-119.86498,53.51018],[-119.86517,53.50987],[-119.86522,53.50975],[-119.86538,53.50963],[-119.8656,53.5096],[-119.86566,53.50945],[-119.8657,53.50918],[-119.86582,53.50908],[-119.86602,53.50885],[-119.86608,53.50876],[-119.86619,53.50864],[-119.86625,53.50853],[-119.86651,53.50837],[-119.86674,53.50823],[-119.86684,53.50815],[-119.86733,53.50793],[-119.86772,53.5078],[-119.86789,53.50772],[-119.86784,53.50752],[-119.8679,53.50742],[-119.86783,53.5073],[-119.86722,53.50696],[-119.86709,53.50686],[-119.86692,53.50679],[-119.86682,53.50667],[-119.86682,53.50653],[-119.86711,53.50635],[-119.86722,53.50624],[-119.86737,53.50615],[-119.86794,53.50611],[-119.86815,53.50605],[-119.8684,53.50569],[-119.8684,53.50535],[-119.86843,53.50522],[-119.8685,53.50509],[-119.8684,53.50497],[-119.86774,53.50473],[-119.8676,53.50465],[-119.867,53.50433],[-119.86674,53.50414],[-119.86659,53.50406],[-119.8662,53.50396],[-119.86589,53.5038],[-119.86578,53.50369],[-119.86566,53.50343],[-119.8655,53.5032],[-119.86537,53.50312],[-119.86517,53.50291],[-119.86505,53.50288],[-119.86498,53.50287],[-119.86485,53.50279],[-119.86444,53.5026],[-119.86422,53.50239],[-119.86394,53.50229],[-119.86255,53.5011],[-119.86253,53.5011],[-119.86106,53.50142],[-119.85925,53.50178],[-119.8583,53.502],[-119.85709,53.50225],[-119.85606,53.50242],[-119.85532,53.50266],[-119.85503,53.50285],[-119.8546,53.50353],[-119.85415,53.50511],[-119.85364,53.50587],[-119.853,53.50709],[-119.85209,53.50837],[-119.85153,53.50927],[-119.85119,53.50989],[-119.85107,53.51006],[-119.8505,53.5113],[-119.85033,53.5115],[-119.85001,53.51168],[-119.84949,53.51194],[-119.84864,53.51223],[-119.84724,53.51276],[-119.84723,53.51277],[-119.84633,53.51296],[-119.84537,53.51344],[-119.84383,53.51465],[-119.84279,53.51526],[-119.84224,53.51565],[-119.84189,53.51594],[-119.84139,53.51644],[-119.83994,53.517],[-119.83927,53.5172],[-119.8387,53.51735],[-119.83819,53.51746],[-119.83815,53.51747],[-119.83685,53.51788],[-119.83545,53.51853],[-119.83428,53.51542],[-119.82928,53.51033],[-119.82083,53.50346],[-119.81579,53.50058],[-119.81516,53.50025],[-119.81444,53.50001],[-119.81101,53.49922],[-119.81025,53.49876],[-119.80871,53.4981],[-119.80713,53.49738],[-119.8051,53.49657],[-119.8035,53.49599],[-119.80175,53.49525],[-119.8004,53.49493],[-119.79737,53.49449],[-119.79505,53.49418],[-119.794,53.49398],[-119.79158,53.49339],[-119.78955,53.49287],[-119.78766,53.49245],[-119.78692,53.4923],[-119.78636,53.49225],[-119.78593,53.49209],[-119.78556,53.49189],[-119.78495,53.49151],[-119.78477,53.49134],[-119.78464,53.49116],[-119.78457,53.49089],[-119.78456,53.4906],[-119.78448,53.49026],[-119.78435,53.48989],[-119.78401,53.48918],[-119.78389,53.48902],[-119.7833,53.48839],[-119.78298,53.4879],[-119.78261,53.48715],[-119.78256,53.48672],[-119.78249,53.48642],[-119.78241,53.48625],[-119.78221,53.48595],[-119.78222,53.48585],[-119.78235,53.48572],[-119.78291,53.48545],[-119.78329,53.48513],[-119.78424,53.48446],[-119.78541,53.48389],[-119.78585,53.48382],[-119.78597,53.4838],[-119.78648,53.48378],[-119.78707,53.48371],[-119.78722,53.48369],[-119.78744,53.48364],[-119.78787,53.48347],[-119.78846,53.48313],[-119.78915,53.48268],[-119.78945,53.48246],[-119.79009,53.48205],[-119.79068,53.48152],[-119.79102,53.48125],[-119.7914,53.48106],[-119.79192,53.48086],[-119.79245,53.48075],[-119.79295,53.4806],[-119.7932,53.48045],[-119.79351,53.4803],[-119.79384,53.48],[-119.79396,53.47976],[-119.79417,53.47875],[-119.79416,53.47861],[-119.79409,53.47837],[-119.79389,53.47799],[-119.79358,53.47766],[-119.79321,53.47737],[-119.7929,53.47716],[-119.79263,53.47694],[-119.79258,53.47683],[-119.79243,53.47605],[-119.79252,53.47515],[-119.79244,53.47452],[-119.7922,53.47326],[-119.7921,53.47297],[-119.79195,53.47267],[-119.79167,53.4723],[-119.79081,53.47164],[-119.79039,53.4715],[-119.78974,53.47133],[-119.78844,53.47076],[-119.78703,53.47028],[-119.78614,53.46982],[-119.78474,53.46893],[-119.78367,53.46819],[-119.78288,53.4675],[-119.78255,53.46706],[-119.78209,53.46652],[-119.78189,53.46618],[-119.7816,53.46596],[-119.78121,53.46573],[-119.78099,53.46556],[-119.78094,53.46525],[-119.78105,53.46486],[-119.78124,53.4646],[-119.78139,53.46437],[-119.78141,53.46407],[-119.78137,53.46361],[-119.78118,53.46252],[-119.78105,53.46201],[-119.78099,53.46116],[-119.7808,53.46065],[-119.78056,53.46024],[-119.78015,53.45992],[-119.77983,53.45961],[-119.77939,53.45905],[-119.77926,53.45846],[-119.77912,53.45811],[-119.7788,53.45773],[-119.77838,53.45719],[-119.77818,53.45698],[-119.77791,53.45675],[-119.77735,53.45646],[-119.77693,53.45618],[-119.77566,53.45542],[-119.77544,53.45522],[-119.77526,53.45486],[-119.77545,53.45427],[-119.77527,53.45293],[-119.77506,53.45237],[-119.77459,53.45185],[-119.77437,53.45148],[-119.77432,53.45141],[-119.77395,53.45092],[-119.77381,53.44942],[-119.77376,53.44843],[-119.77359,53.44781],[-119.77343,53.44697],[-119.77314,53.44598],[-119.77266,53.44461],[-119.77231,53.44401],[-119.77148,53.44335],[-119.77003,53.44261],[-119.76858,53.44204],[-119.76673,53.44138],[-119.76609,53.44122],[-119.76551,53.44099],[-119.7648,53.44034],[-119.76402,53.43988],[-119.7631,53.43955],[-119.76003,53.43872],[-119.75969,53.43868],[-119.75931,53.43865],[-119.75911,53.43854],[-119.75889,53.43774],[-119.75885,53.43744],[-119.75888,53.43726],[-119.7596,53.43642],[-119.76119,53.43466],[-119.76158,53.43417],[-119.76215,53.43358],[-119.76295,53.43282],[-119.76308,53.43262],[-119.76319,53.43236],[-119.7632,53.43215],[-119.76314,53.43191],[-119.7632,53.43171],[-119.76333,53.43152],[-119.7636,53.43127],[-119.76439,53.43069],[-119.76554,53.43011],[-119.7661,53.42988],[-119.7668,53.42964],[-119.76695,53.42955],[-119.76706,53.4294],[-119.76681,53.4292],[-119.76638,53.42911],[-119.76587,53.42897],[-119.76371,53.42858],[-119.76256,53.42821],[-119.76195,53.42793],[-119.76167,53.42759],[-119.76153,53.42728],[-119.76136,53.42701],[-119.7611,53.42677],[-119.76075,53.42656],[-119.76049,53.42636],[-119.76014,53.426],[-119.7599,53.42562],[-119.75977,53.42449],[-119.75963,53.42383],[-119.75942,53.42362],[-119.75894,53.42334],[-119.75814,53.42287],[-119.75799,53.42272],[-119.758,53.42247],[-119.75813,53.42219],[-119.75813,53.42206],[-119.75809,53.42191],[-119.75791,53.42173],[-119.75744,53.42148],[-119.75671,53.42121],[-119.75613,53.42103],[-119.75385,53.42024],[-119.75352,53.42009],[-119.75273,53.41962],[-119.75129,53.41894],[-119.75014,53.41826],[-119.75002,53.41819],[-119.748,53.41702],[-119.74784,53.41688],[-119.74776,53.41673],[-119.74781,53.41631],[-119.74784,53.41588],[-119.74801,53.4154],[-119.74797,53.41373],[-119.7479,53.4135],[-119.74744,53.41288],[-119.747,53.41239],[-119.7466,53.41211],[-119.74546,53.41146],[-119.74381,53.41064],[-119.74162,53.40945],[-119.74065,53.40901],[-119.73874,53.40813],[-119.738,53.40771],[-119.7375,53.40751],[-119.73623,53.40685],[-119.7353,53.40646],[-119.73487,53.40623],[-119.73447,53.40581],[-119.73405,53.40489],[-119.73366,53.40434],[-119.73335,53.40409],[-119.73304,53.40392],[-119.73242,53.40375],[-119.732,53.40361],[-119.73171,53.40345],[-119.73158,53.4032],[-119.73139,53.403],[-119.73137,53.40281],[-119.73142,53.40228],[-119.73158,53.40201],[-119.73175,53.40178],[-119.73226,53.40141],[-119.73259,53.40122],[-119.73344,53.40094],[-119.73369,53.40078],[-119.73383,53.40061],[-119.73399,53.40028],[-119.73404,53.40007],[-119.73403,53.39988],[-119.73374,53.39952],[-119.73331,53.39912],[-119.733,53.3988],[-119.73289,53.39859],[-119.73284,53.39822],[-119.73254,53.39758],[-119.73229,53.39722],[-119.73068,53.39591],[-119.73043,53.39564],[-119.73025,53.39534],[-119.73011,53.39498],[-119.73019,53.39478],[-119.73049,53.39448],[-119.73061,53.39432],[-119.73065,53.39421],[-119.73066,53.39409],[-119.7306,53.39396],[-119.72961,53.39237],[-119.72951,53.39185],[-119.72956,53.39156],[-119.72968,53.39114],[-119.73023,53.39008],[-119.73038,53.38917],[-119.73021,53.38889],[-119.72953,53.38849],[-119.72756,53.38777],[-119.72701,53.3876],[-119.72633,53.38745],[-119.72562,53.38732],[-119.72491,53.38729],[-119.72491,53.38729],[-119.72384,53.38715],[-119.7229,53.38704],[-119.72254,53.38694],[-119.72217,53.38678],[-119.72157,53.38669],[-119.72102,53.38669],[-119.72018,53.38674],[-119.71899,53.3868],[-119.71798,53.38682],[-119.71766,53.38683],[-119.71634,53.38702],[-119.7157,53.38711],[-119.71506,53.38716],[-119.7148,53.38718],[-119.71447,53.38724],[-119.71331,53.38737],[-119.71219,53.3875],[-119.7113,53.38761],[-119.71075,53.38768],[-119.70963,53.38797],[-119.70931,53.38802],[-119.70795,53.38823],[-119.70586,53.3888],[-119.70397,53.38933],[-119.70329,53.38952],[-119.70169,53.39005],[-119.70052,53.3904],[-119.70025,53.39042],[-119.70008,53.39037],[-119.69997,53.3903],[-119.69942,53.38945],[-119.69892,53.38877],[-119.69881,53.3886],[-119.69846,53.38807],[-119.69822,53.38776],[-119.69788,53.38751],[-119.6955,53.38625],[-119.69524,53.3861],[-119.69308,53.38498],[-119.69146,53.38448],[-119.68976,53.38406],[-119.68897,53.3838],[-119.68843,53.38374],[-119.68721,53.38375],[-119.68638,53.3837],[-119.68591,53.38362],[-119.68506,53.38342],[-119.68462,53.38323],[-119.68429,53.38305],[-119.68357,53.38258],[-119.68324,53.38226],[-119.68292,53.38192],[-119.68089,53.37987],[-119.67998,53.37923],[-119.67982,53.37905],[-119.67956,53.37865],[-119.67949,53.37845],[-119.67945,53.37822],[-119.67947,53.37809],[-119.67962,53.3779],[-119.68052,53.37716],[-119.68097,53.37685],[-119.68121,53.37664],[-119.68149,53.37632],[-119.68155,53.37613],[-119.68153,53.37597],[-119.68139,53.37573],[-119.68119,53.37555],[-119.68083,53.37501],[-119.68082,53.37499],[-119.68081,53.37428],[-119.68089,53.37348],[-119.68129,53.3726],[-119.68161,53.37205],[-119.68172,53.37174],[-119.68172,53.37123],[-119.68165,53.37086],[-119.68134,53.37041],[-119.68096,53.37018],[-119.68011,53.36993],[-119.67891,53.36974],[-119.67819,53.36945],[-119.67731,53.3692],[-119.67649,53.36893],[-119.67567,53.36877],[-119.67468,53.3686],[-119.67347,53.36822],[-119.67303,53.36814],[-119.67201,53.36787],[-119.67061,53.36746],[-119.67023,53.36742],[-119.66979,53.3674],[-119.66917,53.36745],[-119.6679,53.36758],[-119.66762,53.36764],[-119.66737,53.36769],[-119.66678,53.36775],[-119.66629,53.36781],[-119.66564,53.36783],[-119.66524,53.36789],[-119.66439,53.36781],[-119.66374,53.36768],[-119.66272,53.36751],[-119.66184,53.36742],[-119.65909,53.36704],[-119.65849,53.36693],[-119.65774,53.36689],[-119.65648,53.36687],[-119.65598,53.36689],[-119.65566,53.3669],[-119.65539,53.36693],[-119.655,53.36697],[-119.65484,53.36701],[-119.65465,53.36706],[-119.65433,53.36723],[-119.65391,53.36749],[-119.65352,53.36784],[-119.65269,53.36832],[-119.6523,53.36849],[-119.65196,53.36855],[-119.65145,53.36861],[-119.65092,53.36867],[-119.65048,53.36864],[-119.64927,53.36822],[-119.6482,53.36771],[-119.64738,53.36713],[-119.6468,53.36668],[-119.64647,53.36648],[-119.64592,53.36637],[-119.64507,53.36649],[-119.64446,53.3667],[-119.64407,53.36691],[-119.64372,53.36703],[-119.64345,53.36709],[-119.6434,53.36709],[-119.64298,53.36713],[-119.64235,53.36708],[-119.64158,53.36699],[-119.64079,53.36682],[-119.64003,53.36654],[-119.63942,53.36609],[-119.63867,53.36546],[-119.63798,53.36497],[-119.63726,53.36451],[-119.6366,53.36437],[-119.63556,53.36431],[-119.6351,53.36441],[-119.63452,53.36453],[-119.6342,53.36458],[-119.63403,53.3646],[-119.63352,53.36455],[-119.63283,53.36453],[-119.63213,53.3644],[-119.63149,53.36418],[-119.63094,53.36395],[-119.6303,53.36373],[-119.62813,53.36346],[-119.62744,53.36351],[-119.627,53.3636],[-119.62673,53.36365],[-119.62663,53.36368],[-119.62608,53.36386],[-119.62562,53.36414],[-119.62517,53.36438],[-119.62493,53.36458],[-119.6246,53.36477],[-119.62435,53.36483],[-119.62382,53.36482],[-119.62309,53.36466],[-119.62243,53.36431],[-119.62176,53.36376],[-119.62153,53.36346],[-119.6214,53.36326],[-119.62124,53.3631],[-119.62111,53.3629],[-119.62098,53.36281],[-119.62083,53.36279],[-119.62022,53.36279],[-119.6199,53.36285],[-119.61975,53.36287],[-119.61927,53.36292],[-119.61844,53.36292],[-119.61785,53.36282],[-119.61725,53.36276],[-119.61714,53.36276],[-119.61373,53.36281],[-119.61075,53.36292],[-119.60835,53.36301],[-119.60658,53.36318],[-119.60585,53.36335],[-119.60539,53.3636],[-119.60518,53.36374],[-119.60497,53.36393],[-119.60477,53.36402],[-119.6045,53.36407],[-119.60436,53.36409],[-119.60291,53.36427],[-119.60157,53.36476],[-119.601,53.36488],[-119.60047,53.36499],[-119.59947,53.36508],[-119.59926,53.3651],[-119.59887,53.36528],[-119.59871,53.36538],[-119.59863,53.36556],[-119.59851,53.36578],[-119.59834,53.36598],[-119.59784,53.36629],[-119.59769,53.36642],[-119.59752,53.36665],[-119.5973,53.36701],[-119.5972,53.36724],[-119.59733,53.36791],[-119.59753,53.36832],[-119.59849,53.36897],[-119.59905,53.36941],[-119.5995,53.36989],[-119.59975,53.37039],[-119.6,53.37073],[-119.60027,53.37103],[-119.60062,53.3713],[-119.60138,53.37168],[-119.60171,53.37189],[-119.60191,53.37205],[-119.60206,53.37223],[-119.60212,53.37245],[-119.6022,53.37261],[-119.60229,53.37272],[-119.60255,53.37282],[-119.60302,53.37293],[-119.60346,53.37318],[-119.60392,53.37348],[-119.60447,53.37395],[-119.60497,53.37448],[-119.6053,53.37499],[-119.6053,53.37501],[-119.60564,53.37624],[-119.60567,53.37711],[-119.60584,53.37791],[-119.60629,53.37862],[-119.60685,53.37931],[-119.60771,53.38006],[-119.60884,53.38092],[-119.60944,53.3813],[-119.60972,53.38141],[-119.61034,53.38155],[-119.6105,53.38164],[-119.61056,53.38174],[-119.6106,53.382],[-119.61056,53.38226],[-119.61033,53.38269],[-119.61003,53.38303],[-119.60975,53.38321],[-119.60913,53.3835],[-119.60845,53.38386],[-119.60773,53.38419],[-119.60724,53.38449],[-119.60708,53.38458],[-119.60684,53.38466],[-119.60635,53.38474],[-119.60608,53.38475],[-119.60577,53.38477],[-119.60463,53.38455],[-119.60327,53.38445],[-119.60171,53.3842],[-119.5999,53.38383],[-119.59782,53.38349],[-119.59747,53.38335],[-119.59658,53.38294],[-119.59479,53.38184],[-119.59011,53.37958],[-119.58285,53.37629],[-119.58094,53.37568],[-119.5807,53.37564],[-119.5801,53.37553],[-119.5797,53.37548],[-119.57885,53.37535],[-119.57846,53.37524],[-119.57822,53.3751],[-119.57811,53.375],[-119.57691,53.37316],[-119.5768,53.37306],[-119.57668,53.37298],[-119.57647,53.37289],[-119.57568,53.37243],[-119.57537,53.37222],[-119.57523,53.37218],[-119.57374,53.37216],[-119.57159,53.37218],[-119.57156,53.37218],[-119.57085,53.37221],[-119.57066,53.37219],[-119.57006,53.37215],[-119.56923,53.3722],[-119.56865,53.3722],[-119.56791,53.37214],[-119.5674,53.37208],[-119.56681,53.37193],[-119.5665,53.37176],[-119.56628,53.37158],[-119.56615,53.37154],[-119.56562,53.37144],[-119.56478,53.37134],[-119.56373,53.37124],[-119.56259,53.37122],[-119.56224,53.37117],[-119.56188,53.371],[-119.56161,53.37082],[-119.56154,53.37074],[-119.56097,53.36973],[-119.56079,53.36932],[-119.5601,53.36861],[-119.55963,53.36819],[-119.55887,53.36787],[-119.55783,53.36734],[-119.5572,53.36706],[-119.55655,53.36683],[-119.5556,53.36664],[-119.5541,53.36629],[-119.5532,53.36624],[-119.55247,53.36612],[-119.55131,53.36537],[-119.55058,53.36518],[-119.54922,53.36498],[-119.54807,53.36468],[-119.54585,53.36394],[-119.54536,53.36394],[-119.54471,53.36411],[-119.54411,53.36445],[-119.54357,53.36467],[-119.54288,53.36479],[-119.54283,53.36479],[-119.54165,53.36477],[-119.54164,53.36477],[-119.54039,53.36479],[-119.53773,53.36479],[-119.53764,53.36479],[-119.53612,53.36487],[-119.53584,53.36485],[-119.53513,53.36449],[-119.53455,53.36426],[-119.53386,53.36398],[-119.53294,53.36383],[-119.53214,53.36383],[-119.53186,53.36382],[-119.53155,53.36383],[-119.53155,53.36383],[-119.53134,53.36385],[-119.5312,53.36386],[-119.53108,53.36388],[-119.53087,53.36395],[-119.53061,53.36417],[-119.53033,53.36459],[-119.53015,53.36503],[-119.5297,53.36539],[-119.52935,53.36559],[-119.52885,53.3658],[-119.52831,53.36601],[-119.52807,53.36613],[-119.52765,53.36633],[-119.52717,53.36666],[-119.52698,53.36695],[-119.52685,53.36729],[-119.52679,53.36763],[-119.52633,53.36785],[-119.52464,53.36904],[-119.52429,53.36927],[-119.5239,53.36958],[-119.52362,53.36993],[-119.52335,53.37031],[-119.52323,53.37041],[-119.52309,53.37045],[-119.52308,53.37045],[-119.52201,53.37055],[-119.52113,53.37057],[-119.52052,53.37051],[-119.51983,53.37014],[-119.51839,53.3695],[-119.51755,53.36903],[-119.51722,53.36872],[-119.51697,53.36827],[-119.51629,53.36784],[-119.51496,53.36725],[-119.51218,53.36593],[-119.51094,53.36542],[-119.50833,53.36461],[-119.50713,53.36408],[-119.50601,53.36371],[-119.50455,53.3632],[-119.50352,53.36266],[-119.50249,53.3626],[-119.50177,53.36258],[-119.50107,53.36276],[-119.5009,53.36286],[-119.50068,53.36294],[-119.50038,53.36295],[-119.50002,53.36289],[-119.49928,53.36282],[-119.49746,53.36259],[-119.49633,53.36229],[-119.49478,53.36167],[-119.49448,53.36165],[-119.49419,53.36173],[-119.49368,53.36191],[-119.49316,53.36218],[-119.49284,53.36253],[-119.49258,53.36324],[-119.49241,53.36356],[-119.49228,53.36369],[-119.4919,53.3638],[-119.49142,53.36384],[-119.49071,53.36383],[-119.4906,53.36383],[-119.48856,53.36353],[-119.48767,53.36347],[-119.4869,53.36348],[-119.48655,53.36346],[-119.48447,53.36315],[-119.48238,53.36272],[-119.48144,53.36243],[-119.47991,53.36174],[-119.47874,53.36119],[-119.47738,53.36065],[-119.47699,53.36052],[-119.47638,53.36028],[-119.47588,53.36011],[-119.47403,53.35933],[-119.47284,53.35892],[-119.47246,53.35863],[-119.47186,53.35798],[-119.4715,53.35773],[-119.47119,53.35759],[-119.46977,53.35753],[-119.46923,53.35754],[-119.46875,53.35752],[-119.46822,53.35748],[-119.46659,53.35724],[-119.46493,53.35707],[-119.46438,53.35698],[-119.46403,53.35684],[-119.4636,53.3566],[-119.46181,53.356],[-119.46142,53.35576],[-119.46112,53.35547],[-119.46069,53.35491],[-119.4605,53.35475],[-119.46006,53.35458],[-119.4593,53.35445],[-119.45854,53.35439],[-119.45731,53.35422],[-119.45679,53.35404],[-119.45615,53.35364],[-119.45498,53.35273],[-119.45466,53.35245],[-119.45326,53.35057],[-119.45291,53.3501],[-119.45212,53.34972],[-119.45049,53.34933],[-119.449,53.34929],[-119.44745,53.34893],[-119.44737,53.34893],[-119.44692,53.34894],[-119.4467,53.34897],[-119.44652,53.349],[-119.44629,53.34905],[-119.44531,53.34925],[-119.44412,53.34955],[-119.44361,53.34978],[-119.44341,53.35009],[-119.44346,53.35047],[-119.44425,53.35104],[-119.44496,53.35161],[-119.4452,53.35195],[-119.4453,53.35228],[-119.44536,53.35271],[-119.44526,53.35296],[-119.4446,53.35348],[-119.44398,53.35373],[-119.44377,53.35394],[-119.44383,53.35476],[-119.44397,53.35499],[-119.44427,53.35528],[-119.44435,53.35539],[-119.44436,53.35561],[-119.44432,53.35572],[-119.4443,53.35577],[-119.44421,53.35584],[-119.44396,53.35593],[-119.44395,53.35593],[-119.44369,53.35599],[-119.44354,53.35602],[-119.44269,53.35614],[-119.44193,53.35621],[-119.44164,53.35623],[-119.4408,53.35621],[-119.44069,53.35621],[-119.44011,53.35621],[-119.43947,53.35615],[-119.43846,53.35615],[-119.43821,53.35616],[-119.43801,53.35617],[-119.43754,53.35617],[-119.43674,53.35617],[-119.43645,53.35623],[-119.43589,53.35631],[-119.43526,53.35644],[-119.43522,53.35644],[-119.43474,53.35657],[-119.43364,53.35691],[-119.4326,53.35727],[-119.43207,53.35742],[-119.43148,53.35766],[-119.43096,53.35789],[-119.43053,53.35811],[-119.43004,53.35841],[-119.42774,53.35991],[-119.42694,53.36048],[-119.42657,53.36083],[-119.42636,53.36095],[-119.42585,53.36116],[-119.42499,53.36148],[-119.42414,53.36169],[-119.42381,53.36172],[-119.42339,53.36176],[-119.42335,53.36177],[-119.42291,53.36185],[-119.42258,53.36194],[-119.4222,53.36209],[-119.42184,53.3623],[-119.4216,53.36255],[-119.42146,53.3628],[-119.4214,53.36308],[-119.42126,53.36329],[-119.42105,53.36342],[-119.4206,53.36351],[-119.42005,53.3637],[-119.41924,53.36407],[-119.41829,53.36457],[-119.41812,53.36462],[-119.41771,53.36467],[-119.41711,53.36468],[-119.4139,53.36493],[-119.4138,53.36494],[-119.41358,53.36498],[-119.41327,53.36512],[-119.41282,53.36538],[-119.4121,53.36574],[-119.41147,53.36617],[-119.41106,53.36635],[-119.41071,53.36655],[-119.41059,53.36665],[-119.41051,53.36678],[-119.41022,53.36668],[-119.40936,53.36644],[-119.40897,53.36626],[-119.40863,53.36614],[-119.40818,53.36605],[-119.40805,53.36602],[-119.40799,53.366],[-119.40775,53.36595],[-119.40707,53.36583],[-119.40459,53.36541],[-119.404,53.36531],[-119.40374,53.36523],[-119.4035,53.36516],[-119.40272,53.36476],[-119.40189,53.36409],[-119.4015,53.36377],[-119.401,53.36354],[-119.40025,53.36319],[-119.40014,53.36314],[-119.39952,53.36293],[-119.39952,53.36293],[-119.39885,53.3627],[-119.39812,53.36249],[-119.39792,53.36235],[-119.39691,53.36161],[-119.39646,53.36134],[-119.39593,53.36112],[-119.39328,53.36032],[-119.39283,53.36018],[-119.39227,53.35997],[-119.39153,53.35966],[-119.39097,53.35938],[-119.39055,53.35911],[-119.39037,53.35889],[-119.39008,53.35834],[-119.38966,53.35768],[-119.38918,53.35709],[-119.38855,53.35665],[-119.38707,53.35628],[-119.38582,53.35594],[-119.38492,53.35572],[-119.38438,53.35553],[-119.38408,53.35535],[-119.38387,53.35516],[-119.38243,53.35337],[-119.38218,53.35307],[-119.38187,53.35276],[-119.38117,53.35203],[-119.38025,53.35143],[-119.37775,53.34988],[-119.37749,53.34974],[-119.37737,53.34969],[-119.3772,53.34962],[-119.37714,53.34958],[-119.37607,53.34878],[-119.37574,53.34863],[-119.37535,53.34852],[-119.37535,53.34852],[-119.37525,53.3485],[-119.37436,53.34833],[-119.373,53.34818],[-119.37264,53.34782],[-119.37243,53.34749],[-119.37225,53.34702],[-119.37225,53.34702],[-119.37198,53.34692],[-119.37025,53.34674],[-119.36961,53.34681],[-119.36888,53.34681],[-119.36821,53.34665],[-119.36775,53.34647],[-119.36715,53.34601],[-119.36665,53.34546],[-119.3666,53.34543],[-119.3658,53.34494],[-119.36522,53.34446],[-119.36447,53.34347],[-119.36099,53.33942],[-119.35947,53.33775],[-119.35812,53.33599],[-119.35649,53.33443],[-119.35524,53.33305],[-119.35441,53.33207],[-119.35344,53.3312],[-119.35257,53.33091],[-119.35179,53.33004],[-119.35151,53.32942],[-119.35111,53.32873],[-119.35072,53.32777],[-119.35041,53.32604],[-119.35077,53.32473],[-119.35118,53.32405],[-119.3515,53.32345],[-119.35152,53.32265],[-119.35164,53.32203],[-119.35164,53.32116],[-119.35149,53.32036],[-119.35112,53.31966],[-119.35078,53.31895],[-119.35003,53.31813],[-119.34945,53.31725],[-119.34932,53.31638],[-119.34962,53.31571],[-119.35009,53.31523],[-119.35028,53.31496],[-119.3506,53.31481],[-119.35124,53.31443],[-119.35201,53.31416],[-119.35255,53.31412],[-119.35279,53.31407],[-119.35404,53.31382],[-119.35461,53.31366],[-119.35528,53.31347],[-119.35726,53.31289],[-119.35834,53.31258],[-119.35965,53.31197],[-119.36,53.3118],[-119.36028,53.3115],[-119.36025,53.31089],[-119.35949,53.30914],[-119.35928,53.30874],[-119.35893,53.30837],[-119.35799,53.30778],[-119.35712,53.30733],[-119.35511,53.30568],[-119.35465,53.30529],[-119.35308,53.30373],[-119.35184,53.30262],[-119.35067,53.3018],[-119.3498,53.30112],[-119.34955,53.30092],[-119.34857,53.30043],[-119.3479,53.30012],[-119.34675,53.29982],[-119.34516,53.29914],[-119.34495,53.29904],[-119.3448,53.29897],[-119.34401,53.2987],[-119.34337,53.29859],[-119.34243,53.29849],[-119.34129,53.29846],[-119.34085,53.29855],[-119.34078,53.29856],[-119.34019,53.29867],[-119.33952,53.29881],[-119.3369,53.29919],[-119.33583,53.29924],[-119.33565,53.29922],[-119.33495,53.29917],[-119.33403,53.299],[-119.33243,53.29891],[-119.33214,53.29881],[-119.33203,53.29867],[-119.33222,53.2982],[-119.33276,53.29669],[-119.33298,53.29571],[-119.33316,53.29492],[-119.33329,53.29375],[-119.33342,53.29278],[-119.33362,53.29237],[-119.33404,53.29184],[-119.33437,53.29152],[-119.3356,53.29082],[-119.33801,53.28972],[-119.34014,53.28845],[-119.34182,53.28779],[-119.3429,53.28714],[-119.34294,53.28712],[-119.3439,53.28626],[-119.34387,53.28565],[-119.34365,53.28502],[-119.34354,53.28483],[-119.34323,53.28429],[-119.34239,53.2835],[-119.34057,53.28258],[-119.34004,53.28233],[-119.33957,53.28212],[-119.33867,53.2816],[-119.33846,53.28148],[-119.33787,53.28099],[-119.33719,53.2802],[-119.33682,53.27933],[-119.33657,53.27778],[-119.33642,53.27725],[-119.33607,53.27667],[-119.33517,53.27596],[-119.33392,53.27498],[-119.33331,53.2739],[-119.33275,53.27305],[-119.33195,53.27217],[-119.33139,53.27174],[-119.33049,53.27098],[-119.32952,53.27036],[-119.32706,53.26967],[-119.32576,53.26897],[-119.32454,53.26846],[-119.32425,53.26834],[-119.32415,53.26831],[-119.32316,53.26767],[-119.32185,53.26692],[-119.32089,53.26631],[-119.32003,53.26587],[-119.31873,53.26503],[-119.31742,53.2643],[-119.31579,53.26374],[-119.31564,53.26364],[-119.31415,53.26309],[-119.313,53.26272],[-119.31236,53.26257],[-119.3121,53.26244],[-119.31188,53.26221],[-119.31147,53.26174],[-119.31055,53.26101],[-119.31038,53.26078],[-119.31013,53.26048],[-119.30972,53.25985],[-119.30913,53.25905],[-119.30884,53.2584],[-119.30862,53.25818],[-119.30849,53.25805],[-119.30828,53.25791],[-119.30801,53.25774],[-119.30735,53.25749],[-119.30629,53.25726],[-119.30495,53.25709],[-119.30304,53.2569],[-119.30214,53.25687],[-119.30214,53.25687],[-119.30188,53.25687],[-119.30148,53.25687],[-119.30126,53.25683],[-119.30119,53.25682],[-119.30089,53.25669],[-119.30052,53.25575],[-119.30044,53.25555],[-119.30035,53.25545],[-119.30022,53.25533],[-119.29993,53.25498],[-119.29938,53.25436],[-119.29902,53.25406],[-119.29872,53.25369],[-119.29874,53.25329],[-119.29897,53.25256],[-119.29901,53.25202],[-119.29888,53.25159],[-119.29852,53.25132],[-119.29809,53.25108],[-119.2974,53.25074],[-119.29697,53.25036],[-119.29665,53.25],[-119.29636,53.24964],[-119.2962,53.24927],[-119.29608,53.24889],[-119.29609,53.24863],[-119.29609,53.24816],[-119.29572,53.24735],[-119.29525,53.24683],[-119.295,53.24656],[-119.29409,53.24487],[-119.29246,53.24276],[-119.29077,53.24036],[-119.28871,53.23794],[-119.28693,53.23624],[-119.28581,53.23496],[-119.28455,53.23314],[-119.28405,53.23195],[-119.28379,53.23098],[-119.28325,53.23002],[-119.28303,53.22966],[-119.28246,53.22923],[-119.28024,53.22826],[-119.27808,53.22739],[-119.27522,53.22555],[-119.2744,53.22458],[-119.27388,53.22398],[-119.27302,53.22354],[-119.27162,53.22299],[-119.27112,53.22273],[-119.27062,53.22235],[-119.27005,53.22154],[-119.26951,53.22051],[-119.26951,53.22051],[-119.2693,53.21955],[-119.26897,53.21864],[-119.26827,53.21766],[-119.26776,53.21701],[-119.26677,53.21585],[-119.26657,53.21495],[-119.26585,53.21354],[-119.26583,53.21321],[-119.26591,53.21275],[-119.26635,53.21234],[-119.26646,53.21217],[-119.26658,53.21173],[-119.26629,53.21114],[-119.26565,53.21047],[-119.26506,53.21005],[-119.2644,53.20967],[-119.2642,53.20948],[-119.26409,53.20927],[-119.26397,53.20884],[-119.2637,53.20798],[-119.26331,53.2073],[-119.26219,53.20603],[-119.26218,53.20602],[-119.26086,53.20387],[-119.2599,53.20255],[-119.25944,53.20102],[-119.25938,53.20064],[-119.25885,53.1995],[-119.2576,53.19842],[-119.25704,53.19755],[-119.25584,53.19526],[-119.25391,53.19223],[-119.25283,53.19001],[-119.25278,53.18751],[-119.25315,53.18564],[-119.25358,53.18497],[-119.25467,53.18391],[-119.25555,53.18322],[-119.2569,53.182],[-119.25782,53.18161],[-119.25868,53.18109],[-119.25946,53.18071],[-119.26016,53.18013],[-119.26069,53.1797],[-119.26107,53.17906],[-119.26126,53.1784],[-119.26143,53.17806],[-119.26148,53.17782],[-119.26144,53.1776],[-119.26132,53.17724],[-119.26132,53.17665],[-119.26124,53.1766],[-119.26112,53.17656],[-119.26052,53.17659],[-119.2595,53.17653],[-119.25846,53.17641],[-119.2571,53.17612],[-119.25663,53.17596],[-119.2564,53.17589],[-119.25606,53.17586],[-119.25544,53.17588],[-119.25461,53.17591],[-119.2536,53.17605],[-119.2534,53.17607],[-119.25279,53.17611],[-119.25258,53.17616],[-119.25156,53.17638],[-119.25066,53.17659],[-119.25027,53.17662],[-119.24997,53.17664],[-119.24966,53.17664],[-119.2487,53.17665],[-119.24812,53.17671],[-119.24765,53.17688],[-119.24728,53.17701],[-119.24679,53.17725],[-119.24614,53.17743],[-119.24548,53.17779],[-119.24477,53.17822],[-119.24328,53.1789],[-119.24256,53.17936],[-119.24242,53.17958],[-119.24222,53.17965],[-119.24164,53.17973],[-119.2411,53.17992],[-119.23937,53.18075],[-119.23758,53.18166],[-119.23669,53.18216],[-119.23658,53.18233],[-119.23653,53.18251],[-119.2366,53.18282],[-119.23681,53.1833],[-119.23694,53.18407],[-119.2369,53.18439],[-119.23682,53.18477],[-119.23688,53.18522],[-119.23682,53.18642],[-119.23682,53.18692],[-119.23691,53.18731],[-119.23735,53.18765],[-119.23773,53.18842],[-119.23804,53.18952],[-119.23827,53.19],[-119.23844,53.19051],[-119.23837,53.19084],[-119.23773,53.19179],[-119.23732,53.19222],[-119.23718,53.19261],[-119.23709,53.19287],[-119.237,53.19299],[-119.23671,53.19304],[-119.23597,53.19294],[-119.23537,53.19296],[-119.23501,53.19299],[-119.2344,53.19305],[-119.23427,53.19306],[-119.234,53.1931],[-119.2336,53.19319],[-119.23275,53.19367],[-119.23248,53.19395],[-119.23235,53.19417],[-119.23104,53.19476],[-119.23004,53.19514],[-119.22943,53.19531],[-119.22881,53.19538],[-119.22809,53.19537],[-119.22751,53.19528],[-119.22646,53.19512],[-119.22634,53.1951],[-119.2262,53.19507],[-119.22501,53.19482],[-119.22351,53.19428],[-119.22348,53.19427],[-119.22224,53.1939],[-119.22129,53.19368],[-119.22039,53.19331],[-119.21956,53.19289],[-119.21903,53.19274],[-119.21786,53.19238],[-119.21664,53.19181],[-119.21627,53.19154],[-119.21556,53.19134],[-119.21464,53.19107],[-119.2135,53.19056],[-119.21263,53.19003],[-119.21184,53.18929],[-119.21122,53.18854],[-119.21086,53.18796],[-119.2102,53.18745],[-119.20952,53.1871],[-119.20875,53.18673],[-119.20801,53.18647],[-119.2073,53.18584],[-119.20667,53.18548],[-119.20536,53.18522],[-119.20459,53.1852],[-119.20342,53.18509],[-119.20217,53.18485],[-119.20098,53.18467],[-119.1996,53.18451],[-119.1985,53.18437],[-119.19726,53.18411],[-119.19418,53.1836],[-119.19257,53.18314],[-119.19186,53.18302],[-119.19125,53.183],[-119.19064,53.18302],[-119.1903,53.18303],[-119.18975,53.18317],[-119.1893,53.18338],[-119.18867,53.18379],[-119.18843,53.18382],[-119.18839,53.18383],[-119.18765,53.18376],[-119.18637,53.18388],[-119.18591,53.18388],[-119.18522,53.18389],[-119.18454,53.18384],[-119.1834,53.1837],[-119.18262,53.1833],[-119.1816,53.1832],[-119.1815,53.1832],[-119.18081,53.18319],[-119.18009,53.18327],[-119.17916,53.1835],[-119.17813,53.18385],[-119.17724,53.18412],[-119.17692,53.18413],[-119.17658,53.18404],[-119.1762,53.18403],[-119.17569,53.18403],[-119.17428,53.18392],[-119.17328,53.18388],[-119.1722,53.1838],[-119.17131,53.18376],[-119.17122,53.18377],[-119.17108,53.18377],[-119.17082,53.18383],[-119.17071,53.1839],[-119.16996,53.18434],[-119.16897,53.18527],[-119.16812,53.18578],[-119.16749,53.18608],[-119.16691,53.18628],[-119.16647,53.18638],[-119.16636,53.18638],[-119.1659,53.18639],[-119.165,53.1863],[-119.16412,53.18633],[-119.16335,53.18644],[-119.16328,53.18644],[-119.16162,53.18656],[-119.16106,53.18662],[-119.16054,53.18668],[-119.15882,53.18689],[-119.15751,53.18711],[-119.15736,53.18714],[-119.15677,53.18728],[-119.1562,53.18741],[-119.15545,53.18765],[-119.15449,53.18808],[-119.15329,53.18876],[-119.15194,53.18956],[-119.15128,53.18983],[-119.15102,53.18994],[-119.15098,53.18996],[-119.15024,53.1903],[-119.15024,53.1903],[-119.14867,53.19085],[-119.1479,53.19096],[-119.14588,53.18228],[-119.14171,53.17686],[-119.14171,53.17686],[-119.13922,53.17294],[-119.13911,53.17276],[-119.12852,53.16608],[-119.12668,53.16435],[-119.12554,53.16326],[-119.1222,53.16009],[-119.11075,53.16136],[-119.11075,53.16136],[-119.11073,53.16136],[-119.10542,53.16202],[-119.10328,53.16274],[-119.10168,53.1636],[-119.1001,53.16397],[-119.10002,53.16398],[-119.09901,53.16414],[-119.09691,53.1649],[-119.09613,53.16508],[-119.09462,53.16511],[-119.09293,53.16479],[-119.09093,53.16419],[-119.08969,53.16358],[-119.08948,53.16347],[-119.08857,53.16328],[-119.08803,53.16316],[-119.08759,53.16306],[-119.08672,53.16285],[-119.08648,53.16273],[-119.08595,53.16248],[-119.08484,53.16181],[-119.0841,53.16163],[-119.08376,53.16155],[-119.08371,53.16153],[-119.08315,53.16133],[-119.08167,53.16059],[-119.08018,53.16025],[-119.07918,53.1598],[-119.07849,53.15973],[-119.07801,53.1597],[-119.07734,53.15951],[-119.07612,53.15904],[-119.076,53.15899],[-119.07378,53.15781],[-119.07207,53.15705],[-119.07032,53.15644],[-119.069,53.15584],[-119.06829,53.15553],[-119.06727,53.15521],[-119.06706,53.1551],[-119.06691,53.15495],[-119.06674,53.15459],[-119.0667,53.15426],[-119.06657,53.1537],[-119.06649,53.15354],[-119.06633,53.15337],[-119.06627,53.15331],[-119.06617,53.15323],[-119.06573,53.15287],[-119.06417,53.15236],[-119.06068,53.15102],[-119.06001,53.1505],[-119.05921,53.15008],[-119.05742,53.14945],[-119.05589,53.14907],[-119.05472,53.14836],[-119.05273,53.14771],[-119.05173,53.1471],[-119.0517,53.14709],[-119.05084,53.14632],[-119.05036,53.14568],[-119.04977,53.14512],[-119.04936,53.14466],[-119.04909,53.14364],[-119.04867,53.143],[-119.04867,53.14074],[-119.04855,53.1396],[-119.04764,53.13844],[-119.04754,53.13797],[-119.04752,53.13753],[-119.04874,53.13545],[-119.04896,53.13475],[-119.04891,53.13421],[-119.04891,53.1342],[-119.04892,53.13359],[-119.04909,53.13202],[-119.0493,53.13074],[-119.04949,53.12954],[-119.04966,53.12783],[-119.04948,53.12671],[-119.04931,53.12629],[-119.04901,53.12588],[-119.04894,53.12578],[-119.04879,53.12567],[-119.04842,53.12552],[-119.04554,53.12524],[-119.04403,53.1251],[-119.043,53.12501],[-119.04099,53.12484],[-119.03988,53.12469],[-119.039,53.12467],[-119.03856,53.12466],[-119.03795,53.1247],[-119.03698,53.12476],[-119.03537,53.12471],[-119.03489,53.1247],[-119.03397,53.12473],[-119.03275,53.12476],[-119.03088,53.12462],[-119.03051,53.12457],[-119.03019,53.12451],[-119.03014,53.12451],[-119.03011,53.1245],[-119.02977,53.12442],[-119.02844,53.12413],[-119.02737,53.12384],[-119.02755,53.12793],[-119.02769,53.13116],[-119.02747,53.13167],[-119.0272,53.13198],[-119.02623,53.13278],[-118.99962,53.14536],[-119.00416,53.14805],[-119.00772,53.14967],[-119.0108,53.15074],[-119.01868,53.15573],[-119.02321,53.15833],[-119.027,53.1607],[-119.0301,53.16296],[-119.02372,53.1684],[-119.0185,53.173],[-119.01532,53.17811],[-119.01346,53.18156],[-119.01259,53.18309],[-119.01226,53.18336],[-119.00953,53.18518],[-119.00771,53.18875],[-119.00518,53.19125],[-119.00333,53.19224],[-119.00165,53.19256],[-119.00136,53.19262],[-119.00026,53.19272],[-118.99883,53.19302],[-118.99794,53.19321],[-118.99697,53.1933],[-118.9964,53.19335],[-118.99629,53.19336],[-118.99576,53.19345],[-118.99518,53.19357],[-118.99511,53.19359],[-118.99501,53.19361],[-118.99494,53.1937],[-118.99523,53.19426],[-118.9953,53.19509],[-118.99546,53.19558],[-118.99614,53.19692],[-118.9965,53.19789],[-118.99674,53.19878],[-118.99674,53.19963],[-118.99683,53.20055],[-118.99676,53.20148],[-118.99625,53.20254],[-118.99611,53.20297],[-118.9959,53.20317],[-118.99567,53.20332],[-118.99567,53.20332],[-118.99546,53.20339],[-118.99501,53.20374],[-118.99428,53.20437],[-118.99362,53.205],[-118.9934,53.20513],[-118.99333,53.20527],[-118.99344,53.2055],[-118.9938,53.20586],[-118.99431,53.20647],[-118.99476,53.20725],[-118.99515,53.20772],[-118.99619,53.20871],[-118.9975,53.20958],[-118.99903,53.21052],[-118.99957,53.21072],[-119.00071,53.211],[-119.00193,53.21134],[-119.0029,53.21169],[-119.0034,53.2119],[-119.00389,53.2121],[-119.00454,53.21248],[-119.00505,53.21294],[-119.00522,53.21334],[-119.0058,53.21393],[-119.00659,53.21436],[-119.00679,53.2145],[-119.00719,53.21464],[-119.00804,53.2148],[-119.00975,53.21476],[-119.01099,53.21466],[-119.01234,53.21477],[-119.01408,53.21483],[-119.01485,53.21499],[-119.0153,53.21516],[-119.01633,53.21562],[-119.01697,53.21578],[-119.01777,53.21606],[-119.01926,53.21639],[-119.02019,53.21676],[-119.0212,53.21716],[-119.02169,53.2176],[-119.02219,53.21806],[-119.02275,53.21869],[-119.02333,53.21936],[-119.02365,53.2199],[-119.02407,53.22043],[-119.02445,53.22088],[-119.02482,53.22113],[-119.02533,53.22156],[-119.02576,53.22225],[-119.02589,53.22276],[-119.0259,53.2231],[-119.02584,53.22329],[-119.02453,53.22444],[-119.02346,53.22558],[-119.022,53.22733],[-119.02066,53.22814],[-119.01946,53.22878],[-119.01821,53.22963],[-119.01671,53.23064],[-119.01529,53.23164],[-119.01361,53.23255],[-119.01212,53.23319],[-119.0109,53.23363],[-119.01045,53.23378],[-119.00988,53.23396],[-119.0096,53.23407],[-119.00818,53.23462],[-119.00675,53.2349],[-119.00568,53.23514],[-119.00414,53.23532],[-119.00306,53.2355],[-119.00218,53.23581],[-119.00029,53.23614],[-118.99966,53.23625],[-118.99833,53.23612],[-118.99766,53.23615],[-118.99685,53.2362],[-118.99568,53.23633],[-118.99492,53.23642],[-118.99453,53.23648],[-118.99361,53.23662],[-118.99241,53.23679],[-118.99151,53.23687],[-118.99075,53.23691],[-118.99016,53.23694],[-118.98991,53.23695],[-118.98972,53.23696],[-118.98966,53.23697],[-118.98922,53.23721],[-118.98771,53.23823],[-118.9862,53.23891],[-118.98518,53.23948],[-118.98467,53.23983],[-118.98434,53.24018],[-118.9843,53.24156],[-118.98382,53.24191],[-118.98343,53.24211],[-118.98319,53.24213],[-118.98306,53.24205],[-118.98286,53.24138],[-118.98293,53.24099],[-118.98291,53.24096],[-118.98269,53.24048],[-118.98237,53.23996],[-118.98194,53.23947],[-118.98121,53.23903],[-118.98077,53.23887],[-118.9804,53.23877],[-118.98026,53.23876],[-118.97948,53.23872],[-118.97865,53.23876],[-118.97841,53.23877],[-118.97753,53.23874],[-118.97694,53.23872],[-118.97672,53.23871],[-118.9766,53.2387],[-118.97627,53.23865],[-118.97524,53.23843],[-118.97414,53.23815],[-118.97314,53.23778],[-118.97142,53.23717],[-118.97018,53.23668],[-118.96852,53.2363],[-118.96703,53.23589],[-118.96497,53.23565],[-118.964,53.23554],[-118.96358,53.23547],[-118.96176,53.23517],[-118.95944,53.2349],[-118.9586,53.23466],[-118.95813,53.23461],[-118.95757,53.23505],[-118.95677,53.23565],[-118.95616,53.23598],[-118.95555,53.23616],[-118.95451,53.23647],[-118.95348,53.23669],[-118.9524,53.23682],[-118.95222,53.23684],[-118.95037,53.23717],[-118.94968,53.23713],[-118.94888,53.23703],[-118.94819,53.23684],[-118.94815,53.23683],[-118.94773,53.23657],[-118.94693,53.23583],[-118.94608,53.23523],[-118.94531,53.23473],[-118.94455,53.23436],[-118.94301,53.2337],[-118.94143,53.23297],[-118.93981,53.23212],[-118.93719,53.23064],[-118.93602,53.22993],[-118.9356,53.22968],[-118.93555,53.22966],[-118.93516,53.22951],[-118.93478,53.22938],[-118.93415,53.22904],[-118.93343,53.22852],[-118.93314,53.2284],[-118.93279,53.22843],[-118.93145,53.22847],[-118.93102,53.22846],[-118.93059,53.22846],[-118.93007,53.2283],[-118.92956,53.22812],[-118.92919,53.2279],[-118.92907,53.22782],[-118.92833,53.22726],[-118.92797,53.22698],[-118.92739,53.22664],[-118.92593,53.22585],[-118.92528,53.2254],[-118.92469,53.22473],[-118.92373,53.22335],[-118.92303,53.22239],[-118.92266,53.22171],[-118.92235,53.22074],[-118.92246,53.21949],[-118.92285,53.21838],[-118.92312,53.21792],[-118.92339,53.21746],[-118.92351,53.21728],[-118.92397,53.21662],[-118.92443,53.21579],[-118.92453,53.21528],[-118.92434,53.21483],[-118.92415,53.21462],[-118.92413,53.2146],[-118.92412,53.21458],[-118.92375,53.21419],[-118.92335,53.21394],[-118.92263,53.21353],[-118.9215,53.21294],[-118.92061,53.21248],[-118.92049,53.21241],[-118.92018,53.21223],[-118.91868,53.21154],[-118.91761,53.21115],[-118.9166,53.21076],[-118.91522,53.21033],[-118.91436,53.21008],[-118.91229,53.20946],[-118.90974,53.20898],[-118.90807,53.20873],[-118.90781,53.2087],[-118.90734,53.20864],[-118.90603,53.20848],[-118.90531,53.20847],[-118.9047,53.20851],[-118.9039,53.20871],[-118.90339,53.20882],[-118.90276,53.2089],[-118.90201,53.20891],[-118.90133,53.20885],[-118.90003,53.20856],[-118.89852,53.20815],[-118.89698,53.20764],[-118.89639,53.20758],[-118.89618,53.2076],[-118.89577,53.20764],[-118.89529,53.20768],[-118.89507,53.20767],[-118.89467,53.20765],[-118.89364,53.20754],[-118.89253,53.20735],[-118.89034,53.20685],[-118.88985,53.20673],[-118.88914,53.20667],[-118.88701,53.20633],[-118.88429,53.20601],[-118.88217,53.20579],[-118.88125,53.2058],[-118.88071,53.2058],[-118.87981,53.2057],[-118.87899,53.20554],[-118.87751,53.20521],[-118.87648,53.20491],[-118.87539,53.20455],[-118.87487,53.20433],[-118.87462,53.20422],[-118.87437,53.20405],[-118.87423,53.20377],[-118.87426,53.2035],[-118.87434,53.20332],[-118.87471,53.20279],[-118.87469,53.20247],[-118.87492,53.2019],[-118.87495,53.20187],[-118.87546,53.20123],[-118.87571,53.20096],[-118.87573,53.20094],[-118.87583,53.20069],[-118.87579,53.19977],[-118.87569,53.19938],[-118.87551,53.1992],[-118.87486,53.19869],[-118.87481,53.19865],[-118.87317,53.19796],[-118.87296,53.19789],[-118.87157,53.19741],[-118.87015,53.19728],[-118.87005,53.19728],[-118.86934,53.19728],[-118.86874,53.19712],[-118.86819,53.19686],[-118.86795,53.19664],[-118.86781,53.19649],[-118.86762,53.19603],[-118.86754,53.19546],[-118.86724,53.19493],[-118.86699,53.19447],[-118.8668,53.19391],[-118.8664,53.19324],[-118.86614,53.19294],[-118.86564,53.19242],[-118.86488,53.19182],[-118.86444,53.19146],[-118.86342,53.19039],[-118.86334,53.19031],[-118.86314,53.19007],[-118.86275,53.18962],[-118.86248,53.1892],[-118.86219,53.1885],[-118.86201,53.18823],[-118.86175,53.18799],[-118.86138,53.18788],[-118.85983,53.18773],[-118.85858,53.18752],[-118.85758,53.18725],[-118.85546,53.18675],[-118.85462,53.18644],[-118.85385,53.18604],[-118.85236,53.18563],[-118.85158,53.18526],[-118.85117,53.1851],[-118.8508,53.18504],[-118.85026,53.18502],[-118.84894,53.18492],[-118.84851,53.18489],[-118.84815,53.18485],[-118.84631,53.18465],[-118.84467,53.18426],[-118.8436,53.18423],[-118.84222,53.18424],[-118.84143,53.18424],[-118.83777,53.18449],[-118.83705,53.18454],[-118.83603,53.18455],[-118.83418,53.18435],[-118.83366,53.1841],[-118.8334,53.1839],[-118.83289,53.18304],[-118.83236,53.18097],[-118.83196,53.1801],[-118.83127,53.1777],[-118.83105,53.17706],[-118.83067,53.17653],[-118.83043,53.17567],[-118.82975,53.17385],[-118.82903,53.17277],[-118.82884,53.17246],[-118.82882,53.17244],[-118.82882,53.17243],[-118.8287,53.17234],[-118.82851,53.17227],[-118.82791,53.1722],[-118.82762,53.17216],[-118.82724,53.17212],[-118.82654,53.17203],[-118.82586,53.17213],[-118.82496,53.17239],[-118.82388,53.17252],[-118.82382,53.17252],[-118.82303,53.17253],[-118.82234,53.17247],[-118.822,53.17244],[-118.82084,53.1721],[-118.81946,53.1717],[-118.81907,53.17156],[-118.81844,53.17134],[-118.81809,53.1711],[-118.81769,53.17073],[-118.81726,53.17026],[-118.81699,53.16997],[-118.81685,53.16975],[-118.81636,53.16902],[-118.81606,53.1685],[-118.81576,53.168],[-118.8153,53.16726],[-118.81475,53.16624],[-118.81435,53.16556],[-118.81383,53.16459],[-118.81373,53.16451],[-118.81366,53.16446],[-118.81341,53.1644],[-118.8123,53.16423],[-118.81123,53.16396],[-118.80978,53.16382],[-118.80711,53.16333],[-118.80592,53.16296],[-118.80493,53.16266],[-118.80449,53.16246],[-118.80406,53.1624],[-118.80076,53.16259],[-118.79996,53.16265],[-118.79935,53.16269],[-118.79858,53.16287],[-118.7974,53.16288],[-118.79677,53.16282],[-118.7956,53.1627],[-118.79461,53.16249],[-118.79433,53.16243],[-118.79376,53.16228],[-118.7935,53.16212],[-118.79343,53.16208],[-118.79342,53.16205],[-118.79295,53.16128],[-118.79266,53.1602],[-118.79264,53.15982],[-118.79262,53.15913],[-118.79257,53.15889],[-118.79246,53.15837],[-118.79213,53.15771],[-118.79183,53.15717],[-118.79177,53.15706],[-118.79141,53.15654],[-118.79137,53.15649],[-118.79068,53.15607],[-118.7894,53.15543],[-118.78885,53.15514],[-118.78825,53.15478],[-118.78656,53.15386],[-118.786,53.1534],[-118.78494,53.15234],[-118.78436,53.15187],[-118.78342,53.15108],[-118.78297,53.15054],[-118.78275,53.1503],[-118.78265,53.15003],[-118.78275,53.14993],[-118.78276,53.14993],[-118.78388,53.14953],[-118.78535,53.14893],[-118.7866,53.14837],[-118.78698,53.1482],[-118.78785,53.14774],[-118.78818,53.14757],[-118.7887,53.14716],[-118.78925,53.14658],[-118.78957,53.14617],[-118.78962,53.14591],[-118.78964,53.14582],[-118.78963,53.14573],[-118.78961,53.14561],[-118.78941,53.14514],[-118.78897,53.14476],[-118.78816,53.14424],[-118.78677,53.14332],[-118.78599,53.14268],[-118.78576,53.14249],[-118.78527,53.14191],[-118.78462,53.14113],[-118.7847,53.14094],[-118.78475,53.14083],[-118.78475,53.14081],[-118.78479,53.14061],[-118.78465,53.14035],[-118.78407,53.13912],[-118.78391,53.13814],[-118.7835,53.13746],[-118.78321,53.13648],[-118.7827,53.13521],[-118.78243,53.13458],[-118.78189,53.13422],[-118.78095,53.13373],[-118.77958,53.13532],[-118.77108,53.13541],[-118.76126,53.13283],[-118.74749,53.13086],[-118.73692,53.12879],[-118.7169,53.12846],[-118.69795,53.12184],[-118.68214,53.11463],[-118.65511,53.10681],[-118.64179,53.10049],[-118.61788,53.10122],[-118.59875,53.1018],[-118.56955,53.10604],[-118.52677,53.1203],[-118.51349,53.12406],[-118.49925,53.12593],[-118.48338,53.12735],[-118.46291,53.13132],[-118.45134,53.13646],[-118.43983,53.14256],[-118.43942,53.14738],[-118.44938,53.1519],[-118.46857,53.15183],[-118.49462,53.1477],[-118.49597,53.15439],[-118.5102,53.16215],[-118.51873,53.16863],[-118.52363,53.17954],[-118.51859,53.18642],[-118.50887,53.19488],[-118.51022,53.20157],[-118.52196,53.20796],[-118.54744,53.21586],[-118.54803,53.22305],[-118.54547,53.23082],[-118.54051,53.23866],[-118.52391,53.25117],[-118.51822,53.26],[-118.51413,53.26877],[-118.51483,53.27741],[-118.50116,53.30218],[-118.4999,53.30308],[-118.5,53.30429],[-118.50084,53.31454],[-118.49332,53.32689],[-118.47008,53.32948],[-118.45024,53.33452],[-118.43612,53.3445],[-118.41936,53.34817],[-118.40005,53.34681],[-118.38496,53.33129],[-118.37028,53.32086],[-118.35364,53.3124],[-118.33233,53.31236],[-118.31336,53.32883],[-118.31791,53.35997],[-118.32229,53.37516],[-118.33448,53.3946],[-118.33568,53.40988],[-118.33931,53.42892],[-118.34036,53.44229],[-118.3404,53.44289],[-118.3254,53.46721],[-118.3167,53.49569],[-118.32141,53.5325],[-118.33357,53.57127],[-118.34143,53.60146],[-118.34246,53.61447],[-118.34332,53.62531],[-118.34834,53.64314],[-118.35643,53.64314],[-118.36841,53.64314],[-118.36886,53.64314],[-118.381,53.64314],[-118.39298,53.64314],[-118.39344,53.64314],[-118.39577,53.64313],[-118.37612,53.65897],[-118.31961,53.69319],[-118.3047,53.70227],[-118.2764,53.71948],[-118.23467,53.74543],[-118.23056,53.74804],[-118.14817,53.80247],[-118.12937,53.80249],[-118.1254,53.80249],[-118.12394,53.80289],[-118.12294,53.80382],[-118.12243,53.80558],[-118.12292,53.80685],[-118.12471,53.80832],[-118.12383,53.81089],[-118.12283,53.81389],[-118.12161,53.81758],[-118.12102,53.81861],[-118.12164,53.81949],[-118.12153,53.81957],[-118.12129,53.82027],[-118.11994,53.82171],[-118.11953,53.82394],[-118.11982,53.82519],[-118.12079,53.82546],[-118.12091,53.82815],[-118.12073,53.82926],[-118.12164,53.83031],[-118.12161,53.83035],[-118.12168,53.83035],[-118.12202,53.8308],[-118.12114,53.83261],[-118.12077,53.83403],[-118.1209,53.83456],[-118.12107,53.8351],[-118.12134,53.83627],[-118.12217,53.83709],[-118.12262,53.83788],[-118.12249,53.83874],[-118.12199,53.84204],[-118.12181,53.84279],[-118.12177,53.8428],[-118.12181,53.8428],[-118.1216,53.84396],[-118.1214,53.84639],[-118.12072,53.84704],[-118.12081,53.84848],[-118.12168,53.85098],[-118.12391,53.85235],[-118.12467,53.85382],[-118.12421,53.85497],[-118.12409,53.85501],[-118.12419,53.85501],[-118.12384,53.85589],[-118.12378,53.85741],[-118.123,53.85836],[-118.11981,53.86171],[-118.11812,53.86366],[-118.11902,53.86555],[-118.11831,53.86691],[-118.11687,53.86755],[-118.11598,53.86795],[-118.11562,53.8685],[-118.11525,53.86934],[-118.11516,53.86997],[-118.11547,53.8711],[-118.11536,53.87239],[-118.1147,53.87305],[-118.11386,53.87421],[-118.11393,53.87527],[-118.11431,53.87601],[-118.11529,53.87716],[-118.11598,53.8779],[-118.11617,53.87843],[-118.11589,53.87891],[-118.11495,53.87902],[-118.11351,53.87913],[-118.11216,53.87917],[-118.11079,53.87947],[-118.10946,53.87977],[-118.10907,53.88001],[-118.1085,53.88047],[-118.10707,53.88167],[-118.10557,53.88288],[-118.1049,53.88413],[-118.10381,53.88435],[-118.10176,53.88522],[-118.0998,53.88598],[-118.09838,53.88695],[-118.09787,53.88788],[-118.09649,53.88858],[-118.09461,53.88945],[-118.0944,53.89036],[-118.09462,53.89116],[-118.09574,53.89188],[-118.09758,53.8921],[-118.09848,53.89251],[-118.09849,53.89301],[-118.09797,53.89327],[-118.09582,53.89365],[-118.09389,53.89377],[-118.0929,53.89406],[-118.0914,53.89463],[-118.08884,53.89559],[-118.08722,53.89645],[-118.08691,53.89691],[-118.08633,53.89761],[-118.08548,53.89848],[-118.08525,53.89855],[-118.08538,53.89855],[-118.08433,53.89921],[-118.08306,53.9001],[-118.0814,53.90064],[-118.08015,53.90113],[-118.0782,53.90139],[-118.07671,53.90129],[-118.07551,53.9016],[-118.07522,53.902],[-118.07473,53.90283],[-118.07442,53.90334],[-118.07322,53.90426],[-118.07141,53.90508],[-118.07015,53.90556],[-118.07012,53.90561],[-118.06969,53.90609],[-118.07332,53.90849],[-118.07424,53.90747],[-118.16953,53.97189]]]},"properties":{"SUBUNIT":"A La Peche","LOCALRANGE":"West Central","STATUS":"Active","PERIM10TM":475383.11872193002,"AREA10TM":6614995750.4677095,"ACRES10TM":1634594.5099253501,"HA10TM":661499.57504677004,"OBJECTID":21,"SHAPE.STArea()":6614995750.4677134,"SHAPE.STLength()":475383.11872192781}}]}