{"type":"FeatureCollection","features":[{"type":"Feature","id":22,"geometry":{"type":"Polygon","coordinates":[[[-120.00132,53.9429],[-120.00132,53.92206],[-120.00132,53.92088],[-120.00132,53.91933],[-120.00132,53.9121],[-120.00132,53.91124],[-120.00132,53.90487],[-120.00132,53.89765],[-120.00132,53.89024],[-120.00132,53.88333],[-120.00132,53.88301],[-120.00132,53.87578],[-120.00132,53.86856],[-120.00132,53.86115],[-120.00132,53.85392],[-120.00132,53.84669],[-120.00132,53.83946],[-120.00132,53.83506],[-120.00132,53.83205],[-120.00133,53.82483],[-120.00133,53.8176],[-120.00133,53.81622],[-120.00133,53.81037],[-120.00133,53.80297],[-120.00133,53.79867],[-120.0012,53.79879],[-120.00109,53.79889],[-120.00109,53.79889],[-120.00098,53.79905],[-120.0006,53.80125],[-120.00033,53.80184],[-120.00023,53.802],[-119.99978,53.80296],[-119.99952,53.80347],[-119.99919,53.80393],[-119.99898,53.80411],[-119.9986,53.80433],[-119.9984,53.80442],[-119.99825,53.80447],[-119.99824,53.80447],[-119.99805,53.80451],[-119.99797,53.80452],[-119.9977,53.80454],[-119.99735,53.80452],[-119.99664,53.80453],[-119.99656,53.80453],[-119.99619,53.80449],[-119.99504,53.80434],[-119.99411,53.80419],[-119.99381,53.80413],[-119.99347,53.80409],[-119.9932,53.80407],[-119.99249,53.80405],[-119.99196,53.80399],[-119.99137,53.8038],[-119.98989,53.80332],[-119.98926,53.8031],[-119.98899,53.80291],[-119.98871,53.80264],[-119.98735,53.80178],[-119.98618,53.8012],[-119.98529,53.80064],[-119.98487,53.80044],[-119.98448,53.80032],[-119.98391,53.80024],[-119.98179,53.80021],[-119.98149,53.80016],[-119.98131,53.80008],[-119.98113,53.79994],[-119.98108,53.79979],[-119.98111,53.79967],[-119.98231,53.79893],[-119.98318,53.79793],[-119.98335,53.79758],[-119.9834,53.79721],[-119.98293,53.79249],[-119.98274,53.79157],[-119.98254,53.79134],[-119.98186,53.79078],[-119.98146,53.79052],[-119.98101,53.79031],[-119.98036,53.79015],[-119.9792,53.78992],[-119.97757,53.78978],[-119.97718,53.78971],[-119.97673,53.78959],[-119.97574,53.78937],[-119.97526,53.78922],[-119.97466,53.78893],[-119.97381,53.78832],[-119.97306,53.78749],[-119.97205,53.78644],[-119.97133,53.78577],[-119.97092,53.78544],[-119.97053,53.78528],[-119.97012,53.78515],[-119.96937,53.78497],[-119.96806,53.78437],[-119.96597,53.78331],[-119.96499,53.78279],[-119.96473,53.78259],[-119.96447,53.78217],[-119.96441,53.78199],[-119.96419,53.78136],[-119.96395,53.78102],[-119.96367,53.78086],[-119.96313,53.7807],[-119.9622,53.78055],[-119.96131,53.78051],[-119.9597,53.78051],[-119.95942,53.78048],[-119.9592,53.78041],[-119.95883,53.78034],[-119.95824,53.78018],[-119.95749,53.77987],[-119.95642,53.77917],[-119.95397,53.77778],[-119.94934,53.77534],[-119.94894,53.77521],[-119.94846,53.77514],[-119.94778,53.77513],[-119.94722,53.77507],[-119.94626,53.77502],[-119.94493,53.775],[-119.94393,53.77504],[-119.94197,53.77504],[-119.94099,53.77508],[-119.93871,53.77528],[-119.9375,53.77535],[-119.93726,53.77536],[-119.93597,53.77546],[-119.93371,53.77555],[-119.93255,53.77577],[-119.93166,53.776],[-119.93053,53.77633],[-119.93039,53.77637],[-119.92922,53.77728],[-119.92828,53.77724],[-119.92315,53.77602],[-119.91886,53.77636],[-119.91873,53.77637],[-119.91341,53.77688],[-119.90907,53.77747],[-119.90524,53.77803],[-119.90367,53.77828],[-119.90298,53.77841],[-119.90222,53.77848],[-119.90129,53.77848],[-119.89979,53.77843],[-119.89813,53.7784],[-119.89812,53.7784],[-119.89655,53.77828],[-119.88875,53.7764],[-119.88897,53.77587],[-119.88944,53.77488],[-119.88971,53.77412],[-119.88974,53.77389],[-119.88951,53.77257],[-119.88961,53.77188],[-119.88981,53.76963],[-119.88996,53.76925],[-119.89019,53.769],[-119.89038,53.76889],[-119.89201,53.76855],[-119.89398,53.76833],[-119.89446,53.76825],[-119.89475,53.7682],[-119.89515,53.76802],[-119.89558,53.76774],[-119.89595,53.76743],[-119.89619,53.7671],[-119.89624,53.76685],[-119.89621,53.76663],[-119.89586,53.76635],[-119.89561,53.76615],[-119.89529,53.76544],[-119.89497,53.76495],[-119.89469,53.76469],[-119.89431,53.76456],[-119.8937,53.76445],[-119.89301,53.76442],[-119.89164,53.76422],[-119.89111,53.76389],[-119.89081,53.76357],[-119.89076,53.76314],[-119.89046,53.76243],[-119.89025,53.76199],[-119.89054,53.76174],[-119.8908,53.76137],[-119.89188,53.76085],[-119.89252,53.76064],[-119.89315,53.7604],[-119.89391,53.75975],[-119.89586,53.75752],[-119.89623,53.75732],[-119.89645,53.75725],[-119.89684,53.75713],[-119.89717,53.757],[-119.89731,53.75691],[-119.89765,53.75661],[-119.89785,53.75619],[-119.89795,53.75564],[-119.89788,53.75522],[-119.89771,53.75506],[-119.89732,53.75488],[-119.89671,53.75474],[-119.89633,53.75461],[-119.89613,53.75448],[-119.89598,53.75427],[-119.89586,53.75393],[-119.89559,53.75362],[-119.89497,53.75337],[-119.89422,53.75318],[-119.89335,53.75297],[-119.89257,53.75274],[-119.89183,53.75254],[-119.89111,53.7523],[-119.89068,53.75212],[-119.89049,53.752],[-119.89026,53.75168],[-119.89035,53.7512],[-119.89091,53.75001],[-119.89091,53.74997],[-119.89121,53.74902],[-119.8919,53.74789],[-119.89317,53.74637],[-119.89417,53.7456],[-119.89483,53.74504],[-119.8953,53.74436],[-119.89561,53.74359],[-119.89575,53.74286],[-119.89583,53.74255],[-119.8962,53.74211],[-119.89728,53.7411],[-119.8982,53.74063],[-119.89937,53.74015],[-119.90044,53.73982],[-119.90164,53.73922],[-119.90262,53.73862],[-119.90362,53.73793],[-119.90399,53.73763],[-119.90409,53.73742],[-119.90412,53.73717],[-119.90402,53.73663],[-119.90371,53.73612],[-119.90202,53.73455],[-119.90113,53.73386],[-119.90036,53.73336],[-119.90011,53.73308],[-119.90003,53.73238],[-119.89978,53.73202],[-119.89937,53.73147],[-119.89886,53.73105],[-119.89839,53.73029],[-119.89815,53.72981],[-119.89778,53.72929],[-119.89769,53.72889],[-119.89768,53.7284],[-119.89781,53.72819],[-119.8984,53.72761],[-119.89969,53.72643],[-119.90054,53.72582],[-119.90164,53.72522],[-119.90363,53.7239],[-119.90515,53.72251],[-119.90547,53.72237],[-119.9057,53.72231],[-119.90577,53.72229],[-119.90681,53.72218],[-119.90859,53.72193],[-119.91005,53.72156],[-119.91155,53.72094],[-119.9138,53.71997],[-119.91515,53.71934],[-119.91627,53.71872],[-119.91662,53.71834],[-119.91677,53.71805],[-119.9167,53.71738],[-119.91646,53.71697],[-119.91558,53.71614],[-119.91432,53.71475],[-119.91352,53.71367],[-119.91254,53.71204],[-119.91222,53.71157],[-119.91184,53.71128],[-119.91124,53.71093],[-119.9105,53.71056],[-119.90948,53.71008],[-119.9083,53.70976],[-119.90679,53.70942],[-119.90589,53.70918],[-119.9046,53.7089],[-119.90298,53.70852],[-119.90219,53.7084],[-119.90057,53.70836],[-119.90057,53.70836],[-119.90045,53.70836],[-119.90012,53.70838],[-119.8994,53.70837],[-119.89915,53.70838],[-119.89896,53.70839],[-119.89862,53.70845],[-119.89713,53.70899],[-119.89612,53.70948],[-119.89559,53.7097],[-119.89508,53.70985],[-119.89418,53.71012],[-119.8939,53.7102],[-119.89344,53.71031],[-119.89235,53.71052],[-119.89094,53.71064],[-119.89026,53.71061],[-119.8888,53.71053],[-119.88719,53.71039],[-119.88547,53.71028],[-119.88411,53.71023],[-119.88317,53.71022],[-119.88242,53.71024],[-119.88224,53.71024],[-119.88188,53.71033],[-119.88143,53.71054],[-119.88111,53.71085],[-119.88081,53.71129],[-119.88029,53.71171],[-119.87956,53.71212],[-119.87716,53.71306],[-119.87645,53.7133],[-119.87578,53.71345],[-119.87574,53.71346],[-119.87482,53.71362],[-119.8738,53.71373],[-119.8727,53.71392],[-119.87227,53.714],[-119.87117,53.71424],[-119.87042,53.71436],[-119.87007,53.71434],[-119.86919,53.71423],[-119.86806,53.71401],[-119.86682,53.71364],[-119.8659,53.71322],[-119.86503,53.71285],[-119.86443,53.71256],[-119.86402,53.71242],[-119.86337,53.71232],[-119.86234,53.71227],[-119.86153,53.71218],[-119.85893,53.71225],[-119.85768,53.71237],[-119.85682,53.71251],[-119.85636,53.71258],[-119.85165,53.71296],[-119.84992,53.71308],[-119.84915,53.71308],[-119.84862,53.71302],[-119.84808,53.7129],[-119.84759,53.71275],[-119.84703,53.71248],[-119.84673,53.71184],[-119.84672,53.71137],[-119.84653,53.71084],[-119.84649,53.71042],[-119.84655,53.70981],[-119.84645,53.70906],[-119.84603,53.70701],[-119.84605,53.70641],[-119.84603,53.70531],[-119.84627,53.70458],[-119.84717,53.70292],[-119.84729,53.70059],[-119.8473,53.70033],[-119.84714,53.70021],[-119.84666,53.69978],[-119.84586,53.69928],[-119.84455,53.69823],[-119.84376,53.69776],[-119.84292,53.69709],[-119.84235,53.69654],[-119.84206,53.69614],[-119.84169,53.69552],[-119.84142,53.69511],[-119.8411,53.69481],[-119.84055,53.69478],[-119.83981,53.6947],[-119.8389,53.69464],[-119.83786,53.69454],[-119.83673,53.6945],[-119.83558,53.69454],[-119.83479,53.69461],[-119.83327,53.69496],[-119.83174,53.69535],[-119.83151,53.69539],[-119.83059,53.69558],[-119.82943,53.69585],[-119.82921,53.6959],[-119.82849,53.69631],[-119.827,53.69707],[-119.82588,53.69793],[-119.82475,53.69877],[-119.82344,53.69962],[-119.82239,53.70049],[-119.82142,53.70144],[-119.82076,53.70204],[-119.82055,53.70215],[-119.82021,53.70223],[-119.81967,53.70231],[-119.8166,53.70228],[-119.81505,53.70221],[-119.8147,53.70225],[-119.81447,53.7023],[-119.81425,53.70236],[-119.81392,53.70249],[-119.8136,53.70266],[-119.81318,53.70281],[-119.81282,53.70296],[-119.81238,53.70319],[-119.81223,53.70335],[-119.81185,53.70396],[-119.81162,53.70423],[-119.81127,53.70458],[-119.81086,53.70491],[-119.80984,53.70552],[-119.80908,53.70583],[-119.80813,53.70617],[-119.80643,53.70669],[-119.80608,53.70677],[-119.80603,53.70678],[-119.8057,53.70684],[-119.80555,53.70686],[-119.80507,53.7069],[-119.80455,53.70689],[-119.80378,53.70677],[-119.8032,53.70671],[-119.80209,53.70655],[-119.80092,53.70628],[-119.79991,53.70594],[-119.79869,53.70539],[-119.79787,53.70491],[-119.7971,53.7045],[-119.79622,53.70406],[-119.79545,53.70382],[-119.79441,53.70362],[-119.79334,53.70342],[-119.79273,53.70325],[-119.7923,53.70291],[-119.79206,53.70232],[-119.79194,53.70001],[-119.7918,53.69616],[-119.79176,53.6957],[-119.79163,53.69555],[-119.78975,53.69419],[-119.78348,53.69196],[-119.78168,53.6912],[-119.77927,53.68994],[-119.77866,53.68964],[-119.7781,53.68931],[-119.77772,53.689],[-119.77752,53.68871],[-119.77727,53.68823],[-119.77719,53.68774],[-119.77705,53.68722],[-119.77704,53.68688],[-119.77682,53.68612],[-119.77685,53.68556],[-119.77692,53.68514],[-119.7771,53.68482],[-119.78021,53.68306],[-119.77872,53.68038],[-119.77632,53.67969],[-119.77548,53.67936],[-119.77505,53.67911],[-119.77454,53.67866],[-119.77384,53.67623],[-119.77245,53.67503],[-119.77233,53.67489],[-119.76485,53.67334],[-119.76445,53.67315],[-119.76391,53.67273],[-119.76365,53.67244],[-119.76365,53.67205],[-119.76378,53.67171],[-119.76383,53.67138],[-119.76381,53.67117],[-119.7636,53.67104],[-119.76332,53.67072],[-119.763,53.66996],[-119.76289,53.66929],[-119.76129,53.66831],[-119.76005,53.66764],[-119.75132,53.66598],[-119.75002,53.66564],[-119.74989,53.66561],[-119.74952,53.66551],[-119.74838,53.66519],[-119.74678,53.66497],[-119.74433,53.66471],[-119.74175,53.6644],[-119.74038,53.66421],[-119.73997,53.66405],[-119.73981,53.66389],[-119.73971,53.6638],[-119.73944,53.66347],[-119.73934,53.66297],[-119.73902,53.66229],[-119.7383,53.66023],[-119.73821,53.65964],[-119.73856,53.65845],[-119.73901,53.65776],[-119.7394,53.65737],[-119.73979,53.65692],[-119.73999,53.65663],[-119.74008,53.6563],[-119.74008,53.65607],[-119.74001,53.65572],[-119.73986,53.65524],[-119.73964,53.65427],[-119.73944,53.65384],[-119.73923,53.65357],[-119.73866,53.65308],[-119.7381,53.6527],[-119.73802,53.65256],[-119.73794,53.65232],[-119.73766,53.65189],[-119.73741,53.65138],[-119.73731,53.65094],[-119.73735,53.65057],[-119.7376,53.65021],[-119.73866,53.64937],[-119.73904,53.64903],[-119.7394,53.64883],[-119.73985,53.64849],[-119.74037,53.64816],[-119.74078,53.64786],[-119.74102,53.64756],[-119.74117,53.64722],[-119.74125,53.64697],[-119.74132,53.64649],[-119.74129,53.64619],[-119.74122,53.64596],[-119.74109,53.64574],[-119.7411,53.64562],[-119.74137,53.64546],[-119.7416,53.64527],[-119.74167,53.64514],[-119.74185,53.64462],[-119.74183,53.64445],[-119.74178,53.64433],[-119.74088,53.64336],[-119.74059,53.6427],[-119.74053,53.64235],[-119.74053,53.64201],[-119.7405,53.64188],[-119.74004,53.64074],[-119.73986,53.64038],[-119.73985,53.64025],[-119.7399,53.64011],[-119.73995,53.63956],[-119.73977,53.63856],[-119.73931,53.63765],[-119.73892,53.63652],[-119.7388,53.6363],[-119.73847,53.63597],[-119.73816,53.6355],[-119.73797,53.63501],[-119.73792,53.63466],[-119.738,53.63395],[-119.738,53.63329],[-119.73791,53.63309],[-119.73765,53.63293],[-119.73739,53.63272],[-119.73732,53.6325],[-119.73764,53.63202],[-119.73769,53.63184],[-119.73767,53.63163],[-119.73757,53.63148],[-119.73738,53.63138],[-119.73535,53.63095],[-119.73475,53.6308],[-119.73351,53.63024],[-119.73324,53.63007],[-119.73134,53.62937],[-119.7306,53.62904],[-119.73015,53.62875],[-119.72948,53.62811],[-119.72886,53.62764],[-119.72835,53.62734],[-119.72795,53.62713],[-119.72715,53.62661],[-119.7265,53.6261],[-119.72593,53.62549],[-119.72567,53.62508],[-119.72563,53.62501],[-119.72563,53.62501],[-119.72461,53.62335],[-119.72389,53.62226],[-119.72359,53.62194],[-119.72311,53.62154],[-119.72236,53.62106],[-119.72141,53.62064],[-119.72117,53.62044],[-119.72096,53.62012],[-119.72076,53.61963],[-119.72064,53.61897],[-119.72042,53.61843],[-119.72021,53.61804],[-119.71991,53.61744],[-119.7198,53.61729],[-119.71957,53.6171],[-119.71884,53.6169],[-119.71869,53.61688],[-119.71834,53.6168],[-119.71803,53.61666],[-119.71761,53.61655],[-119.71709,53.61632],[-119.71694,53.61617],[-119.71686,53.61592],[-119.71687,53.61535],[-119.71693,53.61493],[-119.71693,53.61447],[-119.71686,53.61387],[-119.71647,53.6126],[-119.71646,53.61232],[-119.71656,53.61135],[-119.71659,53.61118],[-119.71676,53.61072],[-119.71694,53.61031],[-119.71707,53.6102],[-119.71736,53.61011],[-119.71791,53.61002],[-119.71793,53.61002],[-119.71882,53.60997],[-119.71912,53.60994],[-119.71927,53.60992],[-119.71946,53.60986],[-119.72785,53.60667],[-119.72823,53.60654],[-119.72937,53.60626],[-119.73123,53.60593],[-119.73241,53.60576],[-119.73398,53.60564],[-119.73448,53.60561],[-119.73465,53.60559],[-119.73476,53.60557],[-119.73503,53.60551],[-119.73538,53.60541],[-119.73586,53.60516],[-119.73605,53.60502],[-119.73636,53.60467],[-119.73681,53.60425],[-119.73721,53.60392],[-119.73826,53.60318],[-119.73867,53.60281],[-119.73898,53.60246],[-119.73926,53.60206],[-119.73964,53.60169],[-119.74058,53.60095],[-119.74101,53.60067],[-119.74247,53.59952],[-119.7431,53.59893],[-119.7432,53.59869],[-119.74325,53.5981],[-119.74336,53.59772],[-119.74346,53.59748],[-119.74378,53.59698],[-119.7441,53.59662],[-119.74503,53.5952],[-119.74536,53.5948],[-119.74577,53.59424],[-119.74613,53.59389],[-119.74665,53.59347],[-119.74804,53.59234],[-119.74889,53.5917],[-119.74945,53.59119],[-119.75002,53.5909],[-119.75006,53.59087],[-119.75059,53.59073],[-119.75079,53.59072],[-119.75131,53.59068],[-119.7522,53.5905],[-119.75443,53.59028],[-119.75539,53.59021],[-119.7566,53.59023],[-119.75759,53.59034],[-119.75842,53.59037],[-119.7594,53.59039],[-119.76052,53.59062],[-119.76145,53.591],[-119.7621,53.59112],[-119.76285,53.59116],[-119.76345,53.59111],[-119.76506,53.59082],[-119.76565,53.5907],[-119.76689,53.59046],[-119.76725,53.5904],[-119.76818,53.59022],[-119.76899,53.59009],[-119.76939,53.59002],[-119.77028,53.58998],[-119.77269,53.59005],[-119.77482,53.59032],[-119.77864,53.59087],[-119.77994,53.59098],[-119.78136,53.59118],[-119.78225,53.59144],[-119.78315,53.59179],[-119.78415,53.59229],[-119.78511,53.59273],[-119.78703,53.59386],[-119.78755,53.59444],[-119.78779,53.59476],[-119.788,53.59517],[-119.78807,53.59583],[-119.78803,53.59623],[-119.78808,53.59657],[-119.78824,53.59677],[-119.78842,53.59693],[-119.78896,53.59732],[-119.78927,53.59767],[-119.7902,53.59962],[-119.79071,53.60015],[-119.79097,53.6005],[-119.79117,53.60091],[-119.79132,53.60103],[-119.79146,53.6011],[-119.79168,53.60108],[-119.79251,53.60108],[-119.79277,53.60108],[-119.79412,53.60119],[-119.79517,53.60125],[-119.79608,53.60141],[-119.79677,53.60157],[-119.79844,53.60238],[-119.79908,53.60262],[-119.80003,53.6031],[-119.80085,53.60331],[-119.80165,53.60345],[-119.8022,53.60352],[-119.80271,53.60356],[-119.8031,53.60355],[-119.80323,53.60355],[-119.80375,53.6035],[-119.80413,53.60346],[-119.80461,53.6034],[-119.80548,53.60328],[-119.80681,53.60305],[-119.80734,53.603],[-119.80845,53.60288],[-119.8094,53.60287],[-119.81041,53.60282],[-119.81062,53.6028],[-119.81163,53.60268],[-119.8124,53.60246],[-119.81377,53.60194],[-119.81416,53.60184],[-119.81439,53.60176],[-119.81483,53.60177],[-119.81581,53.60189],[-119.8172,53.60211],[-119.81801,53.60231],[-119.81901,53.60271],[-119.81933,53.60296],[-119.81969,53.60339],[-119.81987,53.60358],[-119.82013,53.60371],[-119.82116,53.60397],[-119.82365,53.6049],[-119.82503,53.60544],[-119.82601,53.60593],[-119.8264,53.60619],[-119.82668,53.60644],[-119.82678,53.60699],[-119.82711,53.60738],[-119.8274,53.60765],[-119.82768,53.60784],[-119.8284,53.60812],[-119.82951,53.60847],[-119.83028,53.60876],[-119.83101,53.60908],[-119.8315,53.60943],[-119.83201,53.60984],[-119.83224,53.60997],[-119.83243,53.61001],[-119.83258,53.60997],[-119.83264,53.60996],[-119.8328,53.60981],[-119.83302,53.60942],[-119.83329,53.60922],[-119.83449,53.60882],[-119.83606,53.60846],[-119.83671,53.60821],[-119.8373,53.60796],[-119.83793,53.60775],[-119.83876,53.60732],[-119.83971,53.60711],[-119.84058,53.60701],[-119.84124,53.60686],[-119.84151,53.60682],[-119.84189,53.60676],[-119.84195,53.60674],[-119.84232,53.60661],[-119.84311,53.60621],[-119.84405,53.60576],[-119.84456,53.60566],[-119.84504,53.60557],[-119.84614,53.60546],[-119.84694,53.60545],[-119.84801,53.60541],[-119.84977,53.60548],[-119.85042,53.60556],[-119.85116,53.60572],[-119.85239,53.60595],[-119.85342,53.60608],[-119.85345,53.60609],[-119.85412,53.60613],[-119.85514,53.60613],[-119.85619,53.60624],[-119.85673,53.60633],[-119.86007,53.60722],[-119.86107,53.60752],[-119.8622,53.608],[-119.86493,53.60932],[-119.86683,53.61012],[-119.8687,53.61127],[-119.86956,53.61185],[-119.8701,53.61217],[-119.87058,53.61253],[-119.87104,53.61292],[-119.87159,53.61325],[-119.87292,53.61426],[-119.87468,53.6155],[-119.87524,53.61591],[-119.8757,53.61612],[-119.87649,53.61637],[-119.87736,53.6168],[-119.87785,53.61708],[-119.87816,53.61754],[-119.87833,53.61792],[-119.87858,53.6182],[-119.87876,53.61833],[-119.87895,53.61839],[-119.87925,53.61839],[-119.87962,53.61827],[-119.88069,53.61731],[-119.88098,53.61709],[-119.88258,53.61619],[-119.88381,53.61565],[-119.88439,53.6155],[-119.88458,53.61548],[-119.88481,53.61546],[-119.88543,53.6155],[-119.88619,53.61567],[-119.88803,53.61586],[-119.88803,53.61586],[-119.88851,53.6159],[-119.88885,53.61597],[-119.88919,53.61615],[-119.88961,53.61641],[-119.89027,53.61667],[-119.89203,53.61722],[-119.89273,53.61751],[-119.89391,53.61793],[-119.89517,53.61836],[-119.89804,53.6191],[-119.89878,53.61913],[-119.89941,53.61928],[-119.90048,53.61974],[-119.90084,53.61985],[-119.90159,53.61999],[-119.90252,53.62004],[-119.90292,53.62003],[-119.90299,53.62002],[-119.90325,53.61996],[-119.90348,53.61984],[-119.90362,53.61973],[-119.90389,53.61946],[-119.90444,53.61901],[-119.90537,53.61843],[-119.90669,53.61786],[-119.90783,53.61744],[-119.90918,53.61697],[-119.91004,53.61676],[-119.9109,53.61668],[-119.91179,53.61667],[-119.91218,53.61667],[-119.91323,53.61659],[-119.91435,53.61646],[-119.91469,53.61642],[-119.916,53.61625],[-119.91703,53.61598],[-119.91816,53.61561],[-119.91944,53.61531],[-119.92106,53.6149],[-119.92177,53.61454],[-119.92365,53.61326],[-119.92697,53.61083],[-119.92892,53.60993],[-119.93025,53.60942],[-119.93112,53.60912],[-119.93148,53.60897],[-119.93159,53.60885],[-119.93157,53.60876],[-119.93149,53.60867],[-119.9313,53.60856],[-119.92997,53.60794],[-119.92922,53.60746],[-119.92872,53.60712],[-119.92773,53.60664],[-119.92645,53.60632],[-119.92561,53.60598],[-119.92514,53.60573],[-119.92338,53.60507],[-119.92231,53.60478],[-119.92173,53.6044],[-119.92091,53.60363],[-119.91983,53.603],[-119.91915,53.60272],[-119.9184,53.60247],[-119.91776,53.60216],[-119.91731,53.60181],[-119.91715,53.60153],[-119.91712,53.60133],[-119.91698,53.60111],[-119.91682,53.60091],[-119.91636,53.60052],[-119.91583,53.60018],[-119.91546,53.60002],[-119.91402,53.59985],[-119.91281,53.59964],[-119.91213,53.59943],[-119.91181,53.59922],[-119.91141,53.59876],[-119.91108,53.59827],[-119.91087,53.5979],[-119.91083,53.59747],[-119.91084,53.59703],[-119.91096,53.59668],[-119.91095,53.59623],[-119.91081,53.59601],[-119.91022,53.59536],[-119.9087,53.59357],[-119.90619,53.59075],[-119.90564,53.59017],[-119.90435,53.58907],[-119.90262,53.58774],[-119.90076,53.58636],[-119.89955,53.58548],[-119.89725,53.58419],[-119.89228,53.58122],[-119.89192,53.58089],[-119.89177,53.58038],[-119.89162,53.57971],[-119.89172,53.57915],[-119.89206,53.57848],[-119.89222,53.57822],[-119.89277,53.57759],[-119.89321,53.57702],[-119.89349,53.57646],[-119.89348,53.57607],[-119.89339,53.57592],[-119.89259,53.57525],[-119.89228,53.57491],[-119.89184,53.57454],[-119.89163,53.57431],[-119.89124,53.57415],[-119.89085,53.57401],[-119.89019,53.57389],[-119.88953,53.57384],[-119.88786,53.57361],[-119.88742,53.57348],[-119.88715,53.57334],[-119.88689,53.57315],[-119.88663,53.57286],[-119.88622,53.57254],[-119.8848,53.57184],[-119.88411,53.57153],[-119.88351,53.57121],[-119.88212,53.57043],[-119.88143,53.56984],[-119.88115,53.56955],[-119.88087,53.56921],[-119.88068,53.56882],[-119.88059,53.56873],[-119.87919,53.56797],[-119.87872,53.56776],[-119.8781,53.56754],[-119.87709,53.56729],[-119.87629,53.56706],[-119.8755,53.56702],[-119.87455,53.567],[-119.87366,53.56689],[-119.87273,53.5667],[-119.8718,53.56632],[-119.87123,53.56601],[-119.87088,53.56579],[-119.87067,53.56546],[-119.87044,53.56442],[-119.87049,53.564],[-119.87063,53.56352],[-119.8706,53.56322],[-119.87043,53.56305],[-119.86926,53.56244],[-119.86678,53.5613],[-119.86635,53.56082],[-119.86605,53.56035],[-119.86579,53.55901],[-119.86568,53.55862],[-119.86535,53.55824],[-119.86466,53.55769],[-119.86389,53.55665],[-119.86344,53.55598],[-119.86298,53.55502],[-119.86259,53.55456],[-119.86232,53.5541],[-119.8619,53.55316],[-119.86268,53.55225],[-119.86326,53.55139],[-119.86378,53.55077],[-119.86406,53.55025],[-119.86422,53.54974],[-119.8643,53.54936],[-119.86436,53.5488],[-119.86434,53.5484],[-119.8646,53.54734],[-119.86498,53.54692],[-119.86532,53.54667],[-119.86555,53.54632],[-119.8661,53.5462],[-119.86617,53.54618],[-119.86624,53.54616],[-119.86665,53.54604],[-119.86885,53.5455],[-119.86942,53.54539],[-119.87046,53.54489],[-119.87102,53.54474],[-119.87172,53.54463],[-119.87203,53.54459],[-119.87208,53.54458],[-119.87297,53.5444],[-119.87318,53.54438],[-119.87409,53.54431],[-119.87664,53.54426],[-119.87739,53.54427],[-119.87747,53.54424],[-119.87754,53.54422],[-119.8776,53.54407],[-119.87794,53.54365],[-119.87819,53.5434],[-119.87872,53.54299],[-119.88066,53.54166],[-119.88273,53.54006],[-119.88407,53.53931],[-119.88497,53.53876],[-119.88598,53.53805],[-119.88675,53.53745],[-119.88707,53.53707],[-119.88747,53.53673],[-119.88907,53.53582],[-119.88933,53.53572],[-119.89004,53.53538],[-119.89038,53.53525],[-119.8908,53.53516],[-119.89118,53.53509],[-119.89137,53.53506],[-119.89204,53.53505],[-119.8938,53.53507],[-119.8956,53.53513],[-119.89622,53.53511],[-119.89762,53.53511],[-119.89785,53.53512],[-119.89843,53.53514],[-119.89863,53.53513],[-119.89892,53.53512],[-119.89898,53.53498],[-119.89912,53.53325],[-119.89938,53.53259],[-119.89948,53.53224],[-119.89954,53.53188],[-119.89957,53.5311],[-119.89962,53.53066],[-119.8996,53.53007],[-119.8996,53.52936],[-119.89993,53.52731],[-119.89996,53.52561],[-119.90012,53.5248],[-119.90019,53.52406],[-119.90014,53.52355],[-119.90014,53.52314],[-119.90021,53.52288],[-119.90033,53.52273],[-119.90054,53.52258],[-119.90106,53.52228],[-119.9011,53.52226],[-119.90138,53.52192],[-119.90159,53.52167],[-119.90163,53.52121],[-119.90156,53.52103],[-119.90136,53.52071],[-119.90097,53.51997],[-119.90085,53.51958],[-119.90085,53.51903],[-119.90092,53.51842],[-119.90113,53.51756],[-119.90121,53.5171],[-119.90119,53.51662],[-119.9011,53.51644],[-119.90094,53.51629],[-119.90078,53.51619],[-119.90024,53.51599],[-119.89966,53.51591],[-119.89918,53.51574],[-119.89878,53.51535],[-119.89832,53.51497],[-119.89777,53.51464],[-119.89622,53.51406],[-119.89499,53.51367],[-119.89467,53.5135],[-119.89425,53.51305],[-119.8938,53.51269],[-119.89346,53.51236],[-119.89262,53.5118],[-119.89148,53.51084],[-119.88974,53.50961],[-119.8893,53.5094],[-119.88903,53.50931],[-119.88761,53.50912],[-119.887,53.50898],[-119.88664,53.5088],[-119.88612,53.50847],[-119.88538,53.50816],[-119.87999,53.50708],[-119.87806,53.50666],[-119.87748,53.50657],[-119.87703,53.50646],[-119.87669,53.5063],[-119.8763,53.50605],[-119.87614,53.50587],[-119.87609,53.50571],[-119.87609,53.50509],[-119.87594,53.50476],[-119.87577,53.50457],[-119.87514,53.50423],[-119.8733,53.50384],[-119.87233,53.50359],[-119.87092,53.50292],[-119.86891,53.5019],[-119.86662,53.50056],[-119.86612,53.5003],[-119.86554,53.50024],[-119.86522,53.50026],[-119.86519,53.50026],[-119.86259,53.50109],[-119.86255,53.5011],[-119.86394,53.50229],[-119.86422,53.50239],[-119.86444,53.5026],[-119.86485,53.50279],[-119.86498,53.50287],[-119.86505,53.50288],[-119.86517,53.50291],[-119.86537,53.50312],[-119.8655,53.5032],[-119.86566,53.50343],[-119.86578,53.50369],[-119.86589,53.5038],[-119.8662,53.50396],[-119.86659,53.50406],[-119.86674,53.50414],[-119.867,53.50433],[-119.8676,53.50465],[-119.86774,53.50473],[-119.8684,53.50497],[-119.8685,53.50509],[-119.86843,53.50522],[-119.8684,53.50535],[-119.8684,53.50569],[-119.86815,53.50605],[-119.86794,53.50611],[-119.86737,53.50615],[-119.86722,53.50624],[-119.86711,53.50635],[-119.86682,53.50653],[-119.86682,53.50667],[-119.86692,53.50679],[-119.86709,53.50686],[-119.86722,53.50696],[-119.86783,53.5073],[-119.8679,53.50742],[-119.86784,53.50752],[-119.86789,53.50772],[-119.86772,53.5078],[-119.86733,53.50793],[-119.86684,53.50815],[-119.86674,53.50823],[-119.86651,53.50837],[-119.86625,53.50853],[-119.86619,53.50864],[-119.86608,53.50876],[-119.86602,53.50885],[-119.86582,53.50908],[-119.8657,53.50918],[-119.86566,53.50945],[-119.8656,53.5096],[-119.86538,53.50963],[-119.86522,53.50975],[-119.86517,53.50987],[-119.86498,53.51018],[-119.86483,53.51029],[-119.8647,53.51048],[-119.86472,53.51061],[-119.8647,53.51079],[-119.86454,53.51089],[-119.86445,53.51101],[-119.86449,53.51115],[-119.86469,53.51123],[-119.86491,53.51119],[-119.86515,53.51117],[-119.86538,53.51122],[-119.86556,53.51129],[-119.86564,53.51141],[-119.86591,53.51164],[-119.86624,53.51179],[-119.86637,53.51188],[-119.86643,53.51202],[-119.86641,53.51216],[-119.86633,53.51227],[-119.86593,53.51252],[-119.86587,53.51263],[-119.86587,53.51269],[-119.86576,53.5128],[-119.86581,53.51293],[-119.86599,53.513],[-119.86609,53.51307],[-119.86602,53.5135],[-119.86584,53.51366],[-119.8654,53.5136],[-119.86517,53.51363],[-119.86506,53.51391],[-119.86486,53.51414],[-119.86466,53.51419],[-119.86448,53.51412],[-119.86425,53.51411],[-119.86388,53.51424],[-119.86367,53.51421],[-119.86349,53.51415],[-119.86327,53.51412],[-119.86305,53.51417],[-119.8625,53.51438],[-119.86235,53.51448],[-119.8623,53.5146],[-119.86231,53.51474],[-119.86221,53.51488],[-119.86184,53.51502],[-119.86172,53.51511],[-119.86167,53.51522],[-119.86159,53.51533],[-119.86136,53.51553],[-119.86122,53.51562],[-119.86113,53.51566],[-119.86077,53.51598],[-119.86061,53.51607],[-119.86039,53.51628],[-119.86024,53.51636],[-119.85981,53.51647],[-119.8596,53.51654],[-119.85912,53.51679],[-119.85901,53.5169],[-119.85871,53.51707],[-119.8586,53.51719],[-119.85842,53.51727],[-119.85822,53.51734],[-119.85748,53.51764],[-119.85706,53.51774],[-119.85674,53.51793],[-119.85663,53.51805],[-119.85659,53.51818],[-119.85638,53.51842],[-119.8562,53.5185],[-119.85606,53.5186],[-119.85596,53.51871],[-119.85589,53.51884],[-119.85585,53.51897],[-119.85585,53.51913],[-119.85602,53.51942],[-119.8559,53.51952],[-119.85569,53.51958],[-119.85545,53.51961],[-119.85524,53.5197],[-119.85487,53.51985],[-119.85473,53.51995],[-119.85474,53.52008],[-119.85479,53.52023],[-119.85495,53.52035],[-119.8551,53.52053],[-119.85503,53.5207],[-119.8549,53.5208],[-119.85461,53.52099],[-119.85462,53.52112],[-119.85467,53.52128],[-119.85463,53.52145],[-119.85457,53.52173],[-119.85469,53.52259],[-119.85464,53.52276],[-119.85428,53.5231],[-119.85379,53.52367],[-119.85371,53.52372],[-119.85354,53.52394],[-119.85345,53.5241],[-119.85321,53.52437],[-119.85313,53.52459],[-119.85297,53.52483],[-119.85284,53.52489],[-119.85261,53.52491],[-119.85241,53.52484],[-119.85219,53.52483],[-119.85193,53.52486],[-119.85138,53.5249],[-119.85109,53.52488],[-119.85071,53.52474],[-119.85058,53.52465],[-119.85035,53.52464],[-119.85007,53.52468],[-119.8494,53.52485],[-119.84924,53.52494],[-119.84918,53.52506],[-119.84916,53.52537],[-119.84919,53.52539],[-119.84939,53.52543],[-119.84949,53.52555],[-119.84939,53.52566],[-119.84939,53.5258],[-119.84934,53.52596],[-119.84916,53.52623],[-119.84911,53.52636],[-119.84921,53.52649],[-119.84962,53.52661],[-119.84978,53.5267],[-119.84983,53.52682],[-119.84978,53.527],[-119.84975,53.52733],[-119.84959,53.52759],[-119.84957,53.5276],[-119.84949,53.52772],[-119.84948,53.52787],[-119.84938,53.52818],[-119.84904,53.52836],[-119.84892,53.52846],[-119.84861,53.52864],[-119.84836,53.52884],[-119.8482,53.52893],[-119.84801,53.529],[-119.84754,53.52924],[-119.84713,53.52947],[-119.84702,53.52957],[-119.84687,53.52978],[-119.84651,53.53008],[-119.84636,53.53033],[-119.84624,53.53043],[-119.84591,53.53058],[-119.84577,53.53065],[-119.84571,53.53076],[-119.84571,53.53103],[-119.84559,53.53127],[-119.84549,53.53137],[-119.84546,53.53149],[-119.84537,53.5316],[-119.84517,53.53165],[-119.84504,53.53175],[-119.84508,53.53188],[-119.84521,53.53196],[-119.84524,53.5321],[-119.84519,53.53224],[-119.84499,53.53264],[-119.84512,53.53291],[-119.8451,53.53304],[-119.84502,53.53318],[-119.84487,53.53328],[-119.84477,53.53339],[-119.8447,53.53352],[-119.84468,53.53367],[-119.84515,53.53391],[-119.84517,53.53405],[-119.84515,53.53408],[-119.84484,53.53426],[-119.84457,53.53446],[-119.84438,53.53471],[-119.84436,53.53486],[-119.84428,53.53501],[-119.84413,53.53509],[-119.84366,53.53516],[-119.84352,53.53526],[-119.8434,53.53537],[-119.84313,53.53552],[-119.84295,53.53556],[-119.84275,53.53554],[-119.84259,53.53558],[-119.8425,53.5357],[-119.84236,53.53608],[-119.84221,53.53633],[-119.842,53.53655],[-119.84191,53.5368],[-119.84182,53.53691],[-119.8417,53.53699],[-119.84147,53.53699],[-119.84131,53.53707],[-119.84113,53.53727],[-119.84095,53.53731],[-119.84039,53.5375],[-119.8401,53.53765],[-119.83984,53.53782],[-119.83969,53.53789],[-119.83936,53.53806],[-119.83927,53.53818],[-119.83921,53.53831],[-119.83921,53.53879],[-119.83903,53.53889],[-119.83894,53.5389],[-119.83872,53.53887],[-119.83822,53.53886],[-119.83798,53.53894],[-119.83797,53.53907],[-119.83786,53.53921],[-119.83767,53.53928],[-119.83753,53.53938],[-119.83756,53.53951],[-119.83763,53.53965],[-119.83691,53.53975],[-119.83655,53.5396],[-119.83639,53.53951],[-119.83616,53.5395],[-119.83607,53.53952],[-119.83589,53.53978],[-119.83576,53.53984],[-119.83563,53.53972],[-119.83545,53.53965],[-119.83541,53.53977],[-119.83544,53.53992],[-119.83532,53.54003],[-119.83527,53.54016],[-119.83531,53.54034],[-119.83523,53.54049],[-119.83522,53.54052],[-119.83498,53.54055],[-119.83473,53.54051],[-119.83436,53.54036],[-119.83415,53.5404],[-119.83403,53.5407],[-119.83394,53.54084],[-119.83383,53.54095],[-119.83332,53.54111],[-119.83355,53.54141],[-119.83397,53.54153],[-119.83436,53.54157],[-119.83445,53.54158],[-119.83457,53.54173],[-119.83449,53.54186],[-119.83436,53.54196],[-119.83389,53.54223],[-119.83369,53.54229],[-119.83317,53.54234],[-119.83313,53.54265],[-119.83299,53.54275],[-119.83276,53.54279],[-119.83201,53.54288],[-119.83191,53.54298],[-119.83224,53.54315],[-119.83233,53.54327],[-119.8322,53.54338],[-119.83204,53.54347],[-119.8318,53.54347],[-119.83161,53.5434],[-119.83136,53.54339],[-119.83116,53.54345],[-119.83122,53.54358],[-119.83137,53.54368],[-119.83155,53.54376],[-119.8317,53.54385],[-119.83183,53.54396],[-119.83193,53.54409],[-119.83192,53.54425],[-119.8318,53.54436],[-119.83149,53.54454],[-119.83135,53.54464],[-119.83133,53.54481],[-119.83129,53.54498],[-119.8311,53.54505],[-119.83037,53.54514],[-119.83022,53.54524],[-119.83031,53.54537],[-119.83048,53.54546],[-119.83067,53.54552],[-119.83079,53.54564],[-119.83094,53.54591],[-119.8311,53.54601],[-119.83151,53.54613],[-119.83167,53.54623],[-119.83175,53.54636],[-119.83166,53.54648],[-119.83151,53.54657],[-119.83163,53.54664],[-119.83135,53.54664],[-119.83112,53.54668],[-119.83094,53.54676],[-119.83082,53.54688],[-119.83079,53.54722],[-119.83067,53.54734],[-119.83043,53.54729],[-119.83023,53.54722],[-119.83,53.54718],[-119.82972,53.54718],[-119.8295,53.54723],[-119.82931,53.54731],[-119.82921,53.54743],[-119.82918,53.5476],[-119.82921,53.54776],[-119.82936,53.54804],[-119.82928,53.54818],[-119.82913,53.54827],[-119.82878,53.54842],[-119.82864,53.54852],[-119.8286,53.54904],[-119.82848,53.54914],[-119.8283,53.54908],[-119.8281,53.5493],[-119.82797,53.5494],[-119.82777,53.54946],[-119.82726,53.54949],[-119.82703,53.54953],[-119.82669,53.5497],[-119.82644,53.54989],[-119.82626,53.54996],[-119.82604,53.55],[-119.82586,53.55006],[-119.82573,53.55012],[-119.82554,53.55036],[-119.82543,53.55046],[-119.82527,53.55054],[-119.82506,53.5506],[-119.82459,53.55068],[-119.82439,53.55074],[-119.82423,53.55083],[-119.82412,53.55095],[-119.82408,53.55109],[-119.82419,53.55121],[-119.82439,53.55129],[-119.82448,53.55141],[-119.82459,53.55189],[-119.82456,53.55205],[-119.82439,53.55232],[-119.82427,53.55243],[-119.82373,53.55245],[-119.82357,53.55254],[-119.82353,53.55269],[-119.82354,53.55285],[-119.82338,53.55313],[-119.8232,53.5532],[-119.82272,53.55344],[-119.82246,53.55366],[-119.82238,53.5538],[-119.8224,53.55396],[-119.82273,53.55413],[-119.82264,53.55425],[-119.82217,53.55429],[-119.82181,53.55412],[-119.82153,53.55393],[-119.8213,53.55388],[-119.821,53.55387],[-119.82075,53.5539],[-119.82055,53.55398],[-119.8204,53.55406],[-119.8203,53.55418],[-119.82019,53.5545],[-119.82004,53.55459],[-119.81983,53.55452],[-119.81953,53.55433],[-119.81911,53.55434],[-119.81895,53.55445],[-119.81898,53.5546],[-119.81905,53.55474],[-119.81889,53.55482],[-119.81851,53.55467],[-119.8182,53.55448],[-119.81794,53.55436],[-119.81774,53.55448],[-119.81759,53.55477],[-119.81736,53.55481],[-119.81706,53.55481],[-119.81688,53.55488],[-119.81695,53.555],[-119.81717,53.55505],[-119.81738,53.55512],[-119.81753,53.55521],[-119.81762,53.55534],[-119.81755,53.55547],[-119.81712,53.55558],[-119.81699,53.55569],[-119.81669,53.55607],[-119.81667,53.55623],[-119.81669,53.55639],[-119.81655,53.55649],[-119.81633,53.55644],[-119.81612,53.55637],[-119.81589,53.55634],[-119.81578,53.55645],[-119.81589,53.55657],[-119.81606,53.55665],[-119.81616,53.55676],[-119.81619,53.55693],[-119.81627,53.55706],[-119.81645,53.55712],[-119.81659,53.55702],[-119.81664,53.55686],[-119.81677,53.55676],[-119.81696,53.55683],[-119.81701,53.55698],[-119.81698,53.55714],[-119.81688,53.55727],[-119.81676,53.55738],[-119.81666,53.55751],[-119.81641,53.55793],[-119.8163,53.55805],[-119.8159,53.55837],[-119.81581,53.55851],[-119.81578,53.55867],[-119.81585,53.55881],[-119.81635,53.55907],[-119.81654,53.55914],[-119.8168,53.55915],[-119.81706,53.55919],[-119.81723,53.55928],[-119.81732,53.55941],[-119.81732,53.55976],[-119.81735,53.55992],[-119.81743,53.56006],[-119.81759,53.56015],[-119.81804,53.56005],[-119.81832,53.56006],[-119.81851,53.56013],[-119.81865,53.56024],[-119.81866,53.56039],[-119.81862,53.56074],[-119.81857,53.5609],[-119.81847,53.56103],[-119.81842,53.56116],[-119.81861,53.56118],[-119.81897,53.56103],[-119.81928,53.56085],[-119.81952,53.56081],[-119.81979,53.56083],[-119.81999,53.5609],[-119.82016,53.56098],[-119.82023,53.56111],[-119.82009,53.56121],[-119.81992,53.56129],[-119.81979,53.5614],[-119.81971,53.56154],[-119.81957,53.56222],[-119.81947,53.56235],[-119.81933,53.56244],[-119.81888,53.56253],[-119.81839,53.5626],[-119.81817,53.56265],[-119.8178,53.5628],[-119.81764,53.56288],[-119.81723,53.563],[-119.81709,53.5631],[-119.81686,53.56333],[-119.81679,53.56348],[-119.81677,53.56366],[-119.81672,53.56382],[-119.81662,53.56395],[-119.81644,53.56401],[-119.81619,53.56404],[-119.81532,53.56399],[-119.81505,53.56401],[-119.81456,53.56409],[-119.8143,53.56406],[-119.81415,53.56397],[-119.8139,53.56397],[-119.81373,53.56404],[-119.81367,53.5642],[-119.8137,53.56437],[-119.81366,53.56452],[-119.81343,53.56455],[-119.81325,53.56447],[-119.81313,53.56436],[-119.813,53.56426],[-119.81281,53.56418],[-119.81256,53.56417],[-119.81211,53.56427],[-119.81183,53.56427],[-119.81158,53.56429],[-119.8114,53.56438],[-119.81112,53.56438],[-119.81083,53.56436],[-119.81057,53.56439],[-119.8101,53.56447],[-119.80981,53.56448],[-119.80927,53.56442],[-119.80867,53.5644],[-119.80842,53.56443],[-119.80822,53.56449],[-119.80804,53.56458],[-119.8079,53.56469],[-119.80782,53.56482],[-119.80769,53.56494],[-119.80755,53.56504],[-119.80734,53.56528],[-119.80722,53.56539],[-119.80701,53.56543],[-119.80685,53.56534],[-119.80662,53.56532],[-119.80646,53.56541],[-119.80647,53.56556],[-119.8066,53.56567],[-119.80665,53.56581],[-119.80646,53.56588],[-119.80619,53.56587],[-119.80601,53.56594],[-119.80595,53.56609],[-119.80585,53.56621],[-119.80554,53.56639],[-119.80542,53.5665],[-119.80546,53.56666],[-119.80556,53.56677],[-119.8059,53.56694],[-119.80618,53.56712],[-119.80627,53.56723],[-119.80623,53.56735],[-119.80603,53.56741],[-119.80581,53.56745],[-119.80555,53.56745],[-119.80531,53.56747],[-119.8051,53.56752],[-119.80487,53.56754],[-119.80466,53.56759],[-119.80451,53.56767],[-119.80409,53.56776],[-119.80359,53.56781],[-119.80343,53.56788],[-119.8034,53.56803],[-119.80346,53.56817],[-119.80341,53.56832],[-119.8033,53.56843],[-119.8031,53.56866],[-119.80277,53.56882],[-119.80247,53.569],[-119.80235,53.56912],[-119.80225,53.56944],[-119.80226,53.5696],[-119.80231,53.56961],[-119.80252,53.56963],[-119.80266,53.56967],[-119.80274,53.56969],[-119.80288,53.56979],[-119.80297,53.56991],[-119.80309,53.5702],[-119.80325,53.57047],[-119.80335,53.57059],[-119.80358,53.57063],[-119.80372,53.57073],[-119.80367,53.57089],[-119.80357,53.57101],[-119.80356,53.57107],[-119.80337,53.57117],[-119.80311,53.5712],[-119.80288,53.57115],[-119.80176,53.57071],[-119.80115,53.57051],[-119.80092,53.57046],[-119.80006,53.57021],[-119.7998,53.57018],[-119.7995,53.57017],[-119.79925,53.57013],[-119.79905,53.57006],[-119.79871,53.56989],[-119.79825,53.5698],[-119.79797,53.56981],[-119.79756,53.56986],[-119.79743,53.56976],[-119.79712,53.56958],[-119.79684,53.56938],[-119.79666,53.5693],[-119.79659,53.56927],[-119.79646,53.56923],[-119.79599,53.56912],[-119.7957,53.56912],[-119.79524,53.56916],[-119.79522,53.56916],[-119.79521,53.56916],[-119.79519,53.56916],[-119.7951,53.56915],[-119.79492,53.56914],[-119.79472,53.56907],[-119.79454,53.56899],[-119.79414,53.56886],[-119.79365,53.56877],[-119.79336,53.56874],[-119.7928,53.56875],[-119.79224,53.56869],[-119.79202,53.56864],[-119.79098,53.56832],[-119.79042,53.56809],[-119.78997,53.5678],[-119.78976,53.56774],[-119.78946,53.56772],[-119.7892,53.56774],[-119.78874,53.56782],[-119.78772,53.56811],[-119.78746,53.56814],[-119.78657,53.5681],[-119.78632,53.56806],[-119.78612,53.568],[-119.786,53.56788],[-119.78607,53.56775],[-119.78648,53.56742],[-119.78632,53.56734],[-119.78582,53.5674],[-119.7856,53.56745],[-119.78541,53.56753],[-119.78512,53.56773],[-119.78495,53.56781],[-119.78474,53.56787],[-119.78448,53.56786],[-119.78426,53.56779],[-119.78372,53.56756],[-119.78356,53.56746],[-119.78336,53.56739],[-119.78247,53.56735],[-119.78165,53.56739],[-119.78081,53.5674],[-119.78058,53.56744],[-119.78038,53.5675],[-119.78022,53.56758],[-119.78019,53.56772],[-119.78022,53.56787],[-119.78006,53.56795],[-119.77978,53.56794],[-119.77933,53.56783],[-119.77907,53.56782],[-119.77887,53.56788],[-119.77871,53.56797],[-119.77844,53.56818],[-119.7782,53.56843],[-119.77793,53.56884],[-119.77779,53.56895],[-119.77763,53.56904],[-119.77745,53.5691],[-119.7772,53.56914],[-119.77691,53.56911],[-119.77671,53.56904],[-119.77669,53.56888],[-119.7767,53.56871],[-119.77659,53.56859],[-119.77629,53.56859],[-119.77603,53.56862],[-119.77582,53.56866],[-119.77548,53.56883],[-119.77528,53.5689],[-119.77504,53.56893],[-119.77486,53.56886],[-119.77478,53.56872],[-119.77484,53.56856],[-119.77501,53.56829],[-119.77484,53.56823],[-119.77459,53.56827],[-119.7744,53.56834],[-119.77408,53.56853],[-119.77398,53.56866],[-119.77389,53.56881],[-119.77379,53.56893],[-119.77365,53.56904],[-119.77348,53.56912],[-119.77322,53.56912],[-119.77306,53.56904],[-119.77283,53.56862],[-119.7726,53.56838],[-119.77241,53.56831],[-119.77217,53.56825],[-119.77191,53.56821],[-119.77132,53.56818],[-119.77059,53.56829],[-119.76991,53.56838],[-119.76911,53.56847],[-119.76865,53.56856],[-119.76838,53.56857],[-119.76811,53.56854],[-119.76787,53.56849],[-119.76744,53.56836],[-119.76691,53.5683],[-119.7667,53.56823],[-119.76624,53.56813],[-119.76583,53.56799],[-119.76514,53.56766],[-119.76475,53.5675],[-119.76417,53.56711],[-119.76398,53.56703],[-119.76375,53.56697],[-119.76326,53.56688],[-119.76298,53.56686],[-119.76271,53.56687],[-119.76248,53.56691],[-119.76221,53.56689],[-119.76172,53.56677],[-119.76167,53.56676],[-119.76155,53.56675],[-119.76123,53.56672],[-119.76072,53.56677],[-119.7599,53.5668],[-119.759,53.56678],[-119.75849,53.56668],[-119.75798,53.56643],[-119.75757,53.56628],[-119.75733,53.56623],[-119.75629,53.5661],[-119.75589,53.56595],[-119.75537,53.5657],[-119.75475,53.56549],[-119.75428,53.56539],[-119.75399,53.56536],[-119.75373,53.56532],[-119.75351,53.56526],[-119.75312,53.56511],[-119.75295,53.56502],[-119.75278,53.56493],[-119.75265,53.56483],[-119.75243,53.56458],[-119.75236,53.56444],[-119.75237,53.56428],[-119.75257,53.56402],[-119.75255,53.56386],[-119.75245,53.56374],[-119.75237,53.56372],[-119.75222,53.56368],[-119.75192,53.56367],[-119.7513,53.56362],[-119.75109,53.56359],[-119.75094,53.56356],[-119.75087,53.56353],[-119.75036,53.56338],[-119.75008,53.56326],[-119.75002,53.56324],[-119.74989,53.5632],[-119.74988,53.56319],[-119.74942,53.56308],[-119.74926,53.56299],[-119.74917,53.56286],[-119.74904,53.56259],[-119.749,53.56243],[-119.74901,53.56209],[-119.74897,53.56176],[-119.7489,53.56162],[-119.74877,53.56152],[-119.7485,53.56149],[-119.74791,53.56147],[-119.74766,53.56144],[-119.74678,53.56139],[-119.74618,53.56137],[-119.74592,53.56133],[-119.74555,53.56122],[-119.74549,53.5612],[-119.74524,53.56123],[-119.74509,53.56133],[-119.74499,53.56147],[-119.74481,53.56154],[-119.74451,53.56153],[-119.74426,53.56149],[-119.74366,53.56147],[-119.74342,53.5615],[-119.74299,53.5616],[-119.74272,53.56159],[-119.7423,53.56145],[-119.74203,53.56142],[-119.74176,53.56144],[-119.74134,53.56156],[-119.74116,53.56163],[-119.74091,53.56185],[-119.74069,53.56211],[-119.74041,53.56232],[-119.74024,53.56241],[-119.74005,53.56247],[-119.73981,53.56252],[-119.73952,53.5625],[-119.73902,53.56241],[-119.73841,53.56239],[-119.73814,53.5624],[-119.73785,53.5624],[-119.73735,53.5623],[-119.73682,53.56222],[-119.73651,53.5622],[-119.73615,53.56221],[-119.7358,53.56231],[-119.73562,53.56238],[-119.73518,53.56248],[-119.7349,53.56248],[-119.73461,53.56246],[-119.73379,53.56236],[-119.73349,53.56234],[-119.73321,53.56235],[-119.73185,53.56218],[-119.73139,53.56207],[-119.73114,53.56203],[-119.73071,53.56198],[-119.73059,53.56196],[-119.7296,53.56179],[-119.72916,53.56167],[-119.72893,53.56162],[-119.72851,53.5615],[-119.72825,53.56145],[-119.72796,53.56143],[-119.72737,53.56142],[-119.72711,53.56144],[-119.7269,53.56149],[-119.72636,53.56171],[-119.72616,53.56177],[-119.72591,53.56179],[-119.72568,53.56174],[-119.72551,53.56165],[-119.72524,53.56143],[-119.72504,53.56118],[-119.72489,53.56108],[-119.72472,53.561],[-119.72464,53.56098],[-119.72449,53.56094],[-119.7239,53.56091],[-119.72367,53.56096],[-119.72348,53.56103],[-119.72314,53.56118],[-119.72293,53.56124],[-119.72269,53.56127],[-119.72189,53.56132],[-119.72138,53.56137],[-119.7207,53.56149],[-119.72018,53.56153],[-119.71897,53.56149],[-119.71831,53.56155],[-119.71779,53.56157],[-119.7175,53.56155],[-119.71693,53.56133],[-119.71666,53.5613],[-119.71605,53.56127],[-119.71581,53.56129],[-119.71514,53.56142],[-119.71489,53.56144],[-119.71432,53.56142],[-119.71407,53.56144],[-119.71388,53.5615],[-119.71366,53.56154],[-119.71318,53.56159],[-119.71293,53.56161],[-119.71265,53.5616],[-119.71239,53.56161],[-119.71238,53.56161],[-119.7119,53.56151],[-119.71162,53.56152],[-119.71117,53.56159],[-119.71096,53.56165],[-119.71051,53.56173],[-119.71031,53.56178],[-119.70982,53.56184],[-119.70965,53.56191],[-119.70949,53.56216],[-119.70927,53.5622],[-119.70851,53.56225],[-119.70731,53.56218],[-119.70684,53.56225],[-119.70631,53.56226],[-119.7053,53.56231],[-119.70464,53.56237],[-119.70442,53.56241],[-119.7039,53.56265],[-119.7035,53.56278],[-119.70326,53.56281],[-119.70272,53.56281],[-119.70243,53.56279],[-119.70187,53.56279],[-119.70165,53.56282],[-119.70108,53.56302],[-119.70079,53.56319],[-119.70056,53.56323],[-119.69927,53.5635],[-119.69845,53.56351],[-119.69767,53.56344],[-119.69736,53.56348],[-119.69717,53.56355],[-119.69705,53.56368],[-119.69696,53.56381],[-119.6965,53.56408],[-119.69628,53.56413],[-119.69588,53.56424],[-119.69551,53.56437],[-119.69516,53.56452],[-119.69495,53.56456],[-119.69415,53.5648],[-119.69398,53.56489],[-119.69384,53.56499],[-119.69379,53.56515],[-119.69382,53.56537],[-119.69395,53.56541],[-119.69393,53.56554],[-119.69387,53.5657],[-119.69373,53.56581],[-119.69356,53.5659],[-119.69337,53.56596],[-119.69315,53.566],[-119.69243,53.56609],[-119.69237,53.56608],[-119.69185,53.56607],[-119.69131,53.56609],[-119.68954,53.56599],[-119.68926,53.566],[-119.68903,53.56604],[-119.68883,53.5661],[-119.68867,53.56618],[-119.68838,53.56637],[-119.68812,53.5666],[-119.68803,53.56674],[-119.68791,53.56685],[-119.68773,53.56693],[-119.68753,53.56698],[-119.68655,53.56707],[-119.68566,53.56703],[-119.68509,53.56701],[-119.68484,53.56703],[-119.68462,53.56708],[-119.68373,53.56746],[-119.68314,53.56765],[-119.683,53.56776],[-119.68282,53.56802],[-119.68265,53.5681],[-119.68243,53.56814],[-119.68183,53.56832],[-119.68161,53.56837],[-119.68135,53.56839],[-119.68087,53.56844],[-119.68067,53.56849],[-119.68037,53.56869],[-119.67936,53.56899],[-119.67877,53.56919],[-119.6786,53.56928],[-119.67843,53.56938],[-119.67825,53.56945],[-119.67784,53.56957],[-119.6774,53.56967],[-119.67698,53.56977],[-119.6761,53.56996],[-119.67511,53.57006],[-119.67471,53.57017],[-119.67424,53.57026],[-119.67383,53.57036],[-119.6737,53.57047],[-119.67371,53.57063],[-119.67366,53.57079],[-119.67352,53.57089],[-119.67332,53.57095],[-119.6729,53.57105],[-119.67201,53.5712],[-119.67115,53.57141],[-119.67099,53.57149],[-119.67094,53.57166],[-119.671,53.5718],[-119.67119,53.57187],[-119.67142,53.57193],[-119.67176,53.572],[-119.67191,53.57203],[-119.67214,53.5721],[-119.6723,53.57219],[-119.6724,53.57248],[-119.67238,53.57263],[-119.67226,53.57275],[-119.67218,53.57288],[-119.67213,53.57305],[-119.67222,53.57334],[-119.67231,53.57345],[-119.6726,53.57365],[-119.67273,53.57377],[-119.67274,53.57392],[-119.67265,53.57406],[-119.67248,53.57415],[-119.67204,53.57425],[-119.67184,53.57431],[-119.67167,53.57439],[-119.6712,53.57467],[-119.67109,53.5748],[-119.67093,53.57509],[-119.67062,53.57549],[-119.67046,53.57557],[-119.67004,53.57569],[-119.66967,53.57584],[-119.66952,53.57605],[-119.66954,53.57643],[-119.66946,53.57658],[-119.66924,53.57663],[-119.66902,53.57657],[-119.66868,53.5764],[-119.6684,53.5762],[-119.6682,53.57612],[-119.66793,53.57611],[-119.66772,53.57617],[-119.66754,53.57624],[-119.66722,53.57642],[-119.66683,53.57654],[-119.66664,53.57662],[-119.66631,53.57679],[-119.66594,53.57694],[-119.66542,53.57718],[-119.66502,53.5773],[-119.66486,53.5774],[-119.66474,53.57751],[-119.6647,53.57769],[-119.66458,53.5778],[-119.66434,53.57784],[-119.66405,53.57782],[-119.66383,53.57776],[-119.66367,53.57767],[-119.66348,53.57759],[-119.66313,53.57741],[-119.66292,53.57735],[-119.66265,53.57735],[-119.66244,53.57739],[-119.66228,53.57748],[-119.66219,53.57762],[-119.66204,53.57771],[-119.66183,53.57776],[-119.66155,53.57776],[-119.66131,53.57779],[-119.6611,53.57785],[-119.66091,53.57792],[-119.66059,53.5781],[-119.66046,53.5782],[-119.66024,53.57825],[-119.6594,53.57823],[-119.65911,53.57821],[-119.65889,53.57816],[-119.6585,53.578],[-119.65825,53.57796],[-119.65771,53.57796],[-119.65728,53.57806],[-119.65682,53.57812],[-119.65656,53.57814],[-119.65627,53.57812],[-119.65602,53.57806],[-119.65583,53.57799],[-119.65553,53.57781],[-119.65524,53.57778],[-119.65467,53.57775],[-119.65394,53.5776],[-119.65367,53.57757],[-119.65343,53.57759],[-119.65309,53.57773],[-119.65286,53.57777],[-119.6526,53.57778],[-119.65234,53.57777],[-119.65231,53.57777],[-119.6518,53.57769],[-119.65155,53.57771],[-119.65133,53.57776],[-119.65116,53.57783],[-119.65072,53.5779],[-119.65021,53.57792],[-119.64964,53.5779],[-119.64911,53.57783],[-119.64859,53.57776],[-119.64833,53.57777],[-119.64819,53.57788],[-119.64809,53.57801],[-119.64796,53.57813],[-119.6474,53.57857],[-119.64729,53.5787],[-119.64714,53.57881],[-119.64661,53.57903],[-119.64645,53.57912],[-119.64624,53.57939],[-119.64609,53.57948],[-119.64586,53.57973],[-119.6456,53.57996],[-119.64541,53.58002],[-119.64456,53.57996],[-119.64403,53.57999],[-119.64332,53.58008],[-119.6429,53.58017],[-119.64288,53.5803],[-119.64303,53.5804],[-119.64315,53.58051],[-119.6432,53.58065],[-119.64311,53.5808],[-119.6429,53.58086],[-119.64239,53.58089],[-119.64137,53.58096],[-119.64091,53.58106],[-119.64076,53.58116],[-119.64068,53.5813],[-119.64059,53.58184],[-119.6405,53.58219],[-119.64038,53.58232],[-119.64019,53.58238],[-119.63937,53.58239],[-119.63886,53.58244],[-119.63866,53.5825],[-119.63844,53.58255],[-119.63816,53.58252],[-119.63796,53.58245],[-119.63781,53.58236],[-119.63762,53.58229],[-119.63714,53.58218],[-119.63687,53.58219],[-119.63672,53.58229],[-119.63664,53.58245],[-119.63659,53.58262],[-119.63643,53.5827],[-119.63602,53.58281],[-119.63559,53.58312],[-119.63539,53.58318],[-119.6349,53.58323],[-119.63414,53.5833],[-119.63364,53.58354],[-119.63343,53.58359],[-119.63317,53.58358],[-119.63276,53.58345],[-119.6325,53.58341],[-119.63204,53.58349],[-119.63179,53.58351],[-119.63158,53.58355],[-119.63139,53.58362],[-119.63119,53.5837],[-119.63068,53.58396],[-119.63049,53.58403],[-119.63025,53.58406],[-119.62978,53.58413],[-119.6295,53.58409],[-119.62928,53.58402],[-119.62901,53.58382],[-119.62873,53.58381],[-119.62848,53.58383],[-119.62831,53.58392],[-119.62816,53.58402],[-119.62804,53.58414],[-119.62794,53.58428],[-119.62798,53.58442],[-119.62808,53.58454],[-119.62852,53.58485],[-119.62876,53.58507],[-119.62879,53.58522],[-119.6287,53.58536],[-119.62851,53.58542],[-119.6283,53.58547],[-119.62805,53.5855],[-119.62784,53.58554],[-119.62765,53.58561],[-119.62718,53.58587],[-119.62701,53.58605],[-119.6267,53.58626],[-119.62661,53.58627],[-119.62645,53.58629],[-119.62588,53.5863],[-119.62563,53.58632],[-119.62517,53.5864],[-119.62498,53.58647],[-119.62463,53.58664],[-119.62436,53.58664],[-119.62388,53.58655],[-119.6236,53.58653],[-119.62338,53.58657],[-119.62302,53.58672],[-119.6228,53.58677],[-119.62254,53.5868],[-119.62231,53.58674],[-119.62218,53.58663],[-119.62202,53.58636],[-119.62174,53.58598],[-119.62149,53.58576],[-119.62133,53.58566],[-119.62114,53.58559],[-119.62088,53.58557],[-119.62044,53.58567],[-119.61989,53.5859],[-119.61951,53.58604],[-119.61927,53.58608],[-119.61898,53.58606],[-119.61876,53.58599],[-119.61862,53.58589],[-119.61841,53.58566],[-119.6182,53.58524],[-119.61811,53.58512],[-119.61796,53.58502],[-119.61771,53.58497],[-119.61744,53.58499],[-119.6172,53.58502],[-119.61698,53.58507],[-119.61663,53.58522],[-119.61607,53.58543],[-119.61565,53.58554],[-119.61506,53.58574],[-119.61484,53.58579],[-119.61455,53.58579],[-119.61431,53.58574],[-119.614,53.58556],[-119.61358,53.58524],[-119.61328,53.58505],[-119.61305,53.58499],[-119.61282,53.58503],[-119.61276,53.58511],[-119.61272,53.58516],[-119.61276,53.58548],[-119.61275,53.58567],[-119.61282,53.58598],[-119.61269,53.5861],[-119.61245,53.58613],[-119.6123,53.58622],[-119.61225,53.58637],[-119.61214,53.58648],[-119.61196,53.58653],[-119.6117,53.58653],[-119.61118,53.58651],[-119.61095,53.58654],[-119.61079,53.58662],[-119.61058,53.58688],[-119.61034,53.5871],[-119.61003,53.58746],[-119.6098,53.58768],[-119.60963,53.58775],[-119.60942,53.58778],[-119.60912,53.58797],[-119.60886,53.58818],[-119.60872,53.58826],[-119.60838,53.58841],[-119.6083,53.58855],[-119.60818,53.58865],[-119.60785,53.58881],[-119.60746,53.58894],[-119.60701,53.58902],[-119.60673,53.58901],[-119.60651,53.58905],[-119.60566,53.58926],[-119.60542,53.58928],[-119.60485,53.5895],[-119.60464,53.58954],[-119.60444,53.58961],[-119.60429,53.58971],[-119.60425,53.58987],[-119.60419,53.59043],[-119.60411,53.59076],[-119.60408,53.59111],[-119.60413,53.59127],[-119.60431,53.59134],[-119.60477,53.59144],[-119.60496,53.59152],[-119.605,53.59165],[-119.60487,53.59176],[-119.60467,53.59182],[-119.60443,53.59185],[-119.60387,53.59186],[-119.60366,53.59191],[-119.60348,53.59199],[-119.60309,53.59212],[-119.60261,53.59219],[-119.60207,53.59222],[-119.60097,53.59248],[-119.60072,53.59251],[-119.60043,53.59251],[-119.59985,53.59248],[-119.59936,53.59239],[-119.59898,53.59224],[-119.59878,53.59218],[-119.59854,53.59214],[-119.59801,53.59206],[-119.59672,53.59186],[-119.59624,53.59175],[-119.59572,53.59168],[-119.59551,53.59162],[-119.59516,53.59146],[-119.59485,53.59127],[-119.59459,53.59106],[-119.5943,53.59086],[-119.5942,53.59073],[-119.59407,53.59045],[-119.59401,53.59013],[-119.59403,53.58978],[-119.59392,53.58967],[-119.59364,53.58965],[-119.59339,53.58967],[-119.59325,53.58977],[-119.59307,53.59025],[-119.59284,53.59027],[-119.59234,53.59019],[-119.59177,53.58996],[-119.59163,53.58986],[-119.59151,53.58975],[-119.59136,53.58966],[-119.59093,53.58953],[-119.59034,53.58951],[-119.58946,53.58952],[-119.58896,53.58943],[-119.58843,53.58936],[-119.58816,53.58938],[-119.58807,53.58948],[-119.58837,53.58968],[-119.58873,53.58984],[-119.58888,53.58993],[-119.58897,53.59006],[-119.58884,53.59016],[-119.58842,53.59026],[-119.58816,53.59029],[-119.58787,53.59028],[-119.58758,53.59026],[-119.5875,53.59024],[-119.58737,53.5902],[-119.58731,53.59015],[-119.58723,53.5901],[-119.58711,53.58998],[-119.58695,53.58971],[-119.58698,53.58936],[-119.58691,53.58922],[-119.58664,53.58921],[-119.58639,53.58923],[-119.58616,53.58928],[-119.58597,53.58935],[-119.58581,53.58945],[-119.58568,53.58955],[-119.58543,53.58997],[-119.58542,53.59014],[-119.58551,53.59045],[-119.58549,53.59062],[-119.58541,53.59076],[-119.58526,53.59087],[-119.58491,53.59103],[-119.58476,53.59119],[-119.5847,53.59146],[-119.58469,53.59181],[-119.58459,53.59235],[-119.58452,53.59251],[-119.58432,53.59277],[-119.58397,53.59312],[-119.58378,53.59338],[-119.58372,53.59353],[-119.58361,53.59365],[-119.58346,53.59374],[-119.58329,53.59381],[-119.58301,53.59386],[-119.58251,53.5938],[-119.58221,53.59379],[-119.58199,53.59384],[-119.58182,53.59393],[-119.58145,53.59426],[-119.58137,53.5944],[-119.58131,53.59455],[-119.581,53.59499],[-119.58075,53.59532],[-119.58053,53.59557],[-119.58008,53.59586],[-119.57975,53.59603],[-119.57955,53.59609],[-119.57931,53.59612],[-119.57903,53.59609],[-119.57879,53.59604],[-119.57844,53.59588],[-119.57833,53.59576],[-119.57826,53.59563],[-119.5782,53.59558],[-119.57772,53.5955],[-119.5772,53.59574],[-119.57585,53.59595],[-119.57437,53.59643],[-119.5723,53.59665],[-119.57069,53.59682],[-119.56987,53.59697],[-119.56831,53.5976],[-119.56763,53.5979],[-119.56759,53.59792],[-119.56715,53.5982],[-119.56697,53.59897],[-119.56723,53.59959],[-119.56643,53.60002],[-119.5653,53.60004],[-119.56263,53.59973],[-119.55932,53.5999],[-119.55825,53.59978],[-119.55731,53.59922],[-119.55622,53.59862],[-119.5553,53.59854],[-119.55312,53.59863],[-119.55138,53.59984],[-119.55072,53.60017],[-119.54788,53.60081],[-119.54678,53.60133],[-119.54666,53.60183],[-119.54681,53.60304],[-119.5466,53.60341],[-119.54602,53.60373],[-119.54579,53.60377],[-119.54497,53.60389],[-119.54453,53.60412],[-119.54332,53.60411],[-119.5432,53.60407],[-119.54278,53.60394],[-119.54212,53.60422],[-119.54171,53.60495],[-119.54174,53.60544],[-119.54271,53.60646],[-119.54272,53.60677],[-119.54237,53.60718],[-119.54143,53.60779],[-119.54069,53.60816],[-119.5401,53.60831],[-119.53856,53.60924],[-119.53807,53.60979],[-119.53773,53.61052],[-119.53708,53.61094],[-119.53602,53.611],[-119.53492,53.61073],[-119.53427,53.61057],[-119.53297,53.61058],[-119.53038,53.61061],[-119.53026,53.61058],[-119.52934,53.61034],[-119.52933,53.61034],[-119.52931,53.61034],[-119.5285,53.6104],[-119.52698,53.61187],[-119.5265,53.61233],[-119.52628,53.61238],[-119.52538,53.61258],[-119.52425,53.6126],[-119.52369,53.61268],[-119.52329,53.61271],[-119.52325,53.61272],[-119.52284,53.61273],[-119.52281,53.61273],[-119.52247,53.61274],[-119.52228,53.61282],[-119.52215,53.61287],[-119.52214,53.61287],[-119.52192,53.61288],[-119.52177,53.61279],[-119.52157,53.61279],[-119.51943,53.61284],[-119.51883,53.61298],[-119.51847,53.61326],[-119.51813,53.61385],[-119.51762,53.61418],[-119.51566,53.61457],[-119.51407,53.61488],[-119.51177,53.615],[-119.51145,53.61505],[-119.5107,53.61519],[-119.50962,53.61564],[-119.50902,53.61589],[-119.50875,53.6162],[-119.50874,53.61621],[-119.50819,53.61721],[-119.50762,53.61767],[-119.50703,53.61804],[-119.50636,53.61815],[-119.50548,53.61857],[-119.50533,53.61866],[-119.50542,53.61884],[-119.50589,53.61915],[-119.50666,53.61936],[-119.50713,53.61961],[-119.50762,53.62023],[-119.50753,53.62122],[-119.50855,53.62188],[-119.50864,53.62219],[-119.50844,53.62264],[-119.50749,53.62325],[-119.50714,53.6237],[-119.50716,53.62373],[-119.5073,53.6239],[-119.50751,53.62401],[-119.50753,53.62501],[-119.5076,53.62528],[-119.50771,53.62541],[-119.50815,53.62588],[-119.50839,53.62649],[-119.50852,53.62704],[-119.50847,53.62772],[-119.50829,53.62797],[-119.50807,53.62828],[-119.50756,53.6287],[-119.50666,53.62894],[-119.50583,53.62908],[-119.50558,53.62912],[-119.50489,53.62931],[-119.50464,53.62949],[-119.50438,53.62968],[-119.5038,53.63017],[-119.50318,53.63067],[-119.50268,53.63125],[-119.50184,53.63221],[-119.50154,53.63257],[-119.50151,53.63261],[-119.50111,53.63317],[-119.50083,53.63382],[-119.50066,53.63433],[-119.50022,53.63467],[-119.50002,53.63482],[-119.49974,53.63512],[-119.49784,53.63549],[-119.49554,53.63635],[-119.49474,53.63682],[-119.49469,53.63722],[-119.49447,53.63736],[-119.49374,53.63778],[-119.49334,53.63878],[-119.49191,53.64016],[-119.49203,53.641],[-119.49304,53.64135],[-119.49413,53.64155],[-119.49526,53.6418],[-119.49761,53.64323],[-119.49794,53.64363],[-119.49799,53.64453],[-119.49777,53.64506],[-119.49724,53.64543],[-119.49576,53.64637],[-119.49494,53.64743],[-119.49511,53.64827],[-119.49484,53.64873],[-119.49489,53.64958],[-119.4952,53.64998],[-119.49553,53.65029],[-119.49556,53.65069],[-119.49507,53.65142],[-119.4951,53.65196],[-119.49552,53.65254],[-119.49542,53.65609],[-119.49642,53.6576],[-119.49649,53.65854],[-119.4965,53.65885],[-119.49741,53.66027],[-119.49966,53.66128],[-119.49985,53.66137],[-119.50002,53.66179],[-119.50015,53.66211],[-119.50023,53.66227],[-119.50026,53.66235],[-119.50028,53.66239],[-119.50615,53.66567],[-119.52549,53.68315],[-119.5414,53.6975],[-119.56619,53.72091],[-119.58152,53.75422],[-119.60338,53.79883],[-119.606,53.81259],[-119.58236,53.81477],[-119.58236,53.8148],[-119.545,53.82914],[-119.53229,53.83362],[-119.52517,53.83922],[-119.52069,53.84243],[-119.50383,53.84421],[-119.49779,53.84501],[-119.49181,53.84619],[-119.4872,53.84711],[-119.4872,53.85393],[-119.4872,53.86116],[-119.4872,53.86143],[-119.4872,53.86856],[-119.48721,53.87579],[-119.48721,53.88302],[-119.48721,53.89024],[-119.48721,53.89052],[-119.48721,53.89765],[-119.48721,53.90186],[-119.48721,53.90305],[-119.48384,53.90317],[-119.4716,53.90184],[-119.45992,53.89632],[-119.44078,53.89644],[-119.4207,53.89718],[-119.41242,53.90463],[-119.42233,53.9126],[-119.4347,53.91512],[-119.43797,53.92691],[-119.43546,53.93176],[-119.42843,53.94155],[-119.42347,53.95185],[-119.42498,53.96608],[-119.43177,53.97297],[-119.4429,53.97596],[-119.42051,53.98263],[-119.38359,53.99566],[-119.36445,54.00139],[-119.33675,54.00968],[-119.33671,54.00969],[-119.3194,54.014],[-119.2953,54.02403],[-119.27744,54.03589],[-119.26106,54.04489],[-119.23253,54.04295],[-119.21232,54.04218],[-119.20098,54.04449],[-119.20087,54.0446],[-119.20037,54.04468],[-119.19848,54.04509],[-119.19625,54.04532],[-119.19458,54.04619],[-119.19423,54.04615],[-119.19378,54.04611],[-119.19317,54.04611],[-119.19286,54.0461],[-119.19252,54.04609],[-119.19222,54.04605],[-119.19198,54.04603],[-119.19155,54.04599],[-119.19116,54.04597],[-119.19069,54.04594],[-119.19,54.04602],[-119.18959,54.04606],[-119.18932,54.0462],[-119.18928,54.04622],[-119.18898,54.04638],[-119.18888,54.04643],[-119.18869,54.04653],[-119.18835,54.04669],[-119.18813,54.04689],[-119.18798,54.0471],[-119.18778,54.04729],[-119.18758,54.04749],[-119.18753,54.04755],[-119.1874,54.0477],[-119.18735,54.04793],[-119.18735,54.04796],[-119.18734,54.04806],[-119.18578,54.04893],[-119.1858,54.05131],[-119.18602,54.05358],[-119.18605,54.05619],[-119.18601,54.05688],[-119.18484,54.05946],[-119.18399,54.06155],[-119.18392,54.06244],[-119.17814,54.06902],[-119.16996,54.0751],[-119.15805,54.07552],[-119.11241,54.07337],[-119.10106,54.0763],[-119.0841,54.08465],[-119.06346,54.09082],[-119.02989,54.09865],[-118.99883,54.10267],[-118.94649,54.10556],[-118.93558,54.10547],[-118.93558,54.10544],[-118.93535,54.10519],[-118.93506,54.10502],[-118.93465,54.10485],[-118.93442,54.10479],[-118.93436,54.10478],[-118.93384,54.10457],[-118.93349,54.10429],[-118.93345,54.10425],[-118.93337,54.10416],[-118.93308,54.10391],[-118.93291,54.10384],[-118.93238,54.10374],[-118.93209,54.10379],[-118.93205,54.1038],[-118.93121,54.10401],[-118.93063,54.10394],[-118.92964,54.10352],[-118.92935,54.10339],[-118.92888,54.10325],[-118.92842,54.10294],[-118.92778,54.10276],[-118.92737,54.10273],[-118.92697,54.10251],[-118.92122,54.10473],[-118.9191,54.10531],[-118.9191,54.10532],[-118.90604,54.1052],[-118.86718,54.10828],[-118.84917,54.12135],[-118.83789,54.13342],[-118.83794,54.13853],[-118.83769,54.13981],[-118.83481,54.14517],[-118.82836,54.15096],[-118.82706,54.16417],[-118.83142,54.17254],[-118.84081,54.1796],[-118.84689,54.18423],[-118.84813,54.18368],[-118.8502,54.1831],[-118.85207,54.18194],[-118.8575,54.1813],[-118.85975,54.18145],[-118.86235,54.18216],[-118.86401,54.18327],[-118.86539,54.1855],[-118.86611,54.18753],[-118.86295,54.19173],[-118.81683,54.20433],[-118.80535,54.21159],[-118.80532,54.21156],[-118.80534,54.21101],[-118.80523,54.21088],[-118.80513,54.21083],[-118.80501,54.21081],[-118.80415,54.21076],[-118.80391,54.21081],[-118.80372,54.21089],[-118.80341,54.21112],[-118.80336,54.21126],[-118.80335,54.21145],[-118.80314,54.21169],[-118.80283,54.21192],[-118.80183,54.21232],[-118.80156,54.21237],[-118.80056,54.21236],[-118.80032,54.21232],[-118.80017,54.21223],[-118.80005,54.21209],[-118.80012,54.21194],[-118.80028,54.21185],[-118.80031,54.2115],[-118.80026,54.21141],[-118.79998,54.2111],[-118.79944,54.21064],[-118.79915,54.21051],[-118.7988,54.21045],[-118.79849,54.21046],[-118.79828,54.2105],[-118.79803,54.21056],[-118.79754,54.21083],[-118.79702,54.2113],[-118.79669,54.2115],[-118.79593,54.21181],[-118.79569,54.21186],[-118.79524,54.212],[-118.79441,54.21251],[-118.79432,54.21278],[-118.79376,54.2132],[-118.79349,54.21361],[-118.79345,54.21381],[-118.79347,54.21399],[-118.79355,54.21415],[-118.79357,54.21446],[-118.79378,54.21491],[-118.79391,54.21504],[-118.79433,54.21555],[-118.7946,54.21577],[-118.7948,54.21584],[-118.79552,54.21619],[-118.79583,54.21641],[-118.79592,54.21656],[-118.79594,54.21668],[-118.79589,54.21691],[-118.79562,54.21713],[-118.79475,54.21779],[-118.7931,54.21875],[-118.79291,54.21882],[-118.79106,54.21913],[-118.78996,54.21926],[-118.78901,54.21927],[-118.78859,54.21922],[-118.78829,54.21927],[-118.78805,54.21937],[-118.7879,54.21947],[-118.78764,54.2197],[-118.78754,54.22004],[-118.78739,54.22013],[-118.78658,54.22046],[-118.78575,54.22091],[-118.78565,54.22104],[-118.78554,54.22135],[-118.78551,54.2217],[-118.78558,54.22197],[-118.78592,54.22261],[-118.78611,54.22284],[-118.78646,54.22365],[-118.78645,54.22371],[-118.78644,54.22383],[-118.78627,54.22411],[-118.78598,54.22434],[-118.78562,54.22453],[-118.78515,54.22461],[-118.78421,54.22462],[-118.78398,54.22457],[-118.78388,54.22447],[-118.78382,54.2243],[-118.78351,54.22389],[-118.78339,54.22376],[-118.78329,54.22365],[-118.78312,54.22356],[-118.78288,54.22354],[-118.78251,54.22355],[-118.78226,54.22359],[-118.78127,54.22379],[-118.78101,54.22384],[-118.78021,54.22395],[-118.78008,54.22404],[-118.77983,54.22429],[-118.77959,54.22491],[-118.77959,54.22549],[-118.7797,54.2258],[-118.7797,54.22628],[-118.77997,54.22651],[-118.78026,54.22666],[-118.78078,54.22683],[-118.78154,54.22716],[-118.78182,54.22739],[-118.78188,54.22754],[-118.78185,54.22773],[-118.78172,54.22783],[-118.78145,54.22795],[-118.781,54.22827],[-118.78065,54.22837],[-118.77991,54.22873],[-118.77925,54.22894],[-118.77873,54.22902],[-118.77805,54.22901],[-118.77746,54.22898],[-118.77697,54.22888],[-118.77659,54.22874],[-118.77626,54.22854],[-118.77611,54.22826],[-118.77589,54.228],[-118.77547,54.22768],[-118.77522,54.22773],[-118.7746,54.22774],[-118.77401,54.2277],[-118.77375,54.22772],[-118.77353,54.22781],[-118.77342,54.2279],[-118.77314,54.22816],[-118.77297,54.22844],[-118.77297,54.22889],[-118.77309,54.2295],[-118.77315,54.22964],[-118.77336,54.22991],[-118.77365,54.23013],[-118.77382,54.23034],[-118.7738,54.23057],[-118.7737,54.23087],[-118.77369,54.23114],[-118.7736,54.23124],[-118.77361,54.23162],[-118.77373,54.23203],[-118.77409,54.23259],[-118.77445,54.23296],[-118.77493,54.23326],[-118.77511,54.23347],[-118.77511,54.23369],[-118.77486,54.23395],[-118.77466,54.23425],[-118.77455,54.23451],[-118.77437,54.23477],[-118.7741,54.23501],[-118.77391,54.23509],[-118.77364,54.23513],[-118.77347,54.23521],[-118.77317,54.23542],[-118.77295,54.23567],[-118.77281,54.23635],[-118.77267,54.23649],[-118.77194,54.23681],[-118.7716,54.23681],[-118.77145,54.23686],[-118.77122,54.23691],[-118.77092,54.23692],[-118.76956,54.23728],[-118.76896,54.23751],[-118.76864,54.2377],[-118.76838,54.23794],[-118.76807,54.23832],[-118.76815,54.23844],[-118.76841,54.23849],[-118.7686,54.23858],[-118.76881,54.2388],[-118.76937,54.2392],[-118.76966,54.23933],[-118.76987,54.23938],[-118.76997,54.23937],[-118.77013,54.23942],[-118.7706,54.2399],[-118.77065,54.24005],[-118.77067,54.24025],[-118.77056,54.24056],[-118.77021,54.24094],[-118.76972,54.24141],[-118.76952,54.24169],[-118.76912,54.24202],[-118.7685,54.24218],[-118.76846,54.24221],[-118.76798,54.2423],[-118.76717,54.24261],[-118.76462,54.24306],[-118.76369,54.24308],[-118.76333,54.24316],[-118.76324,54.24337],[-118.76344,54.24383],[-118.76396,54.2443],[-118.76439,54.24461],[-118.76443,54.24537],[-118.76434,54.24609],[-118.76424,54.24621],[-118.76374,54.2467],[-118.76327,54.247],[-118.7627,54.24744],[-118.76237,54.24764],[-118.76206,54.24787],[-118.7618,54.24807],[-118.7618,54.24824],[-118.76185,54.24836],[-118.76211,54.24861],[-118.76289,54.24909],[-118.76359,54.24943],[-118.764,54.24974],[-118.76411,54.2499],[-118.76412,54.25003],[-118.76399,54.25048],[-118.76369,54.25091],[-118.76359,54.2511],[-118.76356,54.25146],[-118.76346,54.25166],[-118.76324,54.25184],[-118.7631,54.25201],[-118.76284,54.25251],[-118.7628,54.25289],[-118.76235,54.25389],[-118.76209,54.25491],[-118.76212,54.25526],[-118.76236,54.25549],[-118.76292,54.25599],[-118.76329,54.25644],[-118.76259,54.25827],[-118.76166,54.25849],[-118.76136,54.25869],[-118.76131,54.25878],[-118.76124,54.25915],[-118.76125,54.25991],[-118.76119,54.26024],[-118.76067,54.26114],[-118.76053,54.26145],[-118.76027,54.26181],[-118.75969,54.26252],[-118.75919,54.26319],[-118.75914,54.26338],[-118.75934,54.26375],[-118.76024,54.26438],[-118.75867,54.26847],[-118.7661,54.28329],[-118.76795,54.28401],[-118.76818,54.28491],[-118.76836,54.28521],[-118.76864,54.28559],[-118.76896,54.28588],[-118.76964,54.28644],[-118.7705,54.28688],[-118.77086,54.28722],[-118.77095,54.28756],[-118.77083,54.28795],[-118.7701,54.28891],[-118.76948,54.28951],[-118.76904,54.28976],[-118.76809,54.29003],[-118.76794,54.29007],[-118.76726,54.29015],[-118.76653,54.29013],[-118.76581,54.2902],[-118.7653,54.29039],[-118.76493,54.29062],[-118.76476,54.291],[-118.76482,54.29146],[-118.76516,54.29265],[-118.76553,54.29345],[-118.76562,54.29387],[-118.76587,54.29419],[-118.766,54.29428],[-118.76629,54.29441],[-118.76671,54.2945],[-118.76692,54.2945],[-118.76734,54.29435],[-118.76769,54.29409],[-118.76991,54.29443],[-118.77088,54.29441],[-118.77531,54.29265],[-118.77752,54.29168],[-118.77942,54.29109],[-118.78325,54.29028],[-118.7836,54.29006],[-118.78387,54.29014],[-118.80934,54.28463],[-118.81006,54.28413],[-118.81255,54.28344],[-118.8143,54.28272],[-118.81469,54.28281],[-118.81492,54.28284],[-118.81526,54.28284],[-118.81546,54.28284],[-118.8162,54.28279],[-118.81672,54.28265],[-118.81737,54.28256],[-118.81772,54.28255],[-118.8181,54.28258],[-118.81914,54.28255],[-118.82039,54.28245],[-118.82107,54.28247],[-118.82136,54.28252],[-118.82171,54.2826],[-118.82316,54.28313],[-118.82332,54.28321],[-118.82404,54.28357],[-118.82452,54.28373],[-118.82454,54.28374],[-118.82498,54.28384],[-118.82515,54.28388],[-118.82608,54.28393],[-118.82651,54.28392],[-118.82682,54.28388],[-118.82708,54.28379],[-118.82736,54.28348],[-118.82769,54.28326],[-118.82773,54.28321],[-118.82777,54.28317],[-118.82818,54.28256],[-118.82837,54.2822],[-118.82855,54.28202],[-118.82861,54.28191],[-118.82933,54.28094],[-118.82976,54.28048],[-118.83074,54.27956],[-118.83111,54.27918],[-118.83159,54.27872],[-118.83216,54.27792],[-118.8323,54.27755],[-118.8323,54.27707],[-118.8322,54.27645],[-118.83209,54.27603],[-118.83203,54.27598],[-118.83171,54.27574],[-118.83151,54.27564],[-118.83103,54.27548],[-118.83075,54.27534],[-118.83085,54.27526],[-118.82887,54.27416],[-118.82751,54.27248],[-118.82657,54.27145],[-118.83006,54.26274],[-118.83312,54.26129],[-118.83366,54.26104],[-118.83375,54.26106],[-118.83436,54.26116],[-118.83554,54.26135],[-118.83582,54.26139],[-118.83655,54.26143],[-118.83732,54.2616],[-118.83829,54.26182],[-118.83946,54.26198],[-118.84074,54.26196],[-118.84425,54.26178],[-118.84531,54.2617],[-118.84623,54.26169],[-118.84749,54.26167],[-118.84817,54.26172],[-118.84875,54.26172],[-118.84915,54.26164],[-118.85707,54.26761],[-118.85379,54.2761],[-118.8528,54.27718],[-118.84935,54.27912],[-118.84654,54.28085],[-118.84439,54.28314],[-118.84352,54.28542],[-118.84358,54.28673],[-118.84413,54.2871],[-118.84402,54.28711],[-118.84391,54.28717],[-118.84613,54.28954],[-118.86481,54.37204],[-118.86831,54.377],[-118.88557,54.37829],[-118.91771,54.38019],[-118.93177,54.37935],[-118.94089,54.37753],[-118.95331,54.37477],[-118.96552,54.37189],[-118.97687,54.36686],[-118.98085,54.35828],[-118.98473,54.35255],[-118.98959,54.34669],[-118.99184,54.33904],[-118.99084,54.33336],[-118.9879,54.32783],[-118.98471,54.32092],[-118.97984,54.31609],[-118.97439,54.31138],[-118.97429,54.31012],[-118.97463,54.30913],[-118.9752,54.30761],[-118.97567,54.30672],[-118.98707,54.3057],[-119.00135,54.30771],[-119.01176,54.31381],[-119.01978,54.3193],[-119.03264,54.32628],[-119.04108,54.33381],[-119.04785,54.34099],[-119.05645,54.34756],[-119.05843,54.34971],[-119.06051,54.35268],[-119.06219,54.35451],[-119.06324,54.36131],[-119.06787,54.37548],[-119.06778,54.37552],[-119.06852,54.37739],[-119.06924,54.37889],[-119.07031,54.38094],[-119.07099,54.38168],[-119.07117,54.38285],[-119.07307,54.39102],[-119.07753,54.39494],[-119.0856,54.39609],[-119.0938,54.39575],[-119.09903,54.38966],[-119.10318,54.38107],[-119.1106,54.3713],[-119.11234,54.36662],[-119.11392,54.36502],[-119.1152,54.35888],[-119.11905,54.34844],[-119.12161,54.33942],[-119.12867,54.33534],[-119.13255,54.33474],[-119.13468,54.33502],[-119.13764,54.33576],[-119.14006,54.33921],[-119.15152,54.36629],[-119.15603,54.38395],[-119.16533,54.48783],[-119.17083,54.49305],[-119.17081,54.49312],[-119.17056,54.49347],[-119.17054,54.49359],[-119.17092,54.49399],[-119.17098,54.49402],[-119.17109,54.49408],[-119.17163,54.49424],[-119.1717,54.49435],[-119.1718,54.49443],[-119.17189,54.4945],[-119.17197,54.49452],[-119.17213,54.49463],[-119.1721,54.49486],[-119.17227,54.49523],[-119.17233,54.49532],[-119.17252,54.49542],[-119.17261,54.4955],[-119.17426,54.49646],[-119.17484,54.49685],[-119.17919,54.50098],[-119.20811,54.50673],[-119.25418,54.50631],[-119.34539,54.50985],[-119.40156,54.51528],[-119.40321,54.51509],[-119.40647,54.51514],[-119.41002,54.51507],[-119.41125,54.5148],[-119.41163,54.51485],[-119.41453,54.51479],[-119.41973,54.51506],[-119.4226,54.51444],[-119.42545,54.51344],[-119.42862,54.51225],[-119.43372,54.51102],[-119.43722,54.51],[-119.44099,54.50908],[-119.441,54.50908],[-119.44144,54.50908],[-119.44155,54.50901],[-119.44156,54.509],[-119.4416,54.50893],[-119.44392,54.50836],[-119.44674,54.5068],[-119.45532,54.50437],[-119.46171,54.50292],[-119.46714,54.50187],[-119.47428,54.50229],[-119.47468,54.50237],[-119.4965,54.51993],[-119.51298,54.52859],[-119.53252,54.53406],[-119.55466,54.53854],[-119.55544,54.54738],[-119.55586,54.56222],[-119.57079,54.57058],[-119.58007,54.56991],[-119.58012,54.56992],[-119.58238,54.56987],[-119.58851,54.56936],[-119.59237,54.5689],[-119.59303,54.56861],[-119.60462,54.56768],[-119.62145,54.56262],[-119.62149,54.56259],[-119.624,54.56201],[-119.62839,54.56017],[-119.62858,54.56016],[-119.63165,54.55919],[-119.63461,54.55641],[-119.63724,54.54818],[-119.6369,54.54708],[-119.63724,54.54628],[-119.63667,54.54253],[-119.63583,54.53954],[-119.63506,54.53767],[-119.63464,54.53722],[-119.63279,54.53261],[-119.62771,54.52576],[-119.62162,54.51836],[-119.61482,54.51234],[-119.6056,54.50499],[-119.6009,54.49791],[-119.60027,54.49337],[-119.60193,54.48776],[-119.60421,54.48273],[-119.60452,54.48234],[-119.60329,54.47942],[-119.59646,54.46923],[-119.59962,54.46942],[-119.59976,54.46943],[-119.61095,54.47625],[-119.62338,54.48905],[-119.63489,54.50597],[-119.64824,54.51433],[-119.66727,54.51978],[-119.67984,54.52074],[-119.68058,54.52085],[-119.68253,54.521],[-119.68613,54.52148],[-119.68941,54.52216],[-119.692,54.52229],[-119.69526,54.5226],[-119.69762,54.52232],[-119.69765,54.52234],[-119.70211,54.5225],[-119.71299,54.52048],[-119.73129,54.51786],[-119.74653,54.51656],[-119.75962,54.51563],[-119.76693,54.51578],[-119.76411,54.51501],[-119.76462,54.51452],[-119.7649,54.51401],[-119.76494,54.51394],[-119.76539,54.51323],[-119.76601,54.51241],[-119.76658,54.5117],[-119.76669,54.51089],[-119.76721,54.51088],[-119.76781,54.51047],[-119.76856,54.5101],[-119.7697,54.51032],[-119.76999,54.51],[-119.77088,54.50981],[-119.77213,54.50931],[-119.77309,54.50851],[-119.77377,54.50768],[-119.7737,54.507],[-119.77383,54.50592],[-119.77394,54.5052],[-119.77435,54.50476],[-119.77524,54.5045],[-119.77589,54.5039],[-119.77665,54.50311],[-119.77657,54.5025],[-119.77645,54.50201],[-119.77697,54.50142],[-119.77694,54.50112],[-119.77667,54.50056],[-119.77682,54.50009],[-119.77708,54.49955],[-119.77818,54.49947],[-119.77955,54.49941],[-119.78154,54.49903],[-119.78275,54.49879],[-119.78401,54.49893],[-119.78535,54.49861],[-119.78664,54.49845],[-119.78745,54.49868],[-119.78857,54.49871],[-119.78959,54.49852],[-119.79147,54.49833],[-119.79273,54.49847],[-119.79395,54.4988],[-119.79401,54.49876],[-119.79455,54.49836],[-119.7947,54.49797],[-119.79464,54.49744],[-119.79428,54.49652],[-119.79417,54.49624],[-119.79395,54.49488],[-119.79336,54.49323],[-119.7927,54.49203],[-119.79167,54.49055],[-119.79104,54.48966],[-119.79047,54.48865],[-119.79026,54.48744],[-119.79034,54.48641],[-119.79042,54.48385],[-119.79047,54.48206],[-119.79061,54.48045],[-119.79118,54.47913],[-119.7925,54.47759],[-119.7934,54.47634],[-119.79338,54.47562],[-119.79289,54.4748],[-119.79177,54.47412],[-119.79076,54.47336],[-119.79084,54.47233],[-119.79094,54.47099],[-119.79022,54.46984],[-119.78929,54.46858],[-119.7888,54.46726],[-119.78884,54.46642],[-119.78931,54.46545],[-119.7902,54.46408],[-119.79068,54.46319],[-119.79088,54.46208],[-119.79057,54.46056],[-119.78996,54.45872],[-119.79009,54.45871],[-119.79029,54.45813],[-119.79124,54.45733],[-119.7925,54.45637],[-119.79405,54.45513],[-119.79498,54.4541],[-119.79563,54.45297],[-119.79581,54.45227],[-119.79616,54.45184],[-119.79776,54.45102],[-119.79918,54.45027],[-119.8007,54.44937],[-119.8024,54.4482],[-119.8035,54.44702],[-119.80421,54.44584],[-119.80488,54.44376],[-119.80467,54.44079],[-119.8043,54.43826],[-119.80415,54.43693],[-119.80467,54.43634],[-119.80579,54.4353],[-119.807,54.43429],[-119.80775,54.43366],[-119.80941,54.43215],[-119.81094,54.43018],[-119.81183,54.4291],[-119.81295,54.42785],[-119.81352,54.42604],[-119.81387,54.4245],[-119.81534,54.42315],[-119.81701,54.42182],[-119.81788,54.42087],[-119.8183,54.41941],[-119.81972,54.41817],[-119.82147,54.41696],[-119.82292,54.4148],[-119.82439,54.41341],[-119.82552,54.41196],[-119.82715,54.41075],[-119.82862,54.40939],[-119.82948,54.40779],[-119.83057,54.40596],[-119.83206,54.40419],[-119.83326,54.40273],[-119.83464,54.40176],[-119.83618,54.40093],[-119.83721,54.40078],[-119.83935,54.40073],[-119.84257,54.40087],[-119.84478,54.40078],[-119.84727,54.40026],[-119.84741,54.40018],[-119.84917,54.39977],[-119.85167,54.39883],[-119.85425,54.39796],[-119.85873,54.39721],[-119.8617,54.3969],[-119.86239,54.39611],[-119.86238,54.39493],[-119.86249,54.39317],[-119.8629,54.3922],[-119.86417,54.39135],[-119.86619,54.39074],[-119.86923,54.39053],[-119.87037,54.39022],[-119.87132,54.38938],[-119.8726,54.38808],[-119.87389,54.38688],[-119.87597,54.38458],[-119.87813,54.38351],[-119.88104,54.3827],[-119.88261,54.38222],[-119.88376,54.38198],[-119.88523,54.38116],[-119.88708,54.38028],[-119.88919,54.37936],[-119.8906,54.37858],[-119.89158,54.37805],[-119.89319,54.37786],[-119.8942,54.37817],[-119.89518,54.37866],[-119.89695,54.37878],[-119.89867,54.37837],[-119.89968,54.3776],[-119.90105,54.37648],[-119.90233,54.3757],[-119.90338,54.37522],[-119.9047,54.3748],[-119.90657,54.37458],[-119.90875,54.3743],[-119.90957,54.37404],[-119.91009,54.37348],[-119.9113,54.37267],[-119.91213,54.37195],[-119.91274,54.37162],[-119.91369,54.37139],[-119.91527,54.37148],[-119.91802,54.37156],[-119.91939,54.37158],[-119.91981,54.37122],[-119.91963,54.37024],[-119.91904,54.36915],[-119.91867,54.36825],[-119.91939,54.36776],[-119.92082,54.36771],[-119.92335,54.36699],[-119.92597,54.36597],[-119.92853,54.36499],[-119.93096,54.36463],[-119.93215,54.36424],[-119.93425,54.36373],[-119.93608,54.36324],[-119.93799,54.36232],[-119.93954,54.36165],[-119.94133,54.36131],[-119.94387,54.36128],[-119.94554,54.36159],[-119.94735,54.36197],[-119.94858,54.36246],[-119.94992,54.36278],[-119.95082,54.36267],[-119.9516,54.36206],[-119.95181,54.36106],[-119.95277,54.35988],[-119.95442,54.35894],[-119.9552,54.35784],[-119.95405,54.3564],[-119.95261,54.35532],[-119.95258,54.35526],[-119.95237,54.3538],[-119.95367,54.35272],[-119.95492,54.35228],[-119.95591,54.35236],[-119.95775,54.35251],[-119.95891,54.35239],[-119.96062,54.3519],[-119.9613,54.35164],[-119.9614,54.35084],[-119.96074,54.34968],[-119.96061,54.34862],[-119.96143,54.34786],[-119.96293,54.34727],[-119.96481,54.34716],[-119.96662,54.34704],[-119.96865,54.34662],[-119.97014,54.34594],[-119.97123,54.34525],[-119.9718,54.34511],[-119.97294,54.34537],[-119.97475,54.34575],[-119.97657,54.34571],[-119.97899,54.34577],[-119.98075,54.34577],[-119.98214,54.34594],[-119.98345,54.3465],[-119.98492,54.34682],[-119.98595,54.34666],[-119.98679,54.34606],[-119.98742,54.34538],[-119.98822,54.34497],[-119.98927,54.34504],[-119.9912,54.34534],[-119.99177,54.34524],[-119.9927,54.34482],[-119.99386,54.34416],[-119.99565,54.34382],[-119.99632,54.34398],[-119.99746,54.34437],[-119.99824,54.34421],[-120.00051,54.34362],[-120.00134,54.34353],[-120.00134,54.3434],[-120.00134,54.34122],[-120.00134,54.33399],[-120.00134,54.32897],[-120.00134,54.32658],[-120.00134,54.31936],[-120.00134,54.31213],[-120.00133,54.30491],[-120.00133,54.3035],[-120.00133,54.2975],[-120.00133,54.29027],[-120.00133,54.28864],[-120.00133,54.28305],[-120.00133,54.27582],[-120.00133,54.26841],[-120.00133,54.26119],[-120.00133,54.25396],[-120.00133,54.24674],[-120.00132,54.24011],[-120.00132,54.23933],[-120.00132,54.2321],[-120.00132,54.22488],[-120.00132,54.21765],[-120.00132,54.21024],[-120.00132,54.20302],[-120.00132,54.19579],[-120.00132,54.19399],[-120.00132,54.18856],[-120.00132,54.18116],[-120.00132,54.17955],[-120.00132,54.17393],[-120.00132,54.17044],[-120.00132,54.16671],[-120.00132,54.15948],[-120.00132,54.15752],[-120.00132,54.15207],[-120.00132,54.14485],[-120.00132,54.13762],[-120.00132,54.1304],[-120.00133,54.12388],[-120.00133,54.12299],[-120.00133,54.11667],[-120.00134,54.07848],[-120.00134,54.07713],[-120.00134,54.07302],[-120.00133,54.07032],[-120.00133,54.04816],[-120.00133,54.0431],[-120.00133,54.0357],[-120.00133,54.02847],[-120.00133,54.02241],[-120.00133,54.02124],[-120.00133,54.01402],[-120.00133,54.01279],[-120.00133,54.01265],[-120.00133,54.00001],[-120.00132,53.95089],[-120.00132,53.9429]]]},"properties":{"SUBUNIT":"Redrock-Prairie Creek","LOCALRANGE":"West Central","STATUS":"Active","PERIM10TM":473974.57191638998,"AREA10TM":4828921832.3417597,"ACRES10TM":1193247.7984504199,"HA10TM":482892.18323417997,"OBJECTID":22,"SHAPE.STArea()":4828921832.3417664,"SHAPE.STLength()":473974.57191638794}}]}