{"type":"FeatureCollection","features":[{"type":"Feature","id":5,"geometry":{"type":"Polygon","coordinates":[[[-119.94051,54.73706],[-119.9449,54.74071],[-119.94834,54.74745],[-119.94459,54.75266],[-119.94258,54.75748],[-119.94111,54.76161],[-119.9436,54.76421],[-119.94178,54.7644],[-119.94041,54.76586],[-119.93874,54.76792],[-119.93574,54.7694],[-119.93343,54.77067],[-119.93258,54.7733],[-119.9345,54.77506],[-119.93815,54.77738],[-119.94253,54.78002],[-119.94454,54.78244],[-119.94494,54.78644],[-119.9441,54.78979],[-119.94374,54.79216],[-119.94364,54.793],[-119.94264,54.79411],[-119.94049,54.79587],[-119.93997,54.79786],[-119.94071,54.79975],[-119.94444,54.80207],[-119.94845,54.80451],[-119.95252,54.8073],[-119.95504,54.81012],[-119.95664,54.81272],[-119.95798,54.81537],[-119.95994,54.81649],[-119.96299,54.8168],[-119.96762,54.8174],[-119.96941,54.81813],[-119.97064,54.81919],[-119.97142,54.82111],[-119.97206,54.82459],[-119.97257,54.82789],[-119.97388,54.83132],[-119.9756,54.83453],[-119.97819,54.8381],[-119.98147,54.84073],[-119.98497,54.84325],[-119.98869,54.84609],[-119.99199,54.84885],[-119.99444,54.8511],[-119.99566,54.853],[-119.99693,54.85622],[-119.99848,54.85926],[-119.99936,54.86079],[-120.00008,54.86284],[-120.00057,54.86441],[-120.00125,54.86525],[-120.00138,54.86531],[-120.00138,54.86519],[-120.00138,54.86032],[-120.00138,54.85796],[-120.00138,54.85055],[-120.00138,54.84332],[-120.00138,54.84169],[-120.00138,54.83609],[-120.00138,54.82887],[-120.00138,54.82146],[-120.00138,54.82064],[-120.00138,54.81423],[-120.00138,54.807],[-120.00138,54.80081],[-120.00138,54.79978],[-120.00138,54.79237],[-120.00138,54.78926],[-120.00138,54.78514],[-120.00138,54.78065],[-120.00138,54.77791],[-120.00138,54.77607],[-120.00138,54.77069],[-120.00138,54.76465],[-120.00138,54.76354],[-120.00138,54.76328],[-120.00138,54.75614],[-120.00138,54.75101],[-120.00138,54.74891],[-120.00138,54.74302],[-120.00138,54.74168],[-120.00138,54.73559],[-120.00138,54.73427],[-120.00138,54.72859],[-120.00138,54.72705],[-120.00138,54.71982],[-120.00138,54.71259],[-120.00138,54.70937],[-120.00138,54.70518],[-120.00138,54.69795],[-120.00138,54.69126],[-120.00138,54.69073],[-120.00138,54.6835],[-120.00138,54.67609],[-120.00138,54.67297],[-120.00138,54.66886],[-120.00138,54.66163],[-120.00138,54.65473],[-120.00138,54.65441],[-120.00138,54.64905],[-120.00138,54.64865],[-120.00138,54.647],[-120.00138,54.64596],[-120.00138,54.63977],[-120.00138,54.63255],[-120.00138,54.63022],[-120.00138,54.62532],[-120.00138,54.61791],[-120.00138,54.61491],[-120.00138,54.61068],[-120.00138,54.60577],[-120.00138,54.60346],[-120.00137,54.59623],[-120.00137,54.58983],[-120.00137,54.5816],[-120.00137,54.57587],[-120.00137,54.57437],[-120.00137,54.56714],[-120.00137,54.56286],[-120.00137,54.55973],[-120.00137,54.55251],[-120.00137,54.54863],[-120.00137,54.54528],[-120.00137,54.53805],[-120.00137,54.53481],[-120.00137,54.53065],[-120.00137,54.52342],[-120.00136,54.51849],[-120.00136,54.51619],[-120.00136,54.50896],[-120.00136,54.50783],[-120.00136,54.50156],[-120.00136,54.49637],[-120.00136,54.49433],[-120.00136,54.4871],[-120.00136,54.47987],[-120.00136,54.47784],[-120.00136,54.47247],[-120.00136,54.46676],[-120.00136,54.46524],[-120.00136,54.45801],[-120.00136,54.45395],[-120.00135,54.45078],[-120.00135,54.44338],[-120.00135,54.43615],[-120.00135,54.43431],[-120.00135,54.42892],[-120.00135,54.42367],[-120.00135,54.4217],[-120.00135,54.41429],[-120.00135,54.41403],[-120.00135,54.41346],[-120.00135,54.40663],[-120.00135,54.3994],[-120.00135,54.39786],[-120.00135,54.39217],[-120.00135,54.38476],[-120.00135,54.37872],[-120.00135,54.37754],[-120.00135,54.37031],[-120.00135,54.36485],[-120.00135,54.36308],[-120.00134,54.35567],[-120.00134,54.3522],[-120.00134,54.34845],[-120.00134,54.3434],[-120.00134,54.34122],[-120.00134,54.33399],[-120.00134,54.32897],[-120.00134,54.32658],[-120.00134,54.31936],[-120.00134,54.31213],[-120.00133,54.30491],[-120.00133,54.3035],[-120.00133,54.2975],[-120.00133,54.29027],[-120.00133,54.28864],[-120.00133,54.28305],[-120.00133,54.27582],[-120.00133,54.26841],[-120.00133,54.26119],[-120.00133,54.25396],[-120.00133,54.24674],[-120.00132,54.24011],[-120.00132,54.23933],[-120.00132,54.2321],[-120.00132,54.22488],[-120.00132,54.21765],[-120.00132,54.21024],[-120.00132,54.20302],[-120.00132,54.19579],[-120.00132,54.19399],[-120.00132,54.18856],[-120.00132,54.18116],[-120.00132,54.17955],[-120.00132,54.17393],[-120.00132,54.17044],[-120.00132,54.17041],[-119.99934,54.17001],[-119.99903,54.16993],[-119.99864,54.16987],[-119.9981,54.16981],[-119.99782,54.16977],[-119.99757,54.16974],[-119.99733,54.16974],[-119.99724,54.16974],[-119.9968,54.16972],[-119.99652,54.16972],[-119.9963,54.16966],[-119.99618,54.16964],[-119.99604,54.16963],[-119.99585,54.16962],[-119.99522,54.16971],[-119.99442,54.16978],[-119.99351,54.16977],[-119.99246,54.16985],[-119.99137,54.16988],[-119.99071,54.16988],[-119.98964,54.16985],[-119.98934,54.16983],[-119.98913,54.16978],[-119.98899,54.16969],[-119.98863,54.16926],[-119.98811,54.16878],[-119.98774,54.16837],[-119.98743,54.16802],[-119.98712,54.16776],[-119.98698,54.16768],[-119.98682,54.16759],[-119.98661,54.16753],[-119.98633,54.16748],[-119.98587,54.1674],[-119.98561,54.16734],[-119.98538,54.16723],[-119.98492,54.16707],[-119.9844,54.1668],[-119.98372,54.16648],[-119.98316,54.16628],[-119.98283,54.16616],[-119.98254,54.16602],[-119.98232,54.16592],[-119.98209,54.16584],[-119.9813,54.16572],[-119.98121,54.16568],[-119.9811,54.16563],[-119.98077,54.16556],[-119.98052,54.16553],[-119.98024,54.16549],[-119.9796,54.16542],[-119.97919,54.16535],[-119.97874,54.16523],[-119.97864,54.16522],[-119.97855,54.16522],[-119.97847,54.16525],[-119.97839,54.16527],[-119.97809,54.1655],[-119.97749,54.16593],[-119.97721,54.16613],[-119.97706,54.16632],[-119.97678,54.16666],[-119.97665,54.1668],[-119.9763,54.16717],[-119.97615,54.16733],[-119.97606,54.16747],[-119.97595,54.16759],[-119.97582,54.16763],[-119.97566,54.16766],[-119.97552,54.16767],[-119.97533,54.1677],[-119.97507,54.16779],[-119.97469,54.16792],[-119.97444,54.168],[-119.9742,54.16804],[-119.97391,54.16806],[-119.97358,54.16808],[-119.9731,54.16816],[-119.97269,54.16824],[-119.97237,54.16829],[-119.97202,54.16833],[-119.9717,54.16839],[-119.97126,54.16847],[-119.97091,54.16857],[-119.97044,54.16872],[-119.97015,54.16887],[-119.97,54.16896],[-119.96976,54.16904],[-119.96888,54.16951],[-119.96728,54.1703],[-119.9662,54.17083],[-119.96577,54.1711],[-119.96541,54.17136],[-119.96498,54.17159],[-119.96467,54.17174],[-119.96423,54.17195],[-119.96378,54.1721],[-119.9632,54.17227],[-119.962,54.17242],[-119.96085,54.17277],[-119.96037,54.17315],[-119.95992,54.17347],[-119.95933,54.17366],[-119.95836,54.17378],[-119.95744,54.17394],[-119.95592,54.17414],[-119.95528,54.17419],[-119.95478,54.17431],[-119.95449,54.17448],[-119.95415,54.17476],[-119.954,54.17504],[-119.95385,54.1753],[-119.95354,54.17556],[-119.95317,54.17573],[-119.95256,54.17583],[-119.95185,54.17582],[-119.95132,54.17572],[-119.95068,54.17554],[-119.95013,54.17533],[-119.94915,54.17486],[-119.94862,54.17467],[-119.94778,54.17453],[-119.94644,54.17444],[-119.94619,54.17441],[-119.94587,54.17434],[-119.94555,54.17431],[-119.94347,54.17409],[-119.94302,54.17403],[-119.94185,54.17359],[-119.94137,54.17342],[-119.94081,54.17336],[-119.93987,54.17335],[-119.93926,54.17331],[-119.93859,54.17329],[-119.938,54.17323],[-119.93755,54.17327],[-119.93709,54.17339],[-119.93653,54.17343],[-119.93619,54.17345],[-119.93588,54.17341],[-119.93541,54.17331],[-119.93475,54.17307],[-119.93395,54.1728],[-119.93353,54.17274],[-119.93319,54.17276],[-119.93285,54.1728],[-119.93216,54.173],[-119.93153,54.17321],[-119.93078,54.17339],[-119.93018,54.17351],[-119.92982,54.17357],[-119.92931,54.17361],[-119.92916,54.17361],[-119.92868,54.17349],[-119.92805,54.1732],[-119.92794,54.17316],[-119.92778,54.17313],[-119.92741,54.17312],[-119.92699,54.17315],[-119.92663,54.17324],[-119.92628,54.17334],[-119.92601,54.17339],[-119.92571,54.17341],[-119.92531,54.17339],[-119.92125,54.17286],[-119.9203,54.1727],[-119.91586,54.1721],[-119.91457,54.1719],[-119.91372,54.17175],[-119.91236,54.17131],[-119.91172,54.17116],[-119.91096,54.17098],[-119.91004,54.17082],[-119.9098,54.17081],[-119.90943,54.17086],[-119.909,54.17093],[-119.90778,54.17118],[-119.90678,54.17128],[-119.90656,54.17126],[-119.90561,54.17078],[-119.90476,54.1704],[-119.90438,54.17032],[-119.9037,54.17023],[-119.90292,54.17026],[-119.90257,54.17024],[-119.90216,54.17016],[-119.90148,54.16989],[-119.89712,54.16869],[-119.89663,54.16854],[-119.89647,54.16849],[-119.8964,54.16844],[-119.89638,54.16837],[-119.89665,54.16803],[-119.89671,54.16787],[-119.89688,54.16761],[-119.89694,54.16736],[-119.89697,54.16705],[-119.89706,54.16687],[-119.89712,54.1667],[-119.89713,54.16661],[-119.89712,54.16651],[-119.89705,54.16643],[-119.89692,54.16636],[-119.89655,54.16623],[-119.89477,54.16586],[-119.89379,54.16554],[-119.89274,54.16526],[-119.89168,54.16504],[-119.89037,54.16487],[-119.88979,54.16482],[-119.88926,54.16482],[-119.88896,54.16481],[-119.88868,54.16476],[-119.88848,54.1647],[-119.88825,54.16455],[-119.88805,54.16432],[-119.88764,54.16378],[-119.88741,54.16359],[-119.8873,54.1635],[-119.88709,54.16343],[-119.88681,54.16332],[-119.88663,54.16316],[-119.88652,54.163],[-119.88646,54.16278],[-119.88635,54.16259],[-119.8862,54.1624],[-119.88605,54.16226],[-119.8857,54.16212],[-119.88532,54.16197],[-119.8848,54.16185],[-119.8845,54.16183],[-119.8842,54.16182],[-119.8838,54.16177],[-119.88181,54.16145],[-119.88121,54.16144],[-119.88071,54.16142],[-119.8804,54.16139],[-119.88005,54.16132],[-119.87955,54.16126],[-119.87901,54.16117],[-119.87871,54.16112],[-119.87826,54.16109],[-119.87741,54.16107],[-119.87634,54.1611],[-119.87601,54.16108],[-119.8757,54.16104],[-119.87506,54.16094],[-119.87469,54.16084],[-119.87441,54.16082],[-119.8742,54.16082],[-119.87392,54.1608],[-119.87368,54.16077],[-119.87342,54.16075],[-119.87279,54.16078],[-119.87213,54.16077],[-119.87153,54.16078],[-119.87144,54.1608],[-119.87135,54.16083],[-119.87128,54.16086],[-119.87124,54.16087],[-119.87119,54.16088],[-119.87114,54.16086],[-119.8711,54.16083],[-119.87103,54.16077],[-119.86917,54.15866],[-119.86916,54.15861],[-119.86916,54.15857],[-119.86921,54.15847],[-119.86927,54.15837],[-119.86929,54.15831],[-119.86928,54.15826],[-119.86924,54.15821],[-119.86885,54.15796],[-119.86874,54.15787],[-119.86863,54.15768],[-119.86848,54.15741],[-119.86825,54.1569],[-119.86766,54.15632],[-119.86725,54.15603],[-119.86698,54.15578],[-119.86664,54.15555],[-119.86633,54.15532],[-119.86599,54.15511],[-119.8658,54.15507],[-119.86556,54.15506],[-119.86527,54.1551],[-119.86505,54.15504],[-119.86488,54.15496],[-119.86414,54.15472],[-119.86316,54.15455],[-119.86266,54.15449],[-119.86228,54.15441],[-119.86186,54.15432],[-119.86177,54.15431],[-119.86167,54.1543],[-119.86155,54.15431],[-119.86088,54.15439],[-119.8605,54.15441],[-119.85994,54.15446],[-119.85933,54.15454],[-119.8587,54.15459],[-119.85835,54.15463],[-119.85795,54.15465],[-119.8576,54.15463],[-119.85742,54.15464],[-119.85727,54.15467],[-119.85692,54.15476],[-119.85649,54.15492],[-119.85545,54.15541],[-119.85485,54.15546],[-119.85414,54.15562],[-119.85333,54.15578],[-119.85289,54.15582],[-119.85256,54.15584],[-119.85243,54.15582],[-119.85234,54.15578],[-119.85226,54.15572],[-119.8522,54.15565],[-119.85195,54.15535],[-119.85138,54.1549],[-119.85118,54.1547],[-119.8511,54.15462],[-119.85101,54.15457],[-119.85093,54.15451],[-119.8506,54.1543],[-119.85035,54.15417],[-119.8501,54.15404],[-119.84992,54.15396],[-119.84934,54.15381],[-119.84849,54.15345],[-119.84846,54.15344],[-119.84789,54.15337],[-119.84751,54.15337],[-119.84702,54.15339],[-119.84687,54.15339],[-119.84669,54.15336],[-119.8465,54.15332],[-119.84614,54.15323],[-119.84575,54.15317],[-119.84474,54.15296],[-119.84335,54.15273],[-119.84297,54.15268],[-119.84243,54.15264],[-119.84195,54.15262],[-119.8416,54.15261],[-119.84125,54.15258],[-119.84057,54.15254],[-119.84016,54.15252],[-119.83985,54.1525],[-119.83969,54.15245],[-119.83962,54.15243],[-119.83958,54.15242],[-119.83954,54.15243],[-119.83947,54.15246],[-119.83941,54.15251],[-119.83913,54.15274],[-119.83887,54.15292],[-119.83828,54.15329],[-119.83778,54.15354],[-119.83677,54.15394],[-119.83625,54.15424],[-119.8361,54.15426],[-119.8359,54.15425],[-119.83576,54.15425],[-119.83496,54.15461],[-119.83393,54.15471],[-119.83341,54.15482],[-119.83253,54.15489],[-119.83137,54.15509],[-119.83099,54.15513],[-119.83062,54.15516],[-119.82981,54.15516],[-119.82958,54.15517],[-119.82938,54.15517],[-119.82927,54.15514],[-119.8291,54.15508],[-119.82889,54.15502],[-119.82868,54.15501],[-119.82846,54.15503],[-119.82806,54.15511],[-119.82773,54.15521],[-119.82724,54.15533],[-119.82659,54.15548],[-119.82588,54.15548],[-119.82535,54.15552],[-119.8252,54.15554],[-119.82508,54.15556],[-119.82474,54.15563],[-119.82461,54.15565],[-119.82445,54.15567],[-119.8239,54.15571],[-119.82389,54.15571],[-119.82309,54.15575],[-119.82287,54.15576],[-119.82262,54.15579],[-119.82236,54.15582],[-119.82219,54.15586],[-119.82154,54.15602],[-119.82129,54.1561],[-119.82107,54.15619],[-119.82055,54.15643],[-119.82015,54.15659],[-119.81953,54.15691],[-119.81917,54.15713],[-119.81879,54.15735],[-119.81855,54.15749],[-119.8183,54.15772],[-119.81808,54.15785],[-119.81787,54.15798],[-119.81754,54.15812],[-119.81716,54.15827],[-119.81681,54.15842],[-119.81661,54.15854],[-119.81641,54.15866],[-119.81601,54.1589],[-119.81572,54.15914],[-119.81561,54.15921],[-119.81554,54.15923],[-119.81546,54.15923],[-119.8154,54.15923],[-119.81534,54.15921],[-119.81508,54.15908],[-119.81407,54.15867],[-119.81348,54.15844],[-119.81281,54.15821],[-119.81272,54.15814],[-119.81262,54.15807],[-119.8125,54.15796],[-119.81238,54.15789],[-119.81231,54.15787],[-119.81219,54.15786],[-119.81196,54.15785],[-119.81126,54.15789],[-119.81008,54.158],[-119.80955,54.15798],[-119.80901,54.158],[-119.80861,54.15805],[-119.80819,54.15814],[-119.80725,54.15839],[-119.80566,54.15867],[-119.80525,54.1587],[-119.80482,54.15866],[-119.80433,54.15864],[-119.80365,54.15876],[-119.80343,54.15876],[-119.80334,54.15874],[-119.80325,54.15871],[-119.80263,54.15833],[-119.80216,54.1581],[-119.80174,54.15793],[-119.80112,54.15778],[-119.80087,54.15771],[-119.80056,54.15766],[-119.80004,54.15761],[-119.7997,54.15759],[-119.79942,54.15756],[-119.79926,54.15755],[-119.799,54.15743],[-119.79871,54.15735],[-119.79839,54.15731],[-119.79806,54.15727],[-119.79779,54.15721],[-119.79747,54.15717],[-119.79723,54.15718],[-119.79695,54.15721],[-119.79627,54.15721],[-119.7957,54.15722],[-119.79467,54.15712],[-119.79393,54.1571],[-119.79327,54.15713],[-119.79286,54.15714],[-119.79223,54.15722],[-119.7919,54.15724],[-119.79154,54.15724],[-119.79107,54.15722],[-119.79022,54.15722],[-119.78995,54.15725],[-119.78934,54.15734],[-119.78892,54.15737],[-119.78841,54.15741],[-119.78762,54.15756],[-119.78721,54.15764],[-119.78667,54.1578],[-119.78614,54.15786],[-119.78581,54.1579],[-119.78545,54.15798],[-119.78513,54.15802],[-119.78487,54.15804],[-119.78458,54.15806],[-119.78425,54.15809],[-119.78401,54.15814],[-119.78378,54.1582],[-119.7833,54.15843],[-119.78261,54.15871],[-119.7822,54.15882],[-119.78196,54.1589],[-119.78179,54.15899],[-119.78174,54.15908],[-119.78166,54.15935],[-119.7816,54.1595],[-119.7815,54.15969],[-119.78146,54.15972],[-119.78142,54.15975],[-119.7808,54.16023],[-119.77944,54.16105],[-119.77755,54.16232],[-119.77718,54.16261],[-119.77653,54.16312],[-119.77659,54.16218],[-119.77646,54.16047],[-119.77612,54.15997],[-119.77554,54.15937],[-119.77453,54.1586],[-119.77408,54.15841],[-119.77357,54.15825],[-119.77285,54.15809],[-119.77191,54.15796],[-119.77131,54.15779],[-119.77076,54.15755],[-119.76922,54.15688],[-119.76784,54.15641],[-119.76705,54.15614],[-119.76655,54.15585],[-119.76604,54.15548],[-119.76585,54.15542],[-119.76564,54.15539],[-119.76544,54.15537],[-119.76524,54.15538],[-119.76512,54.15545],[-119.76487,54.15566],[-119.76443,54.15593],[-119.76387,54.15625],[-119.76354,54.15645],[-119.76315,54.15666],[-119.76247,54.15695],[-119.76194,54.15712],[-119.76128,54.15723],[-119.7606,54.15736],[-119.76037,54.1574],[-119.76003,54.15739],[-119.75985,54.15735],[-119.75971,54.1573],[-119.75927,54.15689],[-119.75896,54.1567],[-119.75876,54.15653],[-119.7586,54.15628],[-119.75839,54.156],[-119.75808,54.15552],[-119.75793,54.15501],[-119.75781,54.1548],[-119.75766,54.15455],[-119.75745,54.1543],[-119.75727,54.15419],[-119.75671,54.15385],[-119.75642,54.1536],[-119.75601,54.15348],[-119.75566,54.15336],[-119.7553,54.15313],[-119.75507,54.15294],[-119.75484,54.15289],[-119.75433,54.15281],[-119.75383,54.15279],[-119.75295,54.15256],[-119.75257,54.15246],[-119.75179,54.15237],[-119.75145,54.15239],[-119.75111,54.15249],[-119.75097,54.15254],[-119.75065,54.15249],[-119.75036,54.15243],[-119.74999,54.15238],[-119.74975,54.15231],[-119.74869,54.15222],[-119.74802,54.15213],[-119.74729,54.15188],[-119.74629,54.15175],[-119.74552,54.15153],[-119.7451,54.15141],[-119.74387,54.15117],[-119.74292,54.15087],[-119.74234,54.15074],[-119.7418,54.15066],[-119.74135,54.15059],[-119.74078,54.1505],[-119.74013,54.15043],[-119.73946,54.15038],[-119.73877,54.15035],[-119.73833,54.15032],[-119.73817,54.15029],[-119.7381,54.15028],[-119.73806,54.15025],[-119.73805,54.15022],[-119.73804,54.15009],[-119.73802,54.14998],[-119.73794,54.14964],[-119.73789,54.14938],[-119.73785,54.14901],[-119.73781,54.14877],[-119.73779,54.14845],[-119.7378,54.14809],[-119.73783,54.14766],[-119.73776,54.14716],[-119.73772,54.14673],[-119.73768,54.14649],[-119.73758,54.14622],[-119.73724,54.1457],[-119.73714,54.14542],[-119.73696,54.14483],[-119.73692,54.14473],[-119.73684,54.14465],[-119.73661,54.14448],[-119.73619,54.14419],[-119.73575,54.14382],[-119.73499,54.14321],[-119.73414,54.14274],[-119.73321,54.1421],[-119.7326,54.14181],[-119.73233,54.14172],[-119.73203,54.14171],[-119.73147,54.14177],[-119.7311,54.14176],[-119.73085,54.1417],[-119.73041,54.14161],[-119.73011,54.1416],[-119.72894,54.14167],[-119.72708,54.14162],[-119.72633,54.1416],[-119.72587,54.14165],[-119.72535,54.14177],[-119.72501,54.14182],[-119.72292,54.1418],[-119.72163,54.14173],[-119.72105,54.14167],[-119.7207,54.14161],[-119.72032,54.14154],[-119.71997,54.14141],[-119.71906,54.14087],[-119.71847,54.14039],[-119.71803,54.14004],[-119.71754,54.13977],[-119.71713,54.13942],[-119.71678,54.13906],[-119.71644,54.13868],[-119.71593,54.13823],[-119.71521,54.1377],[-119.71492,54.1374],[-119.71462,54.1372],[-119.71429,54.13705],[-119.71363,54.13684],[-119.71298,54.13665],[-119.71255,54.13652],[-119.71216,54.13635],[-119.71161,54.13602],[-119.71088,54.13566],[-119.71031,54.13542],[-119.70986,54.13519],[-119.70955,54.13508],[-119.70929,54.13503],[-119.70864,54.13503],[-119.70777,54.13517],[-119.70681,54.13521],[-119.7059,54.13519],[-119.70512,54.13519],[-119.70499,54.13521],[-119.70489,54.13524],[-119.70471,54.13535],[-119.70449,54.13547],[-119.70423,54.13563],[-119.70397,54.13575],[-119.70371,54.13585],[-119.70327,54.13595],[-119.7023,54.1361],[-119.70186,54.13617],[-119.70151,54.13628],[-119.70059,54.13665],[-119.70019,54.13676],[-119.69982,54.13683],[-119.69943,54.13685],[-119.69908,54.13681],[-119.69882,54.13675],[-119.69864,54.13674],[-119.69839,54.13673],[-119.69787,54.13675],[-119.69758,54.13675],[-119.69726,54.1367],[-119.69677,54.13659],[-119.69649,54.13651],[-119.69578,54.13621],[-119.69501,54.13576],[-119.6944,54.13548],[-119.69407,54.1353],[-119.69335,54.13488],[-119.69302,54.13473],[-119.69276,54.13454],[-119.69264,54.1345],[-119.69247,54.13444],[-119.69169,54.13418],[-119.6911,54.1339],[-119.69042,54.13346],[-119.68988,54.13311],[-119.68966,54.13287],[-119.6894,54.13269],[-119.68903,54.13226],[-119.68882,54.13189],[-119.6884,54.13135],[-119.68831,54.1311],[-119.68818,54.13081],[-119.68792,54.13043],[-119.68775,54.12995],[-119.68774,54.12972],[-119.6877,54.12941],[-119.6876,54.12922],[-119.68739,54.12894],[-119.68719,54.12875],[-119.68684,54.12831],[-119.6864,54.1281],[-119.68594,54.12789],[-119.68553,54.12767],[-119.68509,54.12746],[-119.68467,54.1272],[-119.68384,54.12668],[-119.68313,54.12623],[-119.68275,54.12597],[-119.68233,54.12563],[-119.68164,54.12507],[-119.68154,54.125],[-119.68084,54.12445],[-119.68026,54.12406],[-119.67994,54.12372],[-119.67959,54.12358],[-119.67883,54.12341],[-119.67848,54.12325],[-119.67818,54.12305],[-119.67786,54.1228],[-119.67691,54.12242],[-119.67628,54.12213],[-119.67599,54.12201],[-119.67545,54.12169],[-119.67522,54.12156],[-119.67445,54.12122],[-119.67429,54.12112],[-119.67387,54.12093],[-119.67346,54.12064],[-119.67324,54.12038],[-119.67301,54.12014],[-119.67278,54.11993],[-119.67213,54.11952],[-119.67175,54.11931],[-119.67138,54.11909],[-119.67113,54.11888],[-119.67087,54.11867],[-119.67065,54.11841],[-119.6696,54.11743],[-119.66919,54.11692],[-119.66847,54.11614],[-119.66797,54.11575],[-119.66755,54.11552],[-119.66714,54.11518],[-119.6668,54.11494],[-119.66604,54.11426],[-119.66578,54.11404],[-119.66521,54.11379],[-119.66477,54.1136],[-119.66446,54.11347],[-119.66402,54.11325],[-119.66325,54.11286],[-119.66264,54.11245],[-119.66233,54.11231],[-119.66119,54.11191],[-119.6597,54.11127],[-119.65781,54.11072],[-119.65667,54.11051],[-119.65559,54.11038],[-119.65477,54.11029],[-119.65414,54.11017],[-119.65381,54.11013],[-119.65337,54.11022],[-119.65283,54.11035],[-119.65254,54.11039],[-119.6524,54.11007],[-119.65227,54.10965],[-119.6518,54.10904],[-119.65105,54.10842],[-119.65031,54.10808],[-119.64964,54.1077],[-119.6491,54.10723],[-119.64889,54.10592],[-119.64874,54.1053],[-119.64851,54.10473],[-119.64835,54.10456],[-119.64812,54.1044],[-119.64781,54.10426],[-119.64634,54.10383],[-119.6451,54.10354],[-119.64334,54.10313],[-119.64279,54.10311],[-119.64216,54.10312],[-119.64164,54.10313],[-119.64096,54.10303],[-119.64036,54.10287],[-119.63945,54.10259],[-119.63879,54.10237],[-119.63797,54.10201],[-119.63787,54.10189],[-119.63784,54.10182],[-119.63782,54.10178],[-119.63783,54.10173],[-119.63785,54.10168],[-119.63789,54.10164],[-119.63923,54.10104],[-119.64041,54.1003],[-119.64081,54.09994],[-119.64139,54.09817],[-119.64189,54.09752],[-119.64335,54.09623],[-119.64351,54.09605],[-119.64366,54.09591],[-119.6437,54.09577],[-119.64361,54.09567],[-119.64338,54.09561],[-119.6414,54.09546],[-119.64063,54.0954],[-119.63999,54.09529],[-119.63944,54.09508],[-119.63909,54.09484],[-119.63867,54.09453],[-119.63848,54.09434],[-119.63844,54.09418],[-119.63843,54.09386],[-119.63834,54.09336],[-119.63817,54.0931],[-119.63775,54.09275],[-119.6366,54.09232],[-119.63574,54.09195],[-119.63425,54.0912],[-119.634,54.09087],[-119.63389,54.0904],[-119.63385,54.09],[-119.63389,54.08961],[-119.63409,54.08914],[-119.6342,54.08891],[-119.63472,54.08844],[-119.63489,54.08822],[-119.63496,54.08803],[-119.63496,54.08777],[-119.63486,54.08759],[-119.63443,54.08725],[-119.63367,54.08663],[-119.63308,54.0862],[-119.63248,54.0857],[-119.63189,54.08519],[-119.63123,54.08489],[-119.63004,54.08446],[-119.62774,54.08373],[-119.62716,54.0835],[-119.62611,54.08304],[-119.62555,54.08271],[-119.62503,54.08229],[-119.62462,54.08174],[-119.62437,54.08148],[-119.62385,54.08077],[-119.62334,54.08027],[-119.62303,54.07996],[-119.62286,54.07978],[-119.62211,54.07932],[-119.6218,54.07916],[-119.62134,54.07903],[-119.62089,54.079],[-119.62033,54.07894],[-119.61988,54.07877],[-119.61957,54.07856],[-119.6194,54.07834],[-119.61934,54.07816],[-119.61974,54.07735],[-119.62009,54.07678],[-119.62019,54.07652],[-119.62012,54.07619],[-119.62004,54.07592],[-119.62001,54.07494],[-119.61974,54.07412],[-119.61966,54.074],[-119.61933,54.07368],[-119.6192,54.07344],[-119.61917,54.07319],[-119.61921,54.07291],[-119.61931,54.0724],[-119.61934,54.07213],[-119.61915,54.07135],[-119.6191,54.07117],[-119.61909,54.07088],[-119.61916,54.07071],[-119.61926,54.07048],[-119.61925,54.07035],[-119.61914,54.07025],[-119.61899,54.07017],[-119.61882,54.07009],[-119.61862,54.07004],[-119.61453,54.07013],[-119.61117,54.07052],[-119.60919,54.07122],[-119.60842,54.07132],[-119.60767,54.07137],[-119.60709,54.07134],[-119.60674,54.07124],[-119.60658,54.07111],[-119.60646,54.07098],[-119.60647,54.07087],[-119.60655,54.07074],[-119.60674,54.07063],[-119.60761,54.07022],[-119.60815,54.06988],[-119.61901,54.063],[-119.61946,54.06236],[-119.61945,54.06168],[-119.61925,54.06119],[-119.61884,54.06069],[-119.61762,54.06012],[-119.61728,54.0599],[-119.61682,54.05969],[-119.61627,54.05948],[-119.61452,54.05876],[-119.61438,54.05869],[-119.6143,54.05864],[-119.61425,54.05859],[-119.61427,54.05853],[-119.61435,54.05847],[-119.61443,54.05842],[-119.61457,54.05837],[-119.61641,54.05799],[-119.61667,54.05797],[-119.61706,54.05797],[-119.61754,54.05798],[-119.6178,54.05797],[-119.61801,54.05794],[-119.6182,54.05788],[-119.61842,54.05774],[-119.619,54.05749],[-119.61964,54.0573],[-119.62114,54.05674],[-119.62299,54.05648],[-119.62544,54.05634],[-119.62653,54.05615],[-119.6276,54.05597],[-119.6291,54.05567],[-119.63063,54.05498],[-119.63185,54.05426],[-119.63207,54.05401],[-119.63224,54.05375],[-119.6325,54.05348],[-119.63281,54.05321],[-119.63291,54.0531],[-119.63296,54.05298],[-119.63291,54.05284],[-119.63283,54.05274],[-119.63256,54.05226],[-119.63207,54.05156],[-119.63177,54.05117],[-119.63022,54.04937],[-119.62819,54.04807],[-119.62639,54.04638],[-119.62515,54.04582],[-119.62377,54.04499],[-119.62248,54.04405],[-119.62198,54.04371],[-119.6216,54.04351],[-119.61943,54.04293],[-119.61711,54.04273],[-119.61626,54.04255],[-119.61486,54.04237],[-119.61438,54.04219],[-119.61415,54.04198],[-119.61408,54.04173],[-119.61402,54.04146],[-119.61394,54.04127],[-119.61381,54.04091],[-119.61331,54.04018],[-119.61264,54.03937],[-119.612,54.03861],[-119.61119,54.03781],[-119.61139,54.03731],[-119.61179,54.03703],[-119.61374,54.03634],[-119.61446,54.03597],[-119.61477,54.03573],[-119.61498,54.03545],[-119.61499,54.03523],[-119.61496,54.03504],[-119.61405,54.03421],[-119.61399,54.03403],[-119.61398,54.03384],[-119.61537,54.03081],[-119.61538,54.03043],[-119.61529,54.03016],[-119.61517,54.03],[-119.61492,54.02983],[-119.61308,54.02876],[-119.61235,54.02841],[-119.61126,54.02823],[-119.61028,54.02813],[-119.60965,54.02804],[-119.60918,54.02794],[-119.60859,54.0278],[-119.60834,54.02774],[-119.6081,54.02773],[-119.6078,54.02774],[-119.60746,54.02778],[-119.60656,54.02793],[-119.60578,54.02815],[-119.60169,54.0294],[-119.60079,54.02965],[-119.60024,54.02975],[-119.59988,54.02986],[-119.59947,54.03004],[-119.59919,54.03015],[-119.59896,54.03029],[-119.59865,54.0305],[-119.59798,54.0312],[-119.59719,54.03163],[-119.5957,54.03185],[-119.59411,54.0319],[-119.59326,54.03182],[-119.59301,54.03176],[-119.59284,54.03167],[-119.59213,54.03123],[-119.59154,54.03093],[-119.59131,54.03082],[-119.59106,54.03076],[-119.58849,54.03038],[-119.58781,54.03025],[-119.58721,54.03011],[-119.58663,54.02991],[-119.58534,54.02936],[-119.58261,54.02787],[-119.58217,54.02767],[-119.58158,54.02752],[-119.5805,54.02717],[-119.58011,54.02693],[-119.57979,54.0267],[-119.57693,54.02446],[-119.57394,54.02269],[-119.57319,54.02179],[-119.57246,54.02144],[-119.57213,54.02132],[-119.57102,54.02104],[-119.57047,54.02086],[-119.56939,54.02055],[-119.56903,54.02037],[-119.5687,54.02017],[-119.56801,54.01983],[-119.56738,54.0196],[-119.56672,54.01943],[-119.56556,54.0193],[-119.56414,54.01908],[-119.56315,54.01883],[-119.56275,54.01873],[-119.56241,54.01868],[-119.5619,54.01867],[-119.56112,54.01866],[-119.56052,54.01868],[-119.5599,54.01863],[-119.55957,54.01855],[-119.55933,54.01847],[-119.56031,54.01687],[-119.56113,54.01626],[-119.56194,54.0154],[-119.56221,54.01474],[-119.56265,54.01377],[-119.56287,54.01311],[-119.56342,54.01245],[-119.56419,54.01184],[-119.56514,54.01139],[-119.56602,54.01099],[-119.5671,54.01066],[-119.56768,54.01046],[-119.56826,54.01021],[-119.56857,54.00999],[-119.5688,54.00978],[-119.56887,54.00954],[-119.56884,54.0093],[-119.5687,54.00905],[-119.56853,54.00887],[-119.56824,54.0087],[-119.56793,54.00857],[-119.56764,54.00839],[-119.56733,54.00817],[-119.567,54.00796],[-119.56676,54.00779],[-119.56659,54.00766],[-119.56639,54.00744],[-119.56625,54.0072],[-119.56606,54.00694],[-119.56582,54.00668],[-119.56572,54.00656],[-119.56551,54.00642],[-119.56531,54.00629],[-119.56499,54.00617],[-119.56468,54.00605],[-119.56436,54.0059],[-119.56397,54.00568],[-119.5637,54.00542],[-119.56343,54.00514],[-119.56326,54.00488],[-119.56315,54.0046],[-119.56307,54.0043],[-119.56302,54.00394],[-119.56304,54.00371],[-119.56302,54.00342],[-119.56309,54.0032],[-119.5632,54.00295],[-119.56337,54.00269],[-119.56359,54.00243],[-119.56384,54.00217],[-119.56405,54.00197],[-119.56433,54.00168],[-119.56458,54.00141],[-119.56472,54.00118],[-119.56474,54.00102],[-119.56473,54.00076],[-119.56469,54.00062],[-119.56461,54.00047],[-119.56453,54.00036],[-119.56435,54.00016],[-119.56423,54.00001],[-119.56345,53.99949],[-119.56326,53.99927],[-119.56319,53.99913],[-119.56315,53.99896],[-119.56316,53.99883],[-119.56323,53.99865],[-119.56336,53.99848],[-119.56343,53.99842],[-119.56347,53.99839],[-119.56355,53.99832],[-119.56393,53.99809],[-119.56432,53.99792],[-119.56547,53.99756],[-119.56735,53.99699],[-119.56872,53.99653],[-119.56973,53.99638],[-119.57071,53.99626],[-119.57136,53.99608],[-119.57204,53.99587],[-119.57229,53.99568],[-119.57237,53.99551],[-119.57242,53.99511],[-119.57249,53.99457],[-119.57281,53.99419],[-119.57384,53.99383],[-119.57414,53.99368],[-119.57418,53.99339],[-119.57413,53.993],[-119.5739,53.9925],[-119.57391,53.99213],[-119.57407,53.99162],[-119.57424,53.99084],[-119.57455,53.9906],[-119.57487,53.99041],[-119.57539,53.99028],[-119.57591,53.98999],[-119.57634,53.98968],[-119.57736,53.98944],[-119.57944,53.9892],[-119.57968,53.98912],[-119.58005,53.9889],[-119.58038,53.98863],[-119.58048,53.98847],[-119.58061,53.98779],[-119.58059,53.98716],[-119.58085,53.98627],[-119.58092,53.9859],[-119.58123,53.98568],[-119.58163,53.98542],[-119.58225,53.98514],[-119.5825,53.98506],[-119.58286,53.98494],[-119.5834,53.98454],[-119.5836,53.98445],[-119.5838,53.98439],[-119.58426,53.98431],[-119.58499,53.98441],[-119.5855,53.98449],[-119.58597,53.98457],[-119.58651,53.98456],[-119.58729,53.9845],[-119.58797,53.98441],[-119.5886,53.98425],[-119.58916,53.98415],[-119.58987,53.98407],[-119.59057,53.98403],[-119.59125,53.98383],[-119.59174,53.98366],[-119.59196,53.98357],[-119.59255,53.98337],[-119.59304,53.9832],[-119.59345,53.98301],[-119.59404,53.98272],[-119.59461,53.98226],[-119.59479,53.98208],[-119.595,53.98194],[-119.59535,53.98162],[-119.59575,53.9813],[-119.59632,53.9808],[-119.59702,53.98035],[-119.59738,53.97998],[-119.59765,53.97953],[-119.59797,53.97898],[-119.59799,53.97884],[-119.598,53.97875],[-119.59798,53.97866],[-119.59781,53.97834],[-119.59763,53.97812],[-119.5972,53.97747],[-119.59684,53.97604],[-119.59659,53.9747],[-119.5966,53.97398],[-119.59671,53.97365],[-119.5971,53.97326],[-119.59787,53.97237],[-119.59858,53.97164],[-119.5989,53.97129],[-119.59914,53.97094],[-119.59923,53.97088],[-119.59927,53.97085],[-119.59931,53.9708],[-119.59934,53.97074],[-119.5997,53.97021],[-119.59992,53.96935],[-119.60007,53.96895],[-119.60022,53.96858],[-119.60034,53.96811],[-119.60047,53.96767],[-119.60068,53.96732],[-119.6011,53.96693],[-119.60129,53.96665],[-119.60149,53.96635],[-119.60167,53.96619],[-119.60189,53.96588],[-119.602,53.96564],[-119.60216,53.965],[-119.60252,53.96372],[-119.60272,53.96329],[-119.60289,53.96275],[-119.60307,53.96244],[-119.60332,53.9621],[-119.60374,53.96184],[-119.6044,53.96151],[-119.60482,53.96122],[-119.6052,53.96075],[-119.60565,53.96038],[-119.60599,53.96015],[-119.60612,53.96005],[-119.6066,53.95968],[-119.60674,53.95963],[-119.60685,53.95959],[-119.60698,53.95955],[-119.60706,53.95953],[-119.60713,53.95949],[-119.60743,53.95921],[-119.60784,53.95874],[-119.60855,53.95784],[-119.60857,53.95757],[-119.60866,53.95732],[-119.60894,53.95702],[-119.6091,53.95686],[-119.60939,53.95666],[-119.60983,53.95648],[-119.61003,53.95636],[-119.61037,53.95615],[-119.61043,53.95606],[-119.61046,53.95594],[-119.6105,53.95581],[-119.61048,53.9556],[-119.61056,53.95539],[-119.61066,53.95515],[-119.61078,53.95477],[-119.61091,53.95451],[-119.61099,53.95427],[-119.61103,53.95406],[-119.61119,53.95358],[-119.6113,53.95325],[-119.61141,53.95309],[-119.61154,53.95292],[-119.61196,53.95264],[-119.61199,53.95259],[-119.61199,53.95259],[-119.60942,53.95048],[-119.60763,53.94855],[-119.60559,53.94696],[-119.6019,53.94589],[-119.59721,53.94648],[-119.59286,53.94805],[-119.59007,53.94795],[-119.58539,53.94871],[-119.58295,53.94974],[-119.58098,53.94929],[-119.5789,53.94721],[-119.57525,53.94663],[-119.57293,53.94504],[-119.56895,53.94365],[-119.56336,53.94311],[-119.56058,53.94317],[-119.55504,53.94345],[-119.55036,53.94437],[-119.54653,53.94527],[-119.5475,53.94755],[-119.54552,53.95153],[-119.54372,53.95403],[-119.53858,53.95643],[-119.53561,53.95781],[-119.53291,53.95918],[-119.52785,53.9583],[-119.52399,53.95887],[-119.51992,53.9606],[-119.51679,53.95952],[-119.51201,53.95863],[-119.51137,53.95717],[-119.50845,53.95493],[-119.50504,53.95369],[-119.50467,53.95222],[-119.50373,53.95044],[-119.49979,53.9497],[-119.49836,53.94891],[-119.49746,53.94794],[-119.49165,53.94839],[-119.48999,53.94859],[-119.48722,53.94917],[-119.48722,53.94869],[-119.48722,53.94842],[-119.48722,53.9412],[-119.48721,53.93397],[-119.48721,53.92674],[-119.48721,53.9196],[-119.48721,53.91933],[-119.48721,53.91211],[-119.48721,53.90488],[-119.48721,53.89765],[-119.48721,53.89052],[-119.48721,53.89024],[-119.48721,53.88302],[-119.48721,53.87579],[-119.4872,53.86856],[-119.4872,53.86143],[-119.4872,53.86116],[-119.4872,53.85393],[-119.4872,53.8467],[-119.48674,53.8467],[-119.47466,53.84671],[-119.46242,53.84671],[-119.46197,53.84671],[-119.44988,53.84672],[-119.43904,53.84672],[-119.43897,53.84635],[-119.43802,53.84451],[-119.43683,53.84205],[-119.43588,53.84008],[-119.43658,53.83771],[-119.43676,53.83769],[-119.43659,53.8373],[-119.4366,53.8363],[-119.43633,53.8351],[-119.4341,53.83403],[-119.43373,53.83348],[-119.4321,53.83211],[-119.43043,53.83142],[-119.42948,53.83024],[-119.42303,53.83016],[-119.42089,53.82855],[-119.41876,53.82717],[-119.41566,53.82492],[-119.41212,53.82488],[-119.41006,53.82459],[-119.40813,53.82342],[-119.40743,53.82079],[-119.40545,53.81874],[-119.40301,53.81835],[-119.40071,53.81719],[-119.39823,53.81603],[-119.39519,53.81488],[-119.39092,53.81496],[-119.38805,53.81348],[-119.3854,53.81265],[-119.38357,53.81313],[-119.38059,53.81319],[-119.3754,53.8134],[-119.3735,53.81256],[-119.37245,53.81117],[-119.37337,53.80899],[-119.3736,53.80682],[-119.37348,53.80476],[-119.37249,53.80272],[-119.3727,53.80014],[-119.37254,53.79746],[-119.37084,53.79502],[-119.36983,53.79247],[-119.36484,53.7904],[-119.3602,53.78843],[-119.35665,53.78716],[-119.35518,53.78575],[-119.35472,53.7838],[-119.35011,53.78214],[-119.34981,53.77988],[-119.34837,53.77908],[-119.34529,53.77688],[-119.34134,53.77469],[-119.33678,53.77406],[-119.33417,53.774],[-119.33024,53.77212],[-119.3291,53.77039],[-119.3283,53.76855],[-119.32353,53.7672],[-119.31829,53.76669],[-119.31491,53.76541],[-119.31136,53.76414],[-119.31085,53.76106],[-119.31041,53.75952],[-119.30996,53.75757],[-119.30745,53.75628],[-119.30502,53.75633],[-119.30225,53.75659],[-119.2983,53.75749],[-119.2957,53.75754],[-119.2926,53.75811],[-119.2881,53.75841],[-119.28514,53.75846],[-119.28112,53.75802],[-119.27755,53.75634],[-119.27692,53.75429],[-119.27512,53.75309],[-119.27071,53.75194],[-119.26821,53.75075],[-119.26539,53.75008],[-119.25912,53.74989],[-119.25816,53.74815],[-119.25603,53.74727],[-119.25491,53.74585],[-119.25395,53.74411],[-119.25073,53.74242],[-119.25062,53.74036],[-119.25177,53.7391],[-119.25028,53.73738],[-119.24881,53.73576],[-119.24701,53.73466],[-119.24193,53.73383],[-119.23848,53.73441],[-119.23651,53.73321],[-119.23516,53.73076],[-119.23316,53.72905],[-119.22874,53.72758],[-119.22894,53.7248],[-119.22779,53.72276],[-119.2276,53.72116],[-119.2216,53.72048],[-119.19495,53.71922],[-119.16534,53.71801],[-119.1645,53.73029],[-119.15761,53.74005],[-119.15949,53.7479],[-119.16294,53.75748],[-119.16666,53.77231],[-119.1479,53.78141],[-119.12165,53.78888],[-119.11792,53.80297],[-119.14247,53.82005],[-119.16377,53.83106],[-119.17714,53.84241],[-119.16625,53.84671],[-119.16513,53.84671],[-119.16468,53.84671],[-119.15259,53.84672],[-119.14036,53.84672],[-119.1399,53.84672],[-119.12782,53.84672],[-119.11558,53.84672],[-119.11512,53.84672],[-119.10304,53.84672],[-119.09079,53.84672],[-119.09034,53.84672],[-119.07825,53.84672],[-119.06601,53.84672],[-119.06555,53.84672],[-119.05345,53.84673],[-119.0412,53.84674],[-119.04074,53.84674],[-119.02863,53.84674],[-119.01637,53.84675],[-119.01591,53.84675],[-119.0038,53.84675],[-118.99154,53.84676],[-118.99154,53.83953],[-118.99154,53.83239],[-118.99154,53.83212],[-118.99154,53.82489],[-118.99154,53.81766],[-118.99154,53.81043],[-118.99153,53.8033],[-118.99153,53.80303],[-118.99108,53.80303],[-118.97897,53.80303],[-118.9667,53.80303],[-118.96625,53.80303],[-118.95414,53.80303],[-118.94187,53.80303],[-118.94142,53.80303],[-118.92931,53.80302],[-118.91704,53.80302],[-118.91659,53.80302],[-118.90448,53.80301],[-118.89222,53.803],[-118.89221,53.79577],[-118.89221,53.78999],[-118.89299,53.78971],[-118.89648,53.7847],[-118.89611,53.77644],[-118.89596,53.77314],[-118.90036,53.76756],[-118.9035,53.75485],[-118.88466,53.74909],[-118.88986,53.74075],[-118.89982,53.73508],[-118.9089,53.73053],[-118.9143,53.72659],[-118.92347,53.72424],[-118.9335,53.72022],[-118.95755,53.71818],[-118.97131,53.71465],[-118.97281,53.70692],[-118.96217,53.69773],[-118.95347,53.69016],[-118.94484,53.68424],[-118.94807,53.67373],[-118.95335,53.66759],[-118.96691,53.6602],[-118.95078,53.65221],[-118.96072,53.64654],[-118.96134,53.63992],[-118.95002,53.6357],[-118.92555,53.62728],[-118.91526,53.62525],[-118.90208,53.6205],[-118.89363,53.61788],[-118.88695,53.61358],[-118.88191,53.6043],[-118.87764,53.60273],[-118.87737,53.59952],[-118.87654,53.59688],[-118.87369,53.5945],[-118.8703,53.59274],[-118.86497,53.59046],[-118.85962,53.58787],[-118.8572,53.58455],[-118.85558,53.58263],[-118.85144,53.58205],[-118.84626,53.58133],[-118.84383,53.57824],[-118.83961,53.5768],[-118.83604,53.57696],[-118.83208,53.57775],[-118.82769,53.57827],[-118.8207,53.57814],[-118.81734,53.57791],[-118.81389,53.57709],[-118.80966,53.57435],[-118.80461,53.57276],[-118.80064,53.57106],[-118.79547,53.56832],[-118.7901,53.56657],[-118.7845,53.56561],[-118.77965,53.56437],[-118.77531,53.56224],[-118.77027,53.56036],[-118.76803,53.55846],[-118.7646,53.55784],[-118.75985,53.55636],[-118.75823,53.5539],[-118.75762,53.55131],[-118.75593,53.54805],[-118.75787,53.54592],[-118.76019,53.54427],[-118.72828,53.52813],[-118.68725,53.51069],[-118.66242,53.52005],[-118.6558,53.54417],[-118.64888,53.56079],[-118.61364,53.56277],[-118.57016,53.54683],[-118.52956,53.53985],[-118.51203,53.54308],[-118.50725,53.55065],[-118.51299,53.5701],[-118.48761,53.56591],[-118.46219,53.56022],[-118.42169,53.5562],[-118.40385,53.5504],[-118.37427,53.55178],[-118.37149,53.5497],[-118.36342,53.546],[-118.35963,53.54383],[-118.35471,53.53915],[-118.34291,53.53486],[-118.33806,53.53239],[-118.33212,53.52867],[-118.32938,53.52586],[-118.3261,53.52273],[-118.327,53.51767],[-118.32477,53.51391],[-118.31833,53.51145],[-118.31029,53.50838],[-118.30329,53.50467],[-118.29514,53.50265],[-118.29475,53.50255],[-118.28511,53.49918],[-118.28133,53.49669],[-118.27502,53.49834],[-118.26866,53.49809],[-118.2617,53.49564],[-118.25421,53.49288],[-118.24775,53.48947],[-118.24554,53.48845],[-118.24238,53.487],[-118.23172,53.48458],[-118.22845,53.48114],[-118.21882,53.47777],[-118.2155,53.4738],[-118.21279,53.47057],[-118.21,53.46554],[-118.19983,53.46122],[-118.18965,53.4569],[-118.19321,53.45182],[-118.18836,53.44871],[-118.18242,53.44434],[-118.17753,53.43965],[-118.17741,53.43523],[-118.18523,53.43105],[-118.19095,53.42752],[-118.1972,53.4243],[-118.205,53.4198],[-118.2107,53.41564],[-118.21429,53.41181],[-118.22369,53.40761],[-118.23249,53.40152],[-118.23133,53.39774],[-118.22939,53.39384],[-118.22937,53.39381],[-118.22936,53.39378],[-118.22929,53.39352],[-118.22924,53.39322],[-118.22927,53.39289],[-118.22915,53.39258],[-118.22878,53.39221],[-118.2279,53.3914],[-118.22756,53.39102],[-118.22741,53.39075],[-118.22732,53.39051],[-118.22716,53.39029],[-118.22699,53.39012],[-118.22613,53.3895],[-118.22495,53.38875],[-118.2247,53.38863],[-118.22369,53.38828],[-118.22323,53.38812],[-118.22253,53.38786],[-118.22207,53.38762],[-118.22103,53.38721],[-118.22045,53.38705],[-118.22002,53.38699],[-118.21935,53.38695],[-118.21895,53.38696],[-118.21861,53.38696],[-118.21822,53.38693],[-118.218,53.38689],[-118.21781,53.38684],[-118.21753,53.38673],[-118.21727,53.38654],[-118.21647,53.38605],[-118.21615,53.38581],[-118.21604,53.38568],[-118.21586,53.38549],[-118.21575,53.38534],[-118.21569,53.38505],[-118.21564,53.38484],[-118.21552,53.38464],[-118.21538,53.38448],[-118.21498,53.38414],[-118.2147,53.38395],[-118.21426,53.38359],[-118.21318,53.38302],[-118.21293,53.38286],[-118.21272,53.38264],[-118.21259,53.38242],[-118.2125,53.38217],[-118.21237,53.38192],[-118.21194,53.3814],[-118.21172,53.38125],[-118.21113,53.38078],[-118.21082,53.38041],[-118.21039,53.37962],[-118.21003,53.37929],[-118.20975,53.37909],[-118.20957,53.37897],[-118.21043,53.37856],[-118.21114,53.37823],[-118.21362,53.37706],[-118.21467,53.37631],[-118.21502,53.37606],[-118.21557,53.37576],[-118.21612,53.37516],[-118.21627,53.37503],[-118.21649,53.37485],[-118.21679,53.37434],[-118.21706,53.37404],[-118.21753,53.37375],[-118.2183,53.37326],[-118.21915,53.373],[-118.21958,53.37285],[-118.22007,53.37268],[-118.2208,53.37227],[-118.22158,53.3715],[-118.22209,53.37086],[-118.22304,53.36924],[-118.2232,53.36897],[-118.22378,53.36813],[-118.22299,53.3676],[-118.2228,53.36747],[-118.22162,53.36661],[-118.22121,53.36619],[-118.221,53.36597],[-118.21955,53.36477],[-118.21815,53.36378],[-118.21655,53.36268],[-118.21585,53.36216],[-118.21549,53.36188],[-118.21539,53.36171],[-118.21541,53.36157],[-118.21615,53.36091],[-118.21687,53.3603],[-118.21749,53.35987],[-118.21817,53.35954],[-118.21905,53.35918],[-118.21963,53.35867],[-118.21963,53.3586],[-118.2196,53.35823],[-118.21921,53.3577],[-118.21863,53.35742],[-118.218,53.35694],[-118.21764,53.35642],[-118.21721,53.35582],[-118.2167,53.35534],[-118.21653,53.35455],[-118.21815,53.35546],[-118.21886,53.35581],[-118.21985,53.35616],[-118.22023,53.35644],[-118.22068,53.35665],[-118.2216,53.35665],[-118.22336,53.35647],[-118.22501,53.35646],[-118.22586,53.35662],[-118.22627,53.35671],[-118.22669,53.3568],[-118.22757,53.35696],[-118.22806,53.357],[-118.22856,53.35692],[-118.22897,53.35677],[-118.22904,53.35674],[-118.22948,53.35656],[-118.22981,53.35638],[-118.23006,53.35624],[-118.23018,53.3562],[-118.23038,53.3562],[-118.23065,53.35623],[-118.23095,53.35624],[-118.23114,53.35626],[-118.23134,53.35623],[-118.23167,53.35611],[-118.23217,53.35588],[-118.23308,53.35565],[-118.23382,53.35536],[-118.23591,53.35444],[-118.23923,53.35343],[-118.24144,53.35276],[-118.24138,53.35271],[-118.24111,53.35237],[-118.24096,53.35204],[-118.24084,53.35179],[-118.24067,53.35108],[-118.24054,53.35016],[-118.24031,53.34891],[-118.24018,53.34855],[-118.23987,53.34817],[-118.23925,53.34777],[-118.23834,53.34733],[-118.23747,53.34698],[-118.23693,53.3467],[-118.23632,53.34635],[-118.23582,53.3459],[-118.23533,53.34525],[-118.23489,53.3445],[-118.23471,53.34354],[-118.23477,53.34191],[-118.23497,53.34137],[-118.23512,53.34099],[-118.23514,53.3405],[-118.23498,53.34009],[-118.23474,53.33977],[-118.23443,53.33953],[-118.2341,53.33935],[-118.23367,53.33912],[-118.23261,53.33866],[-118.23176,53.33824],[-118.23083,53.33791],[-118.23002,53.33771],[-118.229,53.33731],[-118.22845,53.33697],[-118.22785,53.33646],[-118.2275,53.33595],[-118.22728,53.33551],[-118.22717,53.33498],[-118.22696,53.33461],[-118.22653,53.33421],[-118.22632,53.33399],[-118.22602,53.33374],[-118.22505,53.33316],[-118.22448,53.33275],[-118.2232,53.33208],[-118.22202,53.33158],[-118.22078,53.33123],[-118.22059,53.33111],[-118.2205,53.33092],[-118.22024,53.33059],[-118.21978,53.33016],[-118.21978,53.33016],[-118.21936,53.32988],[-118.21881,53.3296],[-118.21838,53.3293],[-118.21739,53.3286],[-118.21711,53.32848],[-118.21666,53.32834],[-118.21576,53.328],[-118.21554,53.32785],[-118.21541,53.32774],[-118.21526,53.32751],[-118.21505,53.32727],[-118.21467,53.32696],[-118.21436,53.32682],[-118.21415,53.32675],[-118.21371,53.32667],[-118.21344,53.32656],[-118.21313,53.32637],[-118.21286,53.32617],[-118.21253,53.32593],[-118.21201,53.32569],[-118.21029,53.3251],[-118.20952,53.32497],[-118.20881,53.32479],[-118.20836,53.32455],[-118.20771,53.32441],[-118.20695,53.32433],[-118.20652,53.3243],[-118.20592,53.3244],[-118.20531,53.3245],[-118.20456,53.32466],[-118.20353,53.32498],[-118.20294,53.32519],[-118.20145,53.32594],[-118.20109,53.32633],[-118.20097,53.32675],[-118.20082,53.32688],[-118.20028,53.32736],[-118.19971,53.32767],[-118.19875,53.32805],[-118.19781,53.32841],[-118.19694,53.32882],[-118.19593,53.32959],[-118.19578,53.32979],[-118.19565,53.33018],[-118.19572,53.33114],[-118.19572,53.33118],[-118.19559,53.33165],[-118.19542,53.33217],[-118.19517,53.33251],[-118.19479,53.33287],[-118.19445,53.3331],[-118.19441,53.33313],[-118.1934,53.33376],[-118.19292,53.33406],[-118.19235,53.33432],[-118.19151,53.33449],[-118.19027,53.33461],[-118.19011,53.33463],[-118.18941,53.33474],[-118.18888,53.33478],[-118.18786,53.33472],[-118.18723,53.3347],[-118.18646,53.33476],[-118.18561,53.33488],[-118.18438,53.3351],[-118.18209,53.33563],[-118.18125,53.33587],[-118.18056,53.33616],[-118.17948,53.33672],[-118.17906,53.33683],[-118.17855,53.33684],[-118.17779,53.33672],[-118.17604,53.33657],[-118.17524,53.33654],[-118.17448,53.33661],[-118.17394,53.33656],[-118.17323,53.33641],[-118.17221,53.33624],[-118.17116,53.33611],[-118.17042,53.33605],[-118.16613,53.33561],[-118.16584,53.3355],[-118.16561,53.33545],[-118.16529,53.33543],[-118.16497,53.3355],[-118.1646,53.33563],[-118.16427,53.33578],[-118.16402,53.33595],[-118.16343,53.33672],[-118.16311,53.33702],[-118.16299,53.33723],[-118.16297,53.33738],[-118.16308,53.33796],[-118.16305,53.33874],[-118.16292,53.33924],[-118.16273,53.33971],[-118.16245,53.34017],[-118.16208,53.34064],[-118.16157,53.34111],[-118.16065,53.3417],[-118.16001,53.34206],[-118.15964,53.34241],[-118.15915,53.34277],[-118.15855,53.34317],[-118.15777,53.34351],[-118.15773,53.34353],[-118.15731,53.34367],[-118.15707,53.34375],[-118.15706,53.34375],[-118.15683,53.34388],[-118.1566,53.34406],[-118.15621,53.34426],[-118.15596,53.34442],[-118.15529,53.34478],[-118.15504,53.34486],[-118.15463,53.34494],[-118.15413,53.3449],[-118.15367,53.34481],[-118.15324,53.34478],[-118.15294,53.34483],[-118.15244,53.34495],[-118.15173,53.34521],[-118.151,53.34561],[-118.15081,53.34569],[-118.15059,53.34573],[-118.15009,53.34574],[-118.1497,53.34573],[-118.14901,53.34563],[-118.14861,53.34555],[-118.1483,53.34548],[-118.14803,53.34546],[-118.14787,53.34548],[-118.1471,53.34569],[-118.14685,53.34579],[-118.14651,53.34601],[-118.14651,53.34601],[-118.1459,53.34636],[-118.14554,53.34657],[-118.1427,53.34815],[-118.14117,53.34897],[-118.13967,53.34966],[-118.13874,53.34997],[-118.13786,53.35012],[-118.13679,53.35021],[-118.13552,53.35032],[-118.1348,53.35048],[-118.13417,53.35076],[-118.13359,53.35108],[-118.1333,53.35124],[-118.13246,53.35165],[-118.13166,53.35172],[-118.13094,53.35177],[-118.12986,53.3518],[-118.12875,53.35194],[-118.12778,53.35226],[-118.1271,53.35255],[-118.12636,53.35304],[-118.12568,53.3539],[-118.1249,53.35447],[-118.12463,53.35467],[-118.12419,53.35483],[-118.12344,53.35495],[-118.12311,53.355],[-118.1219,53.35517],[-118.12096,53.35542],[-118.11954,53.35594],[-118.11738,53.35681],[-118.11652,53.35726],[-118.11557,53.35775],[-118.11487,53.35803],[-118.1147,53.3581],[-118.11341,53.35867],[-118.11275,53.35916],[-118.11222,53.35958],[-118.11156,53.36],[-118.11067,53.36052],[-118.10297,53.36325],[-118.10289,53.3635],[-118.10282,53.36367],[-118.10275,53.36381],[-118.1026,53.364],[-118.10226,53.36438],[-118.10183,53.36471],[-118.10149,53.36508],[-118.1013,53.36541],[-118.10128,53.36545],[-118.10106,53.36589],[-118.10083,53.36624],[-118.10066,53.36643],[-118.10029,53.3667],[-118.09986,53.3669],[-118.09977,53.36695],[-118.09928,53.3672],[-118.09888,53.36746],[-118.09697,53.36863],[-118.09643,53.36884],[-118.09599,53.36893],[-118.09559,53.36894],[-118.09511,53.36891],[-118.09442,53.36878],[-118.09303,53.36858],[-118.09183,53.36843],[-118.09049,53.36826],[-118.08925,53.3683],[-118.08833,53.36834],[-118.08757,53.36843],[-118.08636,53.36871],[-118.08472,53.36884],[-118.08403,53.36905],[-118.0836,53.36945],[-118.0834,53.36996],[-118.08334,53.37082],[-118.08319,53.37194],[-118.08319,53.3726],[-118.08304,53.37302],[-118.08289,53.37322],[-118.08259,53.37284],[-118.08232,53.37255],[-118.08235,53.3721],[-118.08249,53.37126],[-118.08246,53.3704],[-118.08213,53.36986],[-118.08193,53.3694],[-118.08202,53.36895],[-118.08187,53.36854],[-118.08151,53.36808],[-118.08081,53.36745],[-118.08026,53.36683],[-118.07983,53.36635],[-118.07925,53.36605],[-118.07868,53.36584],[-118.078,53.36542],[-118.07725,53.36476],[-118.07705,53.36452],[-118.0768,53.36373],[-118.07645,53.36317],[-118.07577,53.362],[-118.07551,53.3614],[-118.07544,53.36093],[-118.07547,53.36049],[-118.07537,53.36009],[-118.07536,53.3595],[-118.07503,53.35877],[-118.07449,53.35794],[-118.07383,53.35743],[-118.0733,53.35694],[-118.07246,53.35637],[-118.07155,53.35621],[-118.06981,53.35663],[-118.06904,53.3566],[-118.06835,53.35643],[-118.06711,53.35595],[-118.06612,53.35546],[-118.06491,53.35444],[-118.06451,53.35415],[-118.06429,53.35407],[-118.06405,53.35407],[-118.0635,53.35423],[-118.06293,53.35442],[-118.06234,53.3546],[-118.06141,53.35485],[-118.06063,53.35494],[-118.06,53.35511],[-118.05983,53.35534],[-118.05985,53.35578],[-118.06002,53.35635],[-118.06023,53.3575],[-118.06016,53.35799],[-118.0602,53.35844],[-118.05912,53.35942],[-118.0572,53.36096],[-118.05599,53.36143],[-118.04864,53.36419],[-118.04818,53.36386],[-118.04717,53.36315],[-118.04608,53.3626],[-118.04555,53.36234],[-118.04511,53.36207],[-118.0446,53.36181],[-118.04337,53.36139],[-118.04301,53.36129],[-118.04272,53.36123],[-118.04016,53.36104],[-118.03918,53.36089],[-118.03809,53.36066],[-118.03733,53.36052],[-118.03652,53.36044],[-118.03555,53.36026],[-118.03474,53.36002],[-118.0339,53.35971],[-118.03202,53.35936],[-118.03103,53.35927],[-118.03031,53.35925],[-118.02992,53.35927],[-118.02937,53.35938],[-118.02873,53.35964],[-118.02816,53.35982],[-118.02773,53.35998],[-118.02743,53.36005],[-118.02722,53.36005],[-118.02704,53.36001],[-118.02697,53.3599],[-118.02694,53.35975],[-118.02689,53.35967],[-118.02676,53.35959],[-118.02635,53.35943],[-118.02522,53.35922],[-118.02479,53.3591],[-118.02375,53.35871],[-118.02292,53.35845],[-118.02252,53.35838],[-118.02171,53.35829],[-118.02107,53.35816],[-118.02069,53.35796],[-118.02049,53.35778],[-118.02036,53.35756],[-118.02028,53.35734],[-118.02025,53.35691],[-118.02015,53.35663],[-118.02004,53.3564],[-118.01984,53.35623],[-118.01951,53.35612],[-118.01831,53.35578],[-118.01813,53.35569],[-118.01738,53.35541],[-118.01652,53.35506],[-118.01589,53.35486],[-118.01493,53.35461],[-118.01381,53.35439],[-118.01288,53.35422],[-118.01228,53.35408],[-118.01116,53.35369],[-118.01063,53.35354],[-118.01022,53.35348],[-118.00986,53.3534],[-118.0096,53.3533],[-118.00933,53.35312],[-118.0088,53.35267],[-118.00857,53.35242],[-118.0084,53.3522],[-118.00836,53.35198],[-118.00834,53.35164],[-118.00852,53.35103],[-118.00855,53.35071],[-118.00847,53.35046],[-118.00838,53.35033],[-118.00769,53.34983],[-118.00733,53.34952],[-118.00651,53.34856],[-118.00626,53.34826],[-118.0059,53.34795],[-118.00497,53.34735],[-118.00446,53.34697],[-118.00412,53.3469],[-118.00327,53.34681],[-118.00273,53.34678],[-118.00214,53.3467],[-118.00141,53.34655],[-118.00122,53.34654],[-118.001,53.34653],[-118.00026,53.3465],[-117.99968,53.34647],[-117.99847,53.34636],[-117.99647,53.34618],[-117.99328,53.34585],[-117.99286,53.34582],[-117.99244,53.3458],[-117.9922,53.34576],[-117.99203,53.34568],[-117.99188,53.34558],[-117.99172,53.34542],[-117.99148,53.34513],[-117.99116,53.3444],[-117.99095,53.3438],[-117.99084,53.34355],[-117.9906,53.34319],[-117.99039,53.34297],[-117.99017,53.34278],[-117.98986,53.3426],[-117.98959,53.34251],[-117.98918,53.34243],[-117.98835,53.34232],[-117.98723,53.3422],[-117.98681,53.34213],[-117.98615,53.34193],[-117.98558,53.3418],[-117.98497,53.34168],[-117.98379,53.34154],[-117.98335,53.34147],[-117.98294,53.34136],[-117.98251,53.34115],[-117.98212,53.34095],[-117.98197,53.34082],[-117.98189,53.34069],[-117.98181,53.34056],[-117.98174,53.34035],[-117.98176,53.33983],[-117.98172,53.33958],[-117.98165,53.33944],[-117.98146,53.33921],[-117.98104,53.33889],[-117.98059,53.33866],[-117.97934,53.33788],[-117.97917,53.33781],[-117.97898,53.33776],[-117.97864,53.33771],[-117.97759,53.33767],[-117.97627,53.33769],[-117.97607,53.33767],[-117.97594,53.33764],[-117.97558,53.33751],[-117.97507,53.33726],[-117.97406,53.33689],[-117.97324,53.33656],[-117.97279,53.33639],[-117.97178,53.33605],[-117.97039,53.33555],[-117.96949,53.33525],[-117.96912,53.33509],[-117.96882,53.33491],[-117.96856,53.3347],[-117.96817,53.33429],[-117.96798,53.33406],[-117.96777,53.33374],[-117.96766,53.33363],[-117.96739,53.33343],[-117.96701,53.33323],[-117.96606,53.33293],[-117.96582,53.33279],[-117.9656,53.33266],[-117.96539,53.33256],[-117.96497,53.33232],[-117.96423,53.33211],[-117.96386,53.33199],[-117.96357,53.33184],[-117.96343,53.33174],[-117.96332,53.33163],[-117.96323,53.33151],[-117.96316,53.33118],[-117.96313,53.33098],[-117.96301,53.33085],[-117.96284,53.33071],[-117.96258,53.3306],[-117.96215,53.33039],[-117.96189,53.3302],[-117.96165,53.32998],[-117.96156,53.32987],[-117.96149,53.32975],[-117.96149,53.32963],[-117.96155,53.32924],[-117.96153,53.32912],[-117.96107,53.32878],[-117.96098,53.32866],[-117.96083,53.32817],[-117.96075,53.32805],[-117.96056,53.32788],[-117.9602,53.32769],[-117.95912,53.32731],[-117.95866,53.32717],[-117.95766,53.32694],[-117.95704,53.32677],[-117.95638,53.32655],[-117.95621,53.32648],[-117.95621,53.32647],[-117.95614,53.32637],[-117.95617,53.3261],[-117.95617,53.32562],[-117.95623,53.32485],[-117.95633,53.32434],[-117.95646,53.32389],[-117.95664,53.32361],[-117.95708,53.32309],[-117.95729,53.32287],[-117.95758,53.32269],[-117.95843,53.32229],[-117.95877,53.3221],[-117.95921,53.32182],[-117.9595,53.32157],[-117.95972,53.32135],[-117.95989,53.32111],[-117.96,53.32087],[-117.96005,53.32061],[-117.96002,53.32041],[-117.95993,53.32016],[-117.95966,53.3198],[-117.95932,53.31947],[-117.95812,53.31851],[-117.95772,53.31815],[-117.95728,53.31771],[-117.95697,53.31748],[-117.95686,53.31737],[-117.95679,53.31726],[-117.95677,53.3171],[-117.9568,53.31697],[-117.95686,53.31685],[-117.95692,53.31678],[-117.95724,53.31657],[-117.95581,53.3156],[-117.95482,53.31434],[-117.95404,53.31323],[-117.95309,53.31262],[-117.95231,53.31143],[-117.95147,53.31002],[-117.95106,53.30889],[-117.95059,53.3079],[-117.9491,53.30677],[-117.94803,53.30597],[-117.94602,53.30528],[-117.94444,53.30505],[-117.9427,53.30462],[-117.94131,53.30407],[-117.94025,53.30303],[-117.93785,53.30166],[-117.93588,53.30062],[-117.93526,53.29994],[-117.93325,53.29831],[-117.93219,53.29687],[-117.93196,53.29686],[-117.93077,53.29691],[-117.93007,53.29692],[-117.92942,53.2969],[-117.92876,53.29684],[-117.92813,53.29675],[-117.92709,53.29655],[-117.92606,53.29631],[-117.92605,53.29631],[-117.92561,53.2962],[-117.92446,53.29592],[-117.92407,53.29584],[-117.9235,53.29569],[-117.92333,53.29562],[-117.92322,53.29551],[-117.92309,53.29526],[-117.923,53.29516],[-117.92259,53.29478],[-117.92193,53.29413],[-117.92182,53.29401],[-117.92169,53.2939],[-117.92125,53.29361],[-117.92115,53.2935],[-117.92091,53.29314],[-117.92045,53.29259],[-117.92021,53.29215],[-117.92006,53.29193],[-117.91985,53.29171],[-117.9192,53.2911],[-117.91881,53.29081],[-117.91864,53.29073],[-117.91846,53.29066],[-117.9184,53.29066],[-117.91826,53.29059],[-117.91799,53.29032],[-117.91759,53.28984],[-117.91738,53.28965],[-117.91678,53.28927],[-117.91631,53.28901],[-117.91575,53.28873],[-117.91545,53.28853],[-117.91529,53.28838],[-117.9152,53.28827],[-117.91498,53.2879],[-117.91469,53.28754],[-117.91434,53.28723],[-117.91388,53.28695],[-117.91385,53.28693],[-117.91374,53.28688],[-117.91336,53.28672],[-117.91147,53.28606],[-117.90943,53.28523],[-117.90875,53.28492],[-117.90777,53.2844],[-117.90706,53.28409],[-117.90673,53.28401],[-117.90609,53.28395],[-117.90537,53.28385],[-117.90425,53.28365],[-117.90323,53.28345],[-117.90248,53.28335],[-117.90208,53.28327],[-117.90173,53.28314],[-117.90173,53.28314],[-117.90152,53.28301],[-117.90139,53.28291],[-117.90128,53.28279],[-117.90083,53.28233],[-117.90007,53.28198],[-117.8998,53.28179],[-117.89968,53.28168],[-117.89961,53.28156],[-117.89958,53.28146],[-117.89955,53.28083],[-117.89944,53.28045],[-117.89921,53.28008],[-117.89901,53.27985],[-117.89901,53.27985],[-117.89889,53.27975],[-117.89865,53.27958],[-117.89858,53.27953],[-117.89777,53.27907],[-117.89748,53.27888],[-117.89701,53.27841],[-117.89685,53.27821],[-117.89665,53.27784],[-117.89653,53.2776],[-117.89643,53.27718],[-117.89634,53.27692],[-117.89627,53.2768],[-117.89617,53.2767],[-117.89604,53.27661],[-117.89577,53.27651],[-117.89497,53.27629],[-117.89466,53.27619],[-117.89431,53.27604],[-117.89399,53.27587],[-117.89372,53.27566],[-117.8932,53.27516],[-117.89253,53.27442],[-117.89225,53.27423],[-117.89211,53.27411],[-117.89204,53.274],[-117.89197,53.27374],[-117.89192,53.27296],[-117.89183,53.27234],[-117.89182,53.27226],[-117.89185,53.27148],[-117.89182,53.27125],[-117.8917,53.27088],[-117.89162,53.26994],[-117.89139,53.2693],[-117.89137,53.26904],[-117.89142,53.26891],[-117.8915,53.2688],[-117.89196,53.26835],[-117.89228,53.26793],[-117.89242,53.26769],[-117.89251,53.26744],[-117.89252,53.26683],[-117.89254,53.2667],[-117.8927,53.26619],[-117.89272,53.26607],[-117.89272,53.26597],[-117.89262,53.26572],[-117.89241,53.26534],[-117.89234,53.26511],[-117.89213,53.26451],[-117.89207,53.26413],[-117.89211,53.26349],[-117.89209,53.2632],[-117.89204,53.26294],[-117.89194,53.26269],[-117.89179,53.26246],[-117.8911,53.26166],[-117.89088,53.26142],[-117.8903,53.26088],[-117.88976,53.26029],[-117.88937,53.25977],[-117.88933,53.2597],[-117.88901,53.25915],[-117.8889,53.2589],[-117.88884,53.2584],[-117.88872,53.25816],[-117.88856,53.25788],[-117.88847,53.25773],[-117.88843,53.25761],[-117.88844,53.25753],[-117.88851,53.25741],[-117.8887,53.25717],[-117.88881,53.25697],[-117.88886,53.25684],[-117.88885,53.25672],[-117.88881,53.2566],[-117.8887,53.25647],[-117.88854,53.25639],[-117.88793,53.25623],[-117.88774,53.25615],[-117.88754,53.25601],[-117.88745,53.2559],[-117.8874,53.25577],[-117.88739,53.2557],[-117.88742,53.25558],[-117.88765,53.2552],[-117.88797,53.2545],[-117.888,53.2543],[-117.8879,53.25392],[-117.88774,53.25354],[-117.88742,53.25311],[-117.88736,53.25299],[-117.88735,53.25283],[-117.88741,53.25271],[-117.88767,53.25235],[-117.88776,53.2522],[-117.88782,53.25207],[-117.88785,53.25191],[-117.8878,53.25166],[-117.88762,53.25129],[-117.88741,53.25076],[-117.8873,53.25047],[-117.88724,53.25029],[-117.88719,53.25011],[-117.88718,53.25004],[-117.88717,53.24993],[-117.88709,53.24967],[-117.88681,53.24884],[-117.88622,53.2478],[-117.88593,53.24737],[-117.88563,53.24703],[-117.88534,53.2468],[-117.88526,53.24669],[-117.88526,53.24653],[-117.88535,53.24626],[-117.88533,53.24598],[-117.88515,53.24509],[-117.88503,53.24462],[-117.8848,53.24412],[-117.8842,53.24318],[-117.88391,53.24284],[-117.88354,53.24253],[-117.8829,53.24212],[-117.88195,53.2416],[-117.88103,53.24105],[-117.87974,53.24018],[-117.87851,53.23925],[-117.87769,53.23866],[-117.87724,53.2384],[-117.87698,53.23826],[-117.87569,53.23763],[-117.87241,53.23614],[-117.87207,53.236],[-117.87137,53.23569],[-117.87017,53.235],[-117.86932,53.23456],[-117.86881,53.23437],[-117.86829,53.23415],[-117.86814,53.23404],[-117.86768,53.2336],[-117.8674,53.23341],[-117.86574,53.23253],[-117.86574,53.23253],[-117.86505,53.23217],[-117.8649,53.23209],[-117.86484,53.23206],[-117.86405,53.23163],[-117.86369,53.23131],[-117.85286,53.22992],[-117.84053,53.22835],[-117.82952,53.22696],[-117.82948,53.22699],[-117.82947,53.22703],[-117.82931,53.22717],[-117.82873,53.22785],[-117.82819,53.2287],[-117.82803,53.22901],[-117.82775,53.22972],[-117.82752,53.23088],[-117.82742,53.23128],[-117.82729,53.23168],[-117.82678,53.23269],[-117.82649,53.23308],[-117.82619,53.23347],[-117.82583,53.23386],[-117.82523,53.23441],[-117.82455,53.23493],[-117.82407,53.23526],[-117.82354,53.23558],[-117.82298,53.23587],[-117.82241,53.23614],[-117.82182,53.23639],[-117.82121,53.23662],[-117.82028,53.23691],[-117.81933,53.23716],[-117.81868,53.2373],[-117.81768,53.23748],[-117.817,53.23756],[-117.81632,53.23762],[-117.81563,53.23767],[-117.81459,53.23769],[-117.81355,53.23767],[-117.80632,53.23738],[-117.80494,53.23736],[-117.80318,53.2374],[-117.80214,53.23746],[-117.8004,53.2376],[-117.79523,53.2382],[-117.79419,53.23834],[-117.79351,53.23846],[-117.79252,53.23868],[-117.79187,53.23884],[-117.79124,53.23903],[-117.79062,53.23924],[-117.79002,53.23948],[-117.78918,53.23986],[-117.78864,53.24013],[-117.78811,53.24043],[-117.7874,53.2409],[-117.78674,53.24141],[-117.78011,53.24692],[-117.77782,53.24882],[-117.7795,53.24893],[-117.78446,53.24877],[-117.7885,53.24973],[-117.7912,53.25172],[-117.79538,53.25332],[-117.79931,53.25135],[-117.80287,53.25066],[-117.80681,53.25136],[-117.81032,53.25315],[-117.8129,53.25532],[-117.81545,53.25756],[-117.81744,53.2601],[-117.81687,53.26272],[-117.81356,53.26657],[-117.80909,53.2695],[-117.80576,53.27193],[-117.80323,53.27443],[-117.79888,53.27753],[-117.79329,53.27905],[-117.78994,53.28009],[-117.78683,53.28189],[-117.78286,53.28384],[-117.77921,53.28625],[-117.77465,53.28753],[-117.77021,53.28965],[-117.76846,53.29258],[-117.76751,53.29532],[-117.76531,53.29834],[-117.7618,53.30169],[-117.76021,53.30506],[-117.76154,53.30955],[-117.76207,53.31258],[-117.7668,53.31427],[-117.77152,53.31632],[-117.77681,53.3179],[-117.7837,53.3189],[-117.78996,53.31826],[-117.79455,53.31872],[-117.79542,53.32321],[-117.7975,53.32813],[-117.80151,53.33025],[-117.8068,53.33021],[-117.81122,53.32859],[-117.81631,53.32704],[-117.82226,53.3272],[-117.82628,53.32854],[-117.83003,53.33111],[-117.83308,53.33336],[-117.83486,53.33537],[-117.83253,53.33697],[-117.82985,53.33883],[-117.82738,53.34093],[-117.82571,53.34397],[-117.82742,53.3469],[-117.82557,53.35078],[-117.82552,53.35463],[-117.82216,53.35692],[-117.82089,53.35967],[-117.82214,53.36373],[-117.82382,53.36811],[-117.82698,53.3714],[-117.82896,53.37326],[-117.83267,53.37534],[-117.82923,53.37601],[-117.82477,53.37623],[-117.81998,53.37754],[-117.81602,53.37953],[-117.81287,53.38239],[-117.81089,53.38394],[-117.80645,53.38467],[-117.8034,53.38658],[-117.79959,53.38781],[-117.79411,53.39001],[-117.79072,53.39058],[-117.78709,53.39031],[-117.7861,53.39232],[-117.78457,53.39594],[-117.78351,53.39902],[-117.78247,53.40128],[-117.78164,53.40319],[-117.78297,53.40558],[-117.78481,53.40765],[-117.78481,53.40824],[-117.78481,53.41015],[-117.78481,53.41015],[-117.78479,53.41015],[-117.78479,53.4102],[-117.78449,53.4102],[-117.78198,53.4102],[-117.77238,53.41019],[-117.77239,53.41739],[-117.77238,53.41739],[-117.77238,53.4174],[-117.76025,53.4174],[-117.75995,53.4174],[-117.75949,53.4174],[-117.75677,53.41741],[-117.7478,53.41745],[-117.73688,53.41749],[-117.73692,53.41777],[-117.73714,53.41947],[-117.73624,53.4196],[-117.73137,53.41852],[-117.72427,53.41677],[-117.71708,53.41582],[-117.71233,53.41478],[-117.70925,53.41275],[-117.70389,53.41132],[-117.69873,53.41262],[-117.69702,53.41447],[-117.69497,53.41637],[-117.6923,53.41992],[-117.68927,53.42417],[-117.68566,53.42837],[-117.68279,53.43151],[-117.67929,53.43413],[-117.67667,53.4355],[-117.67529,53.43924],[-117.67832,53.44098],[-117.67759,53.44429],[-117.67367,53.4474],[-117.6682,53.4499],[-117.6647,53.45316],[-117.67025,53.45536],[-117.67616,53.45701],[-117.6802,53.45875],[-117.68242,53.46087],[-117.68534,53.46442],[-117.68803,53.46671],[-117.69118,53.47088],[-117.69648,53.47156],[-117.70063,53.47325],[-117.7032,53.47749],[-117.7074,53.47947],[-117.71486,53.47995],[-117.72085,53.4808],[-117.72576,53.48248],[-117.72422,53.48567],[-117.72272,53.48806],[-117.7218,53.48979],[-117.72004,53.49326],[-117.71864,53.49617],[-117.72181,53.50036],[-117.72632,53.50268],[-117.73112,53.50381],[-117.73619,53.50503],[-117.74079,53.50652],[-117.74576,53.50901],[-117.75223,53.51303],[-117.756,53.51646],[-117.75902,53.52099],[-117.75932,53.52421],[-117.75629,53.52663],[-117.75197,53.52631],[-117.74606,53.52642],[-117.73846,53.52626],[-117.73176,53.52616],[-117.72645,53.52572],[-117.72093,53.52638],[-117.71591,53.52938],[-117.7117,53.53304],[-117.70772,53.53523],[-117.70478,53.53747],[-117.70106,53.5416],[-117.69773,53.54423],[-117.69429,53.54715],[-117.68975,53.54973],[-117.68329,53.55102],[-117.67679,53.55224],[-117.67278,53.55304],[-117.66733,53.55311],[-117.66307,53.55221],[-117.65885,53.55272],[-117.65396,53.55347],[-117.64748,53.55373],[-117.64016,53.55351],[-117.63421,53.55336],[-117.63252,53.55504],[-117.63178,53.55773],[-117.63109,53.56143],[-117.62962,53.5655],[-117.62605,53.56833],[-117.62257,53.57089],[-117.61948,53.57242],[-117.61598,53.5738],[-117.61183,53.57521],[-117.60656,53.57687],[-117.60301,53.57949],[-117.60285,53.58311],[-117.60251,53.58647],[-117.5997,53.59008],[-117.603,53.59499],[-117.60256,53.59822],[-117.60145,53.601],[-117.59918,53.60486],[-117.59762,53.60869],[-117.59837,53.6123],[-117.6,53.61425],[-117.60494,53.61699],[-117.60884,53.62035],[-117.61365,53.62348],[-117.6168,53.62657],[-117.61882,53.62909],[-117.62123,53.634],[-117.62265,53.63915],[-117.62359,53.6415],[-117.62394,53.64356],[-117.62364,53.64753],[-117.62436,53.65166],[-117.62469,53.65446],[-117.62536,53.65698],[-117.62703,53.65943],[-117.63004,53.6622],[-117.63352,53.66469],[-117.63696,53.66745],[-117.64063,53.66977],[-117.64567,53.6712],[-117.6528,53.67296],[-117.65909,53.67498],[-117.66612,53.67803],[-117.66978,53.68053],[-117.67029,53.68339],[-117.66908,53.68673],[-117.6681,53.68945],[-117.66743,53.69355],[-117.6659,53.69683],[-117.66355,53.70012],[-117.66144,53.70254],[-117.65948,53.70494],[-117.65596,53.70817],[-117.65436,53.71158],[-117.65353,53.71568],[-117.64959,53.71915],[-117.6404,53.72043],[-117.63131,53.72159],[-117.62169,53.72192],[-117.61514,53.72366],[-117.61093,53.72496],[-117.60449,53.72692],[-117.59798,53.72946],[-117.59573,53.73295],[-117.59575,53.73603],[-117.59631,53.73933],[-117.59912,53.74267],[-117.60158,53.74597],[-117.61748,53.75378],[-117.62281,53.77177],[-117.5951,53.78392],[-117.56234,53.7991],[-117.55235,53.81116],[-117.5374,53.83225],[-117.50967,53.84889],[-117.48182,53.85651],[-117.449,53.87466],[-117.46187,53.88963],[-117.48519,53.90232],[-117.48993,53.89853],[-117.55336,53.88774],[-117.572,53.88765],[-117.58132,53.88761],[-117.61936,53.88141],[-117.66515,53.88417],[-117.67781,53.8811],[-117.70541,53.86684],[-117.7261,53.88081],[-117.73147,53.8973],[-117.72942,53.92584],[-117.74259,53.95129],[-117.75053,53.96776],[-117.76849,53.97516],[-117.79906,53.97496],[-117.83226,53.97924],[-117.86286,53.98052],[-117.88858,53.99235],[-117.90943,54.01322],[-117.95069,54.03392],[-117.96029,54.04079],[-117.95782,54.04315],[-117.95622,54.04602],[-117.95545,54.04933],[-117.95288,54.05062],[-117.94893,54.05095],[-117.94358,54.05136],[-117.93837,54.05139],[-117.93231,54.05096],[-117.92775,54.05118],[-117.92174,54.05253],[-117.91688,54.05322],[-117.91079,54.05251],[-117.90508,54.05266],[-117.89853,54.05485],[-117.89377,54.05546],[-117.88654,54.05466],[-117.87908,54.05387],[-117.87453,54.05525],[-117.8704,54.05504],[-117.86381,54.05437],[-117.85818,54.05493],[-117.8538,54.05504],[-117.84893,54.05434],[-117.84433,54.05345],[-117.84061,54.05271],[-117.83675,54.05144],[-117.83261,54.05116],[-117.82936,54.05358],[-117.8271,54.05669],[-117.82595,54.05978],[-117.82756,54.06284],[-117.82994,54.06523],[-117.83558,54.06879],[-117.83759,54.07142],[-117.83452,54.07328],[-117.82949,54.07398],[-117.82293,54.07377],[-117.81879,54.07254],[-117.81378,54.07185],[-117.80845,54.07268],[-117.80146,54.07139],[-117.79649,54.06994],[-117.7931,54.06812],[-117.79498,54.06635],[-117.79721,54.06377],[-117.79264,54.06087],[-117.78939,54.05871],[-117.78738,54.0562],[-117.78384,54.05545],[-117.78032,54.05381],[-117.77846,54.0514],[-117.7754,54.04919],[-117.77109,54.05155],[-117.76821,54.05652],[-117.76934,54.05963],[-117.77102,54.06209],[-117.77094,54.06586],[-117.76828,54.06915],[-117.7643,54.07155],[-117.75825,54.07026],[-117.75346,54.0695],[-117.75012,54.07011],[-117.74754,54.07202],[-117.74556,54.07406],[-117.7422,54.07622],[-117.73929,54.07847],[-117.73419,54.07807],[-117.72705,54.07941],[-117.72496,54.08134],[-117.72663,54.08471],[-117.72976,54.08826],[-117.73216,54.09178],[-117.73102,54.09487],[-117.72752,54.09822],[-117.72389,54.10138],[-117.72016,54.10266],[-117.72494,54.10711],[-117.73531,54.11274],[-117.74338,54.11805],[-117.75439,54.12736],[-117.76133,54.13268],[-117.76547,54.14069],[-117.76046,54.14776],[-117.75999,54.15312],[-117.75844,54.16184],[-117.75857,54.16888],[-117.75525,54.17493],[-117.74733,54.179],[-117.73429,54.18444],[-117.73491,54.18678],[-117.74878,54.19574],[-117.74947,54.20243],[-117.75524,54.20575],[-117.76102,54.20939],[-117.76509,54.21272],[-117.76573,54.21673],[-117.7692,54.21906],[-117.77174,54.22109],[-117.77348,54.21846],[-117.77788,54.21617],[-117.78441,54.21338],[-117.79145,54.21145],[-117.79829,54.21007],[-117.80586,54.20834],[-117.81549,54.20578],[-117.82453,54.20378],[-117.83346,54.20339],[-117.84262,54.20352],[-117.84982,54.20379],[-117.85775,54.20399],[-117.86602,54.20365],[-117.87458,54.20247],[-117.88106,54.20111],[-117.88641,54.19921],[-117.89083,54.19742],[-117.89735,54.19659],[-117.90428,54.19779],[-117.91056,54.19875],[-117.91519,54.19752],[-117.92002,54.195],[-117.92375,54.1922],[-117.92804,54.19047],[-117.9347,54.18864],[-117.94317,54.18547],[-117.9536,54.18137],[-117.96203,54.17828],[-117.96939,54.17636],[-117.97694,54.1754],[-117.98479,54.17553],[-117.99166,54.17411],[-117.99684,54.17309],[-118.00143,54.17393],[-118.00495,54.17516],[-118.00797,54.17364],[-118.01098,54.17142],[-118.01685,54.17028],[-118.02398,54.17031],[-118.03301,54.17154],[-118.04143,54.1724],[-118.04895,54.17282],[-118.05342,54.17234],[-118.05915,54.17034],[-118.06697,54.17029],[-118.07417,54.16917],[-118.07964,54.16852],[-118.08609,54.1681],[-118.09218,54.16803],[-118.09688,54.16811],[-118.1026,54.1677],[-118.10749,54.16768],[-118.11247,54.16833],[-118.11895,54.16979],[-118.12504,54.16974],[-118.12991,54.17146],[-118.13577,54.17384],[-118.14121,54.17517],[-118.14798,54.17717],[-118.15228,54.17757],[-118.15885,54.17757],[-118.1643,54.17683],[-118.16893,54.17646],[-118.17443,54.17906],[-118.17877,54.18091],[-118.1852,54.1823],[-118.18858,54.18588],[-118.1919,54.19053],[-118.19778,54.19291],[-118.20321,54.19373],[-118.20903,54.19413],[-118.2146,54.19519],[-118.22013,54.1947],[-118.22295,54.19341],[-118.22651,54.19208],[-118.23286,54.19293],[-118.23776,54.19214],[-118.23753,54.18943],[-118.23559,54.18688],[-118.23292,54.18298],[-118.23035,54.17999],[-118.22671,54.17641],[-118.22541,54.17365],[-118.22751,54.17121],[-118.22953,54.16904],[-118.23268,54.16826],[-118.23753,54.1679],[-118.24471,54.16689],[-118.24802,54.16496],[-118.24858,54.16066],[-118.25015,54.15806],[-118.25438,54.15624],[-118.25461,54.15454],[-118.26786,54.15114],[-118.27175,54.15159],[-118.2734,54.15169],[-118.27398,54.15175],[-118.27708,54.15206],[-118.28003,54.15204],[-118.28321,54.15195],[-118.28626,54.15193],[-118.28969,54.15166],[-118.29157,54.15139],[-118.2935,54.15126],[-118.29542,54.15113],[-118.29951,54.15058],[-118.30065,54.15048],[-118.30458,54.15],[-118.30752,54.14982],[-118.30782,54.1498],[-118.31114,54.14958],[-118.31374,54.14941],[-118.3161,54.14938],[-118.32171,54.14863],[-118.32291,54.14861],[-118.32414,54.14871],[-118.32432,54.14873],[-118.33194,54.1479],[-118.33207,54.14793],[-118.33478,54.15166],[-118.33559,54.15256],[-118.33612,54.15317],[-118.33758,54.15545],[-118.34061,54.15794],[-118.3412,54.1585],[-118.34127,54.15854],[-118.34141,54.15861],[-118.34161,54.15877],[-118.34245,54.15898],[-118.34711,54.16063],[-118.35087,54.16108],[-118.3527,54.16134],[-118.35453,54.16161],[-118.35934,54.16369],[-118.35948,54.16409],[-118.36022,54.16583],[-118.36206,54.16802],[-118.36713,54.169],[-118.369,54.16928],[-118.36953,54.16951],[-118.37053,54.16955],[-118.37287,54.17031],[-118.37512,54.17105],[-118.37877,54.17105],[-118.38254,54.17202],[-118.38616,54.17417],[-118.3858,54.17553],[-118.38814,54.17618],[-118.39194,54.17729],[-118.39382,54.1774],[-118.39739,54.17798],[-118.39886,54.17857],[-118.40014,54.1794],[-118.39959,54.18065],[-118.39753,54.18213],[-118.39539,54.18357],[-118.39535,54.18485],[-118.39561,54.18606],[-118.39769,54.18696],[-118.40101,54.18826],[-118.40418,54.19014],[-118.40602,54.19071],[-118.40702,54.19066],[-118.40763,54.19047],[-118.40837,54.19009],[-118.41164,54.18744],[-118.41605,54.18599],[-118.41717,54.18527],[-118.41797,54.18492],[-118.41877,54.18458],[-118.41931,54.18288],[-118.41943,54.18252],[-118.41927,54.18116],[-118.42059,54.17916],[-118.42384,54.17845],[-118.42498,54.17815],[-118.42891,54.17603],[-118.43071,54.17473],[-118.43223,54.17363],[-118.43314,54.17312],[-118.43399,54.17293],[-118.43545,54.17273],[-118.44057,54.17202],[-118.44314,54.17168],[-118.4459,54.17186],[-118.45059,54.17238],[-118.45236,54.17251],[-118.45406,54.17237],[-118.45901,54.17183],[-118.46152,54.17164],[-118.46413,54.17172],[-118.46848,54.17188],[-118.47073,54.17196],[-118.47503,54.17028],[-118.47578,54.17],[-118.47624,54.16982],[-118.47979,54.16846],[-118.48053,54.1681],[-118.48154,54.16764],[-118.4859,54.16539],[-118.48613,54.16341],[-118.48612,54.16331],[-118.48611,54.16301],[-118.48597,54.16269],[-118.48587,54.16248],[-118.48559,54.16159],[-118.48539,54.16074],[-118.48532,54.16013],[-118.48523,54.15975],[-118.48511,54.15946],[-118.48498,54.15915],[-118.48484,54.15868],[-118.48486,54.1585],[-118.48494,54.15768],[-118.48509,54.15727],[-118.48564,54.15587],[-118.48605,54.15484],[-118.48642,54.15411],[-118.48659,54.15387],[-118.48703,54.15341],[-118.48743,54.15293],[-118.48793,54.15248],[-118.48818,54.15218],[-118.48913,54.15103],[-118.48931,54.15059],[-118.48935,54.15049],[-118.48943,54.15031],[-118.4895,54.15003],[-118.48973,54.14913],[-118.49014,54.14821],[-118.49087,54.14669],[-118.49121,54.14623],[-118.49169,54.1458],[-118.49184,54.14569],[-118.49192,54.14558],[-118.49213,54.14548],[-118.49267,54.1453],[-118.49293,54.14517],[-118.49366,54.14492],[-118.49418,54.14466],[-118.4949,54.14436],[-118.49515,54.14422],[-118.49617,54.14378],[-118.4964,54.14371],[-118.49692,54.14355],[-118.49775,54.14338],[-118.49795,54.14334],[-118.49879,54.14315],[-118.49989,54.14295],[-118.50002,54.14292],[-118.50014,54.1429],[-118.50089,54.14274],[-118.50129,54.14267],[-118.50173,54.1426],[-118.50199,54.14257],[-118.50249,54.14252],[-118.50296,54.14243],[-118.50527,54.14241],[-118.50584,54.14236],[-118.50617,54.14236],[-118.50631,54.14234],[-118.50652,54.14229],[-118.50691,54.14214],[-118.50713,54.14205],[-118.50746,54.14185],[-118.50775,54.1417],[-118.50804,54.14141],[-118.50831,54.14079],[-118.50848,54.14025],[-118.50855,54.14002],[-118.50861,54.13993],[-118.5088,54.13904],[-118.50896,54.13803],[-118.50919,54.13723],[-118.50951,54.13627],[-118.50955,54.13607],[-118.50963,54.13566],[-118.50999,54.13492],[-118.51048,54.13431],[-118.51197,54.13236],[-118.51226,54.13194],[-118.51257,54.13168],[-118.51299,54.13138],[-118.51386,54.13104],[-118.51434,54.13089],[-118.51503,54.13062],[-118.51646,54.13009],[-118.51749,54.12978],[-118.51825,54.12963],[-118.5186,54.12961],[-118.52029,54.12965],[-118.52084,54.12959],[-118.5216,54.1293],[-118.52197,54.12912],[-118.52234,54.12885],[-118.52294,54.12827],[-118.52326,54.12785],[-118.52401,54.12663],[-118.52578,54.12503],[-118.52586,54.12495],[-118.52683,54.12368],[-118.52717,54.12336],[-118.52801,54.12267],[-118.52818,54.12249],[-118.52814,54.1215],[-118.52805,54.1209],[-118.52795,54.11853],[-118.5283,54.11589],[-118.52826,54.11574],[-118.52892,54.11312],[-118.52649,54.11149],[-118.52588,54.10912],[-118.52498,54.10778],[-118.52481,54.10744],[-118.52464,54.10711],[-118.5234,54.10435],[-118.52262,54.10283],[-118.52251,54.10241],[-118.52228,54.10182],[-118.52089,54.09838],[-118.52038,54.09705],[-118.51911,54.09475],[-118.51882,54.09414],[-118.51731,54.09169],[-118.51642,54.09011],[-118.51526,54.0873],[-118.51477,54.08633],[-118.51451,54.08576],[-118.51345,54.08325],[-118.5126,54.08142],[-118.51241,54.08097],[-118.51228,54.08034],[-118.51148,54.07661],[-118.51126,54.07559],[-118.51135,54.07454],[-118.51192,54.07082],[-118.51198,54.07019],[-118.51192,54.06958],[-118.51235,54.06505],[-118.51232,54.06479],[-118.51239,54.06456],[-118.51269,54.06244],[-118.51297,54.05985],[-118.513,54.05963],[-118.51306,54.05939],[-118.513,54.05914],[-118.51253,54.05795],[-118.51132,54.05466],[-118.51117,54.05402],[-118.51103,54.05324],[-118.51102,54.04933],[-118.51087,54.04863],[-118.51103,54.04795],[-118.51187,54.0433],[-118.51188,54.04322],[-118.51192,54.04318],[-118.51199,54.04309],[-118.51341,54.04132],[-118.51483,54.03954],[-118.51618,54.03778],[-118.51774,54.0359],[-118.52077,54.03259],[-118.52092,54.03241],[-118.52098,54.03232],[-118.52114,54.03209],[-118.52354,54.02861],[-118.52464,54.02688],[-118.52585,54.02463],[-118.52649,54.02329],[-118.52742,54.02145],[-118.52817,54.02066],[-118.52945,54.01932],[-118.53148,54.01725],[-118.53238,54.016],[-118.53389,54.01333],[-118.53398,54.01317],[-118.53552,54.01056],[-118.53646,54.0095],[-118.53817,54.00752],[-118.53946,54.00592],[-118.54022,54.00511],[-118.54173,54.00289],[-118.54222,54.00219],[-118.54385,53.99967],[-118.54497,53.99847],[-118.54692,53.99656],[-118.54838,53.99511],[-118.54936,53.99421],[-118.55156,53.99163],[-118.552,53.99117],[-118.55225,53.9909],[-118.55424,53.98875],[-118.55471,53.98812],[-118.55572,53.98706],[-118.55791,53.98465],[-118.55903,53.98329],[-118.56025,53.9807],[-118.56047,53.98032],[-118.56178,53.97786],[-118.56194,53.97637],[-118.56255,53.97353],[-118.56268,53.97246],[-118.56646,53.96337],[-118.56797,53.96311],[-118.57408,53.96198],[-118.58115,53.9605],[-118.58668,53.95894],[-118.5925,53.9579],[-118.59776,53.956],[-118.60253,53.95458],[-118.60814,53.95505],[-118.61595,53.95642],[-118.62201,53.95667],[-118.626,53.95786],[-118.6311,53.95983],[-118.63839,53.96148],[-118.64286,53.96272],[-118.64667,53.96407],[-118.65119,53.96299],[-118.65704,53.96275],[-118.6638,53.96085],[-118.66935,53.96023],[-118.67371,53.96044],[-118.6786,53.96153],[-118.68222,53.96387],[-118.68616,53.96497],[-118.69156,53.96668],[-118.69618,53.96833],[-118.69956,53.96984],[-118.70158,53.97335],[-118.70495,53.97628],[-118.71212,53.97895],[-118.71655,53.98072],[-118.72146,53.98349],[-118.72727,53.98259],[-118.73213,53.98137],[-118.73685,53.98011],[-118.74229,53.97912],[-118.7494,53.98027],[-118.75501,53.97963],[-118.76008,53.98093],[-118.76569,53.98133],[-118.77126,53.98056],[-118.77478,53.97855],[-118.77807,53.97565],[-118.78394,53.97369],[-118.78934,53.97133],[-118.79569,53.9698],[-118.80097,53.96891],[-118.8074,53.96843],[-118.81378,53.96974],[-118.82209,53.9712],[-118.82867,53.97247],[-118.83361,53.9738],[-118.83773,53.97506],[-118.84212,53.97657],[-118.84706,53.97823],[-118.85199,53.97848],[-118.85527,53.9775],[-118.85921,53.97942],[-118.859,53.9797],[-118.85676,53.98268],[-118.85326,53.98542],[-118.85001,53.98769],[-118.84628,53.98934],[-118.84192,53.99106],[-118.83817,53.99314],[-118.83587,53.99483],[-118.83219,53.99482],[-118.83219,53.99482],[-118.82787,53.99529],[-118.82389,53.99698],[-118.82038,53.99833],[-118.81826,54.00039],[-118.81825,54.00042],[-118.81616,54.0053],[-118.81276,54.0064],[-118.80827,54.00853],[-118.80533,54.0115],[-118.80533,54.0115],[-118.80351,54.01398],[-118.80351,54.01398],[-118.80188,54.01748],[-118.8023,54.02124],[-118.8043,54.02318],[-118.80503,54.02389],[-118.80779,54.02551],[-118.8086,54.02598],[-118.80922,54.02635],[-118.81135,54.02797],[-118.81141,54.03018],[-118.81021,54.03263],[-118.8077,54.03462],[-118.80667,54.03544],[-118.80409,54.03625],[-118.8025,54.03675],[-118.80093,54.0387],[-118.80035,54.04149],[-118.80224,54.04399],[-118.80338,54.04452],[-118.80373,54.04468],[-118.80655,54.04601],[-118.80529,54.04798],[-118.8048,54.05102],[-118.80983,54.05319],[-118.81412,54.05374],[-118.81741,54.05445],[-118.82149,54.0557],[-118.82643,54.05748],[-118.83108,54.06126],[-118.83437,54.06309],[-118.83456,54.0632],[-118.84222,54.06682],[-118.84757,54.06865],[-118.85136,54.07088],[-118.85627,54.07272],[-118.85938,54.07269],[-118.86264,54.07266],[-118.86292,54.07265],[-118.86898,54.07464],[-118.87059,54.07753],[-118.87316,54.08079],[-118.87556,54.08249],[-118.87661,54.08324],[-118.8795,54.08618],[-118.88215,54.09018],[-118.88215,54.09018],[-118.88214,54.09018],[-118.87139,54.0948],[-118.8527,54.10445],[-118.8278,54.11794],[-118.80974,54.14256],[-118.77859,54.15988],[-118.73745,54.16797],[-118.70616,54.1834],[-118.68732,54.19116],[-118.66536,54.20083],[-118.65601,54.20657],[-118.62779,54.22007],[-118.62374,54.2264],[-118.63115,54.22821],[-118.63534,54.23056],[-118.64078,54.22969],[-118.64575,54.22828],[-118.65488,54.22842],[-118.65899,54.22864],[-118.66589,54.23014],[-118.67334,54.23378],[-118.678,54.23612],[-118.68993,54.23783],[-118.7041,54.23843],[-118.7174,54.24011],[-118.72076,54.24407],[-118.7278,54.24878],[-118.73125,54.25488],[-118.73334,54.261],[-118.73409,54.2682],[-118.73297,54.2741],[-118.73099,54.27649],[-118.72929,54.27854],[-118.73289,54.28529],[-118.74068,54.29294],[-118.74362,54.30358],[-118.73885,54.30851],[-118.73345,54.3183],[-118.74031,54.32354],[-118.74087,54.33664],[-118.74205,54.34488],[-118.74586,54.35648],[-118.76051,54.3684],[-118.76913,54.37556],[-118.77354,54.38132],[-118.7831,54.39089],[-118.79772,54.40184],[-118.80986,54.41283],[-118.81001,54.41622],[-118.81018,54.42019],[-118.81001,54.42025],[-118.81341,54.42091],[-118.81862,54.42083],[-118.82516,54.41931],[-118.83132,54.41699],[-118.83716,54.41527],[-118.84781,54.41247],[-118.85477,54.41257],[-118.86455,54.41343],[-118.87013,54.41396],[-118.87501,54.41408],[-118.88378,54.41577],[-118.89258,54.41807],[-118.89729,54.42225],[-118.90325,54.42317],[-118.91228,54.42283],[-118.91808,54.42051],[-118.92284,54.4182],[-118.92972,54.41647],[-118.93806,54.41633],[-118.94471,54.41724],[-118.94994,54.41756],[-118.96072,54.41759],[-118.97106,54.4156],[-118.97873,54.41608],[-118.98784,54.41735],[-118.99347,54.41868],[-119.00054,54.4212],[-119.00171,54.42108],[-119.00187,54.42435],[-118.9994,54.4287],[-118.99973,54.43554],[-119.00027,54.43984],[-119.00015,54.44415],[-118.99737,54.44908],[-118.99183,54.4527],[-118.99139,54.4574],[-118.99172,54.46425],[-118.99261,54.46874],[-118.99882,54.47196],[-119.00672,54.47555],[-119.01303,54.48073],[-119.02097,54.4851],[-119.02182,54.48861],[-119.02208,54.49389],[-119.02967,54.49787],[-119.03562,54.50247],[-119.04186,54.50627],[-119.05139,54.50846],[-119.06187,54.50946],[-119.0744,54.5112],[-119.08081,54.51148],[-119.08857,54.51213],[-119.09655,54.51669],[-119.10464,54.51714],[-119.11381,54.51874],[-119.11873,54.52276],[-119.12227,54.52622],[-119.12023,54.53233],[-119.12812,54.53512],[-119.13162,54.5378],[-119.13551,54.54126],[-119.13966,54.54334],[-119.14289,54.54719],[-119.14137,54.55035],[-119.13994,54.55527],[-119.14052,54.55976],[-119.14443,54.5638],[-119.15029,54.56624],[-119.15759,54.57062],[-119.16181,54.57387],[-119.16437,54.57774],[-119.16583,54.57986],[-119.16362,54.58264],[-119.1666,54.58685],[-119.16744,54.58837],[-119.16581,54.59322],[-119.17393,54.59701],[-119.18219,54.59642],[-119.19539,54.59641],[-119.2049,54.59777],[-119.21587,54.59844],[-119.22247,54.60182],[-119.22383,54.60618],[-119.22931,54.6098],[-119.23877,54.61028],[-119.24903,54.61162],[-119.25477,54.61305],[-119.26688,54.6137],[-119.26865,54.61451],[-119.26914,54.61425],[-119.26974,54.61402],[-119.27024,54.61386],[-119.27099,54.61362],[-119.27238,54.61335],[-119.27279,54.61328],[-119.27351,54.61322],[-119.27424,54.61313],[-119.27451,54.61308],[-119.27469,54.61302],[-119.27519,54.61285],[-119.27547,54.61274],[-119.27656,54.61215],[-119.27692,54.61205],[-119.27723,54.61199],[-119.27807,54.61195],[-119.27838,54.61197],[-119.27872,54.61204],[-119.27969,54.61229],[-119.28041,54.61243],[-119.28083,54.61248],[-119.28127,54.61249],[-119.28213,54.61249],[-119.28271,54.61245],[-119.28328,54.61244],[-119.28706,54.61227],[-119.2877,54.61225],[-119.28879,54.61219],[-119.29056,54.61212],[-119.29171,54.61205],[-119.29229,54.61201],[-119.29294,54.61199],[-119.29337,54.61194],[-119.29377,54.61192],[-119.29417,54.61193],[-119.29539,54.61203],[-119.29606,54.61213],[-119.29633,54.61217],[-119.29799,54.61238],[-119.29909,54.61249],[-119.2993,54.61251],[-119.30005,54.61259],[-119.30038,54.6126],[-119.30073,54.61256],[-119.30105,54.61251],[-119.30144,54.61242],[-119.30195,54.61224],[-119.30226,54.61211],[-119.30316,54.61165],[-119.30336,54.61151],[-119.30358,54.61134],[-119.30413,54.61096],[-119.30437,54.61078],[-119.3047,54.61058],[-119.30519,54.61022],[-119.30531,54.61012],[-119.30569,54.60986],[-119.30593,54.60972],[-119.30636,54.60939],[-119.30663,54.60922],[-119.30709,54.60889],[-119.30739,54.6087],[-119.30766,54.60849],[-119.30773,54.60843],[-119.30782,54.60837],[-119.30833,54.60803],[-119.30877,54.60767],[-119.30915,54.60741],[-119.30958,54.60747],[-119.3106,54.60755],[-119.31118,54.6076],[-119.31147,54.6076],[-119.3128,54.60744],[-119.31318,54.60737],[-119.31352,54.60729],[-119.31387,54.60718],[-119.31442,54.60696],[-119.31462,54.60683],[-119.31476,54.60669],[-119.3149,54.60659],[-119.315,54.60652],[-119.31533,54.6062],[-119.3161,54.60564],[-119.31624,54.60553],[-119.31658,54.60532],[-119.31707,54.60509],[-119.31761,54.60494],[-119.31933,54.6046],[-119.32025,54.60438],[-119.32054,54.60435],[-119.32062,54.60435],[-119.32082,54.60231],[-119.31863,54.6004],[-119.31845,54.59876],[-119.32242,54.59645],[-119.32701,54.59351],[-119.33038,54.59061],[-119.33308,54.58781],[-119.335,54.58515],[-119.33749,54.58316],[-119.33824,54.5824],[-119.33835,54.58226],[-119.33975,54.58069],[-119.34115,54.57722],[-119.34217,54.57411],[-119.34333,54.57124],[-119.34698,54.5701],[-119.35243,54.56927],[-119.35606,54.56673],[-119.35781,54.56475],[-119.35891,54.56377],[-119.36215,54.56244],[-119.36577,54.56259],[-119.37069,54.56424],[-119.37567,54.56592],[-119.38297,54.56607],[-119.38853,54.56657],[-119.39323,54.5666],[-119.39886,54.56553],[-119.4039,54.56316],[-119.40777,54.56023],[-119.41087,54.55786],[-119.41425,54.55697],[-119.41742,54.55793],[-119.42237,54.55991],[-119.42639,54.56175],[-119.42787,54.5642],[-119.43197,54.5658],[-119.43728,54.56583],[-119.4418,54.56517],[-119.44719,54.56389],[-119.45147,54.56316],[-119.45742,54.56277],[-119.46259,54.56377],[-119.46698,54.5651],[-119.47105,54.56451],[-119.47165,54.56432],[-119.4737,54.56381],[-119.47692,54.56353],[-119.48189,54.56371],[-119.48508,54.5639],[-119.49087,54.56499],[-119.496,54.56623],[-119.49919,54.56693],[-119.50077,54.56721],[-119.50248,54.56764],[-119.50502,54.56882],[-119.50888,54.57125],[-119.51257,54.57274],[-119.51881,54.57391],[-119.5242,54.57526],[-119.52503,54.57611],[-119.52582,54.57804],[-119.52626,54.5805],[-119.52716,54.58245],[-119.52819,54.58395],[-119.52905,54.58463],[-119.53169,54.58552],[-119.53462,54.58537],[-119.54021,54.58478],[-119.54513,54.58456],[-119.54898,54.58461],[-119.55276,54.58395],[-119.55581,54.5818],[-119.55813,54.57979],[-119.56104,54.57763],[-119.56518,54.57522],[-119.56806,54.57331],[-119.57222,54.57112],[-119.57611,54.56955],[-119.57889,54.56927],[-119.584,54.56825],[-119.5895,54.56679],[-119.59463,54.56597],[-119.59944,54.56625],[-119.6033,54.56586],[-119.60674,54.56502],[-119.6082,54.56476],[-119.61088,54.56496],[-119.61406,54.5659],[-119.61603,54.56596],[-119.62057,54.56474],[-119.62466,54.56326],[-119.62665,54.56176],[-119.63125,54.56377],[-119.63368,54.56604],[-119.64027,54.56789],[-119.64371,54.56803],[-119.64923,54.56791],[-119.65747,54.56862],[-119.65819,54.57093],[-119.65655,54.57207],[-119.65676,54.57538],[-119.65669,54.57727],[-119.65692,54.5808],[-119.65953,54.58274],[-119.66232,54.58467],[-119.66454,54.5865],[-119.66278,54.58876],[-119.66371,54.59139],[-119.66405,54.5936],[-119.66445,54.5968],[-119.66191,54.59874],[-119.65863,54.60113],[-119.65916,54.60345],[-119.66183,54.60627],[-119.66633,54.60816],[-119.66719,54.60958],[-119.67096,54.61182],[-119.67571,54.6116],[-119.68034,54.60951],[-119.68239,54.6088],[-119.68656,54.60838],[-119.69305,54.60845],[-119.69744,54.60858],[-119.7034,54.60922],[-119.70524,54.61117],[-119.70688,54.6129],[-119.71082,54.61481],[-119.7133,54.61763],[-119.71693,54.61777],[-119.71862,54.62017],[-119.71655,54.62342],[-119.71767,54.62594],[-119.71761,54.62783],[-119.72227,54.62916],[-119.72383,54.63245],[-119.72715,54.63359],[-119.72917,54.63532],[-119.72936,54.63808],[-119.72778,54.64022],[-119.72775,54.64254],[-119.72905,54.64495],[-119.73114,54.64756],[-119.73187,54.65285],[-119.72964,54.65656],[-119.72643,54.65984],[-119.72816,54.6629],[-119.73232,54.66524],[-119.73835,54.66688],[-119.74217,54.66967],[-119.7447,54.67038],[-119.74956,54.6716],[-119.75288,54.67274],[-119.75384,54.6756],[-119.76035,54.67578],[-119.76475,54.67591],[-119.76634,54.67687],[-119.76656,54.68007],[-119.76824,54.68225],[-119.77331,54.68379],[-119.77688,54.68581],[-119.77846,54.68655],[-119.77855,54.6866],[-119.77845,54.68664],[-119.77582,54.69114],[-119.77605,54.69153],[-119.78047,54.69888],[-119.78677,54.70488],[-119.7939,54.70573],[-119.80569,54.7058],[-119.81627,54.70556],[-119.82526,54.70774],[-119.83364,54.70959],[-119.84319,54.71141],[-119.85185,54.70882],[-119.86346,54.71469],[-119.87493,54.71851],[-119.88039,54.72077],[-119.89188,54.72493],[-119.89742,54.72821],[-119.89955,54.73327],[-119.9086,54.73613],[-119.91638,54.73765],[-119.93342,54.73689],[-119.94051,54.73706]]]},"properties":{"ZONE":"Grizzly bear","TYPE":"Core","ACRES10TM":2852628.3777519302,"HA10TM":1154417.74712259,"OBJECTID":5}}]}