<?xml version="1.0" encoding="UTF-8"?>
<kml xmlns="http://www.opengis.net/kml/2.2"><Document><name>Caw Ridge</name>
<Placemark><name>Waypoint</name><description>Where you need to get to: the Caw Ridge turnoff on Beaverdam Road, where the old road to the ridge leaves the gravel.</description><Point><coordinates>-119.324028,54.095806,1285</coordinates></Point></Placemark>
<Placemark><name>Ridge point</name><description>The first point this guide was built on, high on the ridge in open alpine. It sits in a bowl with a short view.</description><Point><coordinates>-119.390728,54.062707,1991</coordinates></Point></Placemark>
<Placemark><name>G1 glassing point</name><description>Sees 6.8 km2 of open ground within 3 km. 6.6 km from the waypoint, bearing 222 true.</description><Point><coordinates>-119.391739,54.052100,2026</coordinates></Point></Placemark>
<Placemark><name>G2 glassing point</name><description>Sees 5.4 km2 of open ground within 3 km. 6.9 km from the waypoint, bearing 167 true.</description><Point><coordinates>-119.300867,54.035116,1877</coordinates></Point></Placemark>
<Placemark><name>G3 glassing point</name><description>Sees 5.3 km2 of open ground within 3 km. 7.5 km from the waypoint, bearing 212 true.</description><Point><coordinates>-119.384855,54.038891,2062</coordinates></Point></Placemark>
<Placemark><name>G4 glassing point</name><description>Sees 5.0 km2 of open ground within 3 km. 8.0 km from the waypoint, bearing 186 true.</description><Point><coordinates>-119.336665,54.024598,2163</coordinates></Point></Placemark>
<Placemark><name>G5 glassing point</name><description>Sees 5.0 km2 of open ground within 3 km. 5.3 km from the waypoint, bearing 178 true.</description><Point><coordinates>-119.321520,54.047787,1920</coordinates></Point></Placemark>
<Placemark><name>G6 glassing point</name><description>Sees 4.5 km2 of open ground within 3 km. 8.0 km from the waypoint, bearing 235 true.</description><Point><coordinates>-119.424783,54.055065,2017</coordinates></Point></Placemark>
<Placemark><name>G7 glassing point</name><description>Sees 3.0 km2 of open ground within 3 km. 9.6 km from the waypoint, bearing 224 true.</description><Point><coordinates>-119.426160,54.034037,2021</coordinates></Point></Placemark>
<Placemark><name>G8 glassing point</name><description>Sees 2.8 km2 of open ground within 3 km. 9.2 km from the waypoint, bearing 251 true.</description><Point><coordinates>-119.457369,54.068807,2020</coordinates></Point></Placemark>
<Placemark><name>S1 saddle</name><description>A gap in the ridge at 1491 m. The ridge rises 56 m beyond it. Crossed on a line running south-east to north-west. In timber.</description><Point><coordinates>-119.325650,54.073657,1491</coordinates></Point></Placemark>
<Placemark><name>S2 saddle</name><description>A gap in the ridge at 1588 m. The ridge rises 154 m beyond it. Crossed on a line running east to west. In timber.</description><Point><coordinates>-119.367415,54.090086,1588</coordinates></Point></Placemark>
<Placemark><name>S3 saddle</name><description>A gap in the ridge at 1274 m. The ridge rises 102 m beyond it. Crossed on a line running south-east to north-west. In timber.</description><Point><coordinates>-119.314635,54.122119,1274</coordinates></Point></Placemark>
<Placemark><name>S4 saddle</name><description>A gap in the ridge at 2000 m. The ridge rises 72 m beyond it. Crossed on a line running north-east to south-west. Open ground.</description><Point><coordinates>-119.390362,54.068269,2000</coordinates></Point></Placemark>
<Placemark><name>S5 saddle</name><description>A gap in the ridge at 1957 m. The ridge rises 215 m beyond it. Crossed on a line running north-east to south-west. Open ground.</description><Point><coordinates>-119.358236,54.046978,1957</coordinates></Point></Placemark>
<Placemark><name>S6 saddle</name><description>A gap in the ridge at 2060 m. The ridge rises 81 m beyond it. Crossed on a line running south-east to north-west. Open ground.</description><Point><coordinates>-119.422947,54.075542,2060</coordinates></Point></Placemark>
<Placemark><name>S7 saddle</name><description>A gap in the ridge at 2039 m. The ridge rises 114 m beyond it. Crossed on a line running east to west. Open ground.</description><Point><coordinates>-119.352269,54.033498,2039</coordinates></Point></Placemark>
<Placemark><name>S8 saddle</name><description>A gap in the ridge at 2059 m. The ridge rises 53 m beyond it. Crossed on a line running north to south. Open ground.</description><Point><coordinates>-119.432126,54.083354,2059</coordinates></Point></Placemark>
<Placemark><name>S9 saddle</name><description>A gap in the ridge at 1488 m. The ridge rises 127 m beyond it. Crossed on a line running east to west. In timber.</description><Point><coordinates>-119.432126,54.117275,1488</coordinates></Point></Placemark>
<Placemark><name>S10 saddle</name><description>A gap in the ridge at 2045 m. The ridge rises 127 m beyond it. Crossed on a line running east to west. Open ground.</description><Point><coordinates>-119.443600,54.082546,2045</coordinates></Point></Placemark>
<Placemark><name>S11 saddle</name><description>A gap in the ridge at 1748 m. The ridge rises 268 m beyond it. Crossed on a line running south-east to north-west. Open ground.</description><Point><coordinates>-119.300867,54.023789,1748</coordinates></Point></Placemark>
<Placemark><name>S12 saddle</name><description>A gap in the ridge at 1853 m. The ridge rises 215 m beyond it. Crossed on a line running north to south. In timber.</description><Point><coordinates>-119.467925,54.092241,1853</coordinates></Point></Placemark>
<Placemark><name>S13 saddle</name><description>A gap in the ridge at 1700 m. The ridge rises 378 m beyond it. Crossed on a line running south-east to north-west. Open ground.</description><Point><coordinates>-119.446354,54.037542,1700</coordinates></Point></Placemark>
<Placemark><name>S14 saddle</name><description>A gap in the ridge at 1782 m. The ridge rises 202 m beyond it. Crossed on a line running east to west. In timber.</description><Point><coordinates>-119.462876,54.030262,1782</coordinates></Point></Placemark>
<Placemark><name>Point 2219</name><description>An unnamed top of 2219 m, standing 586 m above the gap that joins it to higher ground.</description><Point><coordinates>-119.413768,54.066652,2219</coordinates></Point></Placemark>
<Placemark><name>Point 2016</name><description>An unnamed top of 2016 m, standing 268 m above the gap that joins it to higher ground.</description><Point><coordinates>-119.292606,54.031610,2016</coordinates></Point></Placemark>
<Placemark><name>Point 2172</name><description>An unnamed top of 2172 m, standing 215 m above the gap that joins it to higher ground.</description><Point><coordinates>-119.338042,54.024598,2172</coordinates></Point></Placemark>
<Placemark><name>Point 1984</name><description>An unnamed top of 1984 m, standing 202 m above the gap that joins it to higher ground.</description><Point><coordinates>-119.468842,54.038621,1984</coordinates></Point></Placemark>
<Placemark><name>Point 1742</name><description>An unnamed top of 1742 m, standing 154 m above the gap that joins it to higher ground.</description><Point><coordinates>-119.372004,54.101126,1742</coordinates></Point></Placemark>
<Placemark><name>Point 2172</name><description>An unnamed top of 2172 m, standing 127 m above the gap that joins it to higher ground.</description><Point><coordinates>-119.450484,54.079314,2172</coordinates></Point></Placemark>
<Placemark><name>Point 1615</name><description>An unnamed top of 1615 m, standing 127 m above the gap that joins it to higher ground.</description><Point><coordinates>-119.405507,54.119428,1615</coordinates></Point></Placemark>
<Placemark><name>Point 2153</name><description>An unnamed top of 2153 m, standing 114 m above the gap that joins it to higher ground.</description><Point><coordinates>-119.365120,54.035925,2153</coordinates></Point></Placemark>
<Placemark><name>Point 1665</name><description>An unnamed top of 1665 m, standing 105 m above the gap that joins it to higher ground.</description><Point><coordinates>-119.304080,54.091433,1665</coordinates></Point></Placemark>
<Placemark><name>Point 1376</name><description>An unnamed top of 1376 m, standing 102 m above the gap that joins it to higher ground.</description><Point><coordinates>-119.309587,54.125079,1376</coordinates></Point></Placemark>
<Placemark><name>Point 2140</name><description>An unnamed top of 2140 m, standing 81 m above the gap that joins it to higher ground.</description><Point><coordinates>-119.429373,54.072579,2140</coordinates></Point></Placemark>
<Placemark><name>Point 2072</name><description>An unnamed top of 2072 m, standing 72 m above the gap that joins it to higher ground.</description><Point><coordinates>-119.385773,54.062880,2072</coordinates></Point></Placemark>
<Placemark><name>Point 1594</name><description>An unnamed top of 1594 m, standing 69 m above the gap that joins it to higher ground.</description><Point><coordinates>-119.452320,54.109740,1594</coordinates></Point></Placemark>
<Placemark><name>Point 1547</name><description>An unnamed top of 1547 m, standing 56 m above the gap that joins it to higher ground.</description><Point><coordinates>-119.329781,54.081199,1547</coordinates></Point></Placemark>
<Placemark><name>End of mapped track</name><description>Where the track drawn in OpenStreetMap stops. Riders report old roads along most of the ridge line.</description><Point><coordinates>-119.389988,54.068003,2002</coordinates></Point></Placemark>
<Placemark><name>Beaverdam Road turnoff</name><description>Leave Highway 40 here, 8 km north of Grande Cache. The road crosses coal mine property: stay on Beaverdam Road.</description><Point><coordinates>-119.176448,53.924359,973</coordinates></Point></Placemark>
<Placemark><name>Grande Cache</name><description>Fuel, groceries, lodging, tourism centre. Last services.</description><Point><coordinates>-119.118600,53.888100,1257</coordinates></Point></Placemark>
<Placemark><name>Grande Cache hospital</name><description>Grande Cache Community Health Complex, 10200 Shand Avenue. Emergency department open 24 hours. Helipad.</description><Point><coordinates>-119.118909,53.890938,1261</coordinates></Point></Placemark>
<Placemark><name>Fuel: Fas Gas</name><description>Fuel in Grande Cache.</description><Point><coordinates>-119.113488,53.888584,1260</coordinates></Point></Placemark>
<Placemark><name>Fuel: Petro-Canada</name><description>Fuel in Grande Cache.</description><Point><coordinates>-119.115951,53.891731,1266</coordinates></Point></Placemark>
<Placemark><name>Sheep Creek campground</name><description>Provincial recreation area on Highway 40, 25 km north of Grande Cache. Boat launch.</description><Point><coordinates>-119.011219,54.062174,902</coordinates></Point></Placemark>
<Placemark><name>Smoky River South campground</name><description>Provincial recreation area, 22 unserviced sites. Usually open to Thanksgiving.</description><Point><coordinates>-119.158516,53.890360,961</coordinates></Point></Placemark>
<Placemark><name>Sulphur Gates campground</name><description>Provincial recreation area and Willmore staging. 11 sites, open all year. Firearm discharge permit rules apply here.</description><Point><coordinates>-119.186183,53.850132,1011</coordinates></Point></Placemark>
<Placemark><name>Drive from Grande Cache</name><Style><LineStyle><color>ff1b59e0</color><width>3</width></LineStyle></Style><LineString><tessellate>1</tessellate><coordinates>-119.118522,53.888175,0 -119.118862,53.888751,0 -119.119399,53.889633,0 -119.119178,53.889687,0 -119.118297,53.889884,0 -119.117965,53.889958,0 -119.118302,53.890577,0 -119.118420,53.890793,0 -119.117612,53.890959,0 -119.116721,53.891142,0 -119.116496,53.891191,0 -119.117474,53.892434,0 -119.117626,53.892674,0 -119.117768,53.893001,0 -119.117895,53.893293,0 -119.118328,53.893951,0 -119.118822,53.894686,0 -119.118822,53.894686,0 -119.119154,53.895099,0 -119.119627,53.895688,0 -119.119983,53.896132,0 -119.120450,53.896605,0 -119.121092,53.897051,0 -119.121594,53.897301,0 -119.122195,53.897585,0 -119.122676,53.897782,0 -119.123395,53.898021,0 -119.123509,53.898052,0 -119.124019,53.898190,0 -119.124662,53.898348,0 -119.125354,53.898458,0 -119.126052,53.898545,0 -119.126725,53.898613,0 -119.127435,53.898649,0 -119.128235,53.898640,0 -119.128943,53.898589,0 -119.129688,53.898501,0 -119.130174,53.898422,0 -119.130626,53.898326,0 -119.130991,53.898249,0 -119.131671,53.898039,0 -119.132262,53.897866,0 -119.132382,53.897813,0 -119.132683,53.897679,0 -119.132967,53.897554,0 -119.134121,53.896985,0 -119.135821,53.896063,0 -119.138355,53.894703,0 -119.140472,53.893563,0 -119.141313,53.893116,0 -119.142541,53.892573,0 -119.143599,53.892164,0 -119.144558,53.891793,0 -119.146369,53.891088,0 -119.147264,53.890721,0 -119.147753,53.890485,0 -119.148215,53.890219,0 -119.148288,53.890176,0 -119.148960,53.889837,0 -119.149700,53.889315,0 -119.150747,53.888562,0 -119.151827,53.887719,0 -119.152529,53.887042,0 -119.152915,53.886756,0 -119.153329,53.886432,0 -119.153629,53.886218,0 -119.153968,53.886023,0 -119.154378,53.885810,0 -119.154840,53.885632,0 -119.155398,53.885438,0 -119.155989,53.885302,0 -119.156654,53.885183,0 -119.157566,53.885082,0 -119.158517,53.885057,0 -119.159358,53.885119,0 -119.160104,53.885230,0 -119.160832,53.885381,0 -119.161413,53.885551,0 -119.162328,53.885908,0 -119.162770,53.886180,0 -119.163158,53.886470,0 -119.163466,53.886802,0 -119.163673,53.887116,0 -119.163844,53.887472,0 -119.163948,53.887769,0 -119.164044,53.888137,0 -119.164184,53.888870,0 -119.164551,53.890779,0 -119.164850,53.892336,0 -119.165024,53.893476,0 -119.165162,53.894613,0 -119.165194,53.895674,0 -119.165089,53.896691,0 -119.164905,53.897744,0 -119.164810,53.898386,0 -119.164789,53.899048,0 -119.164878,53.899646,0 -119.165063,53.900283,0 -119.165277,53.900892,0 -119.165496,53.901350,0 -119.166002,53.902092,0 -119.166510,53.902678,0 -119.166855,53.903059,0 -119.167828,53.903954,0 -119.169461,53.905628,0 -119.170306,53.906525,0 -119.170719,53.906949,0 -119.170941,53.907164,0 -119.171239,53.907564,0 -119.171491,53.907909,0 -119.171768,53.908479,0 -119.172144,53.909465,0 -119.172198,53.909606,0 -119.172873,53.911858,0 -119.173485,53.913884,0 -119.174678,53.917958,0 -119.175544,53.920953,0 -119.176175,53.923281,0 -119.176448,53.924359,0 -119.176448,53.924359,0 -119.176749,53.924334,0 -119.178046,53.924679,0 -119.178131,53.924839,0 -119.178336,53.925555,0 -119.178345,53.926031,0 -119.178266,53.926563,0 -119.178107,53.927024,0 -119.178058,53.927538,0 -119.178102,53.927807,0 -119.178262,53.927939,0 -119.178446,53.927962,0 -119.178896,53.927540,0 -119.179732,53.926923,0 -119.183434,53.925471,0 -119.184849,53.924574,0 -119.185545,53.924480,0 -119.187295,53.924448,0 -119.187795,53.924403,0 -119.189466,53.924022,0 -119.191647,53.924369,0 -119.191875,53.924643,0 -119.191539,53.924928,0 -119.190824,53.925238,0 -119.190495,53.925648,0 -119.190279,53.926165,0 -119.190415,53.926441,0 -119.191061,53.926843,0 -119.191509,53.927257,0 -119.191585,53.927552,0 -119.191508,53.927823,0 -119.191503,53.928309,0 -119.191636,53.928801,0 -119.192217,53.929438,0 -119.192613,53.929718,0 -119.193915,53.930441,0 -119.194654,53.930589,0 -119.196292,53.930739,0 -119.196556,53.930824,0 -119.197338,53.931223,0 -119.198100,53.931515,0 -119.199148,53.931738,0 -119.200878,53.931913,0 -119.203532,53.932557,0 -119.204897,53.932721,0 -119.206264,53.932651,0 -119.206938,53.932719,0 -119.207417,53.932836,0 -119.209067,53.933498,0 -119.209866,53.934211,0 -119.210277,53.934483,0 -119.210974,53.934703,0 -119.212671,53.935113,0 -119.213527,53.935439,0 -119.214749,53.935803,0 -119.216307,53.936151,0 -119.217103,53.936227,0 -119.218030,53.936461,0 -119.218512,53.936650,0 -119.219239,53.936861,0 -119.220036,53.937224,0 -119.220590,53.937628,0 -119.221961,53.938196,0 -119.223015,53.938536,0 -119.225060,53.939442,0 -119.225616,53.939584,0 -119.226553,53.939729,0 -119.227324,53.939903,0 -119.230061,53.940652,0 -119.230862,53.940817,0 -119.231767,53.940927,0 -119.235766,53.941059,0 -119.236211,53.941114,0 -119.236922,53.941298,0 -119.237074,53.941295,0 -119.238031,53.941511,0 -119.238768,53.941623,0 -119.240685,53.942136,0 -119.242952,53.942921,0 -119.245334,53.943577,0 -119.247670,53.944522,0 -119.248533,53.944983,0 -119.250612,53.946230,0 -119.252131,53.947271,0 -119.252629,53.947738,0 -119.252860,53.948066,0 -119.253520,53.949410,0 -119.254041,53.950471,0 -119.254235,53.951232,0 -119.254188,53.952617,0 -119.254242,53.953057,0 -119.254735,53.954288,0 -119.254968,53.954652,0 -119.255177,53.954855,0 -119.255701,53.955232,0 -119.260059,53.957748,0 -119.261057,53.958449,0 -119.263031,53.959994,0 -119.263657,53.960566,0 -119.264521,53.961044,0 -119.267863,53.961952,0 -119.268511,53.962084,0 -119.269414,53.962157,0 -119.270095,53.962054,0 -119.270226,53.961974,0 -119.270582,53.961757,0 -119.270753,53.961538,0 -119.270860,53.960709,0 -119.270716,53.960307,0 -119.270217,53.959534,0 -119.270189,53.959023,0 -119.270267,53.958769,0 -119.271054,53.957541,0 -119.271687,53.956288,0 -119.271975,53.955977,0 -119.272814,53.955431,0 -119.273112,53.955299,0 -119.273742,53.955126,0 -119.274862,53.954978,0 -119.275408,53.954932,0 -119.276034,53.954938,0 -119.277214,53.955132,0 -119.278824,53.955751,0 -119.280388,53.956970,0 -119.281313,53.958781,0 -119.282364,53.960296,0 -119.283778,53.962462,0 -119.284358,53.963774,0 -119.283929,53.965201,0 -119.283263,53.965958,0 -119.283092,53.967221,0 -119.282770,53.969063,0 -119.281482,53.970527,0 -119.280495,53.971588,0 -119.279637,53.972850,0 -119.278564,53.974086,0 -119.277815,53.974723,0 -119.277062,53.975336,0 -119.276204,53.975904,0 -119.276290,53.976535,0 -119.275667,53.977077,0 -119.275152,53.977721,0 -119.273843,53.978175,0 -119.273350,53.978996,0 -119.273328,53.979475,0 -119.272577,53.979791,0 -119.271249,53.980011,0 -119.269874,53.980649,0 -119.268565,53.981406,0 -119.266913,53.982213,0 -119.266312,53.982806,0 -119.265689,53.983525,0 -119.264252,53.984636,0 -119.262237,53.985891,0 -119.260883,53.987071,0 -119.260239,53.988181,0 -119.259145,53.989380,0 -119.258222,53.989947,0 -119.257342,53.990200,0 -119.256077,53.990162,0 -119.254210,53.990225,0 -119.252815,53.990982,0 -119.251527,53.991890,0 -119.250111,53.992483,0 -119.248096,53.992981,0 -119.247238,53.992854,0 -119.246142,53.992950,0 -119.245197,53.993379,0 -119.243781,53.994262,0 -119.241356,53.995889,0 -119.239855,53.997188,0 -119.238546,53.998374,0 -119.237258,53.998866,0 -119.236786,53.999572,0 -119.235112,54.001035,0 -119.234340,54.002057,0 -119.234147,54.002662,0 -119.233396,54.003570,0 -119.233119,54.003866,0 -119.232870,54.004036,0 -119.232194,54.004194,0 -119.231497,54.004377,0 -119.230887,54.004439,0 -119.229190,54.005039,0 -119.227795,54.005568,0 -119.227357,54.005745,0 -119.226325,54.006199,0 -119.224876,54.006913,0 -119.224554,54.007266,0 -119.224377,54.008420,0 -119.223889,54.008959,0 -119.222371,54.009920,0 -119.221035,54.010778,0 -119.220424,54.011090,0 -119.219791,54.011345,0 -119.219421,54.011626,0 -119.219265,54.012319,0 -119.219324,54.012991,0 -119.219678,54.013829,0 -119.219399,54.014595,0 -119.219126,54.015194,0 -119.218621,54.015607,0 -119.218037,54.016045,0 -119.217881,54.016306,0 -119.217862,54.016434,0 -119.217602,54.016801,0 -119.217157,54.016931,0 -119.216572,54.017274,0 -119.215623,54.018213,0 -119.215183,54.019320,0 -119.214797,54.020514,0 -119.214797,54.020728,0 -119.214888,54.020908,0 -119.216112,54.021171,0 -119.219431,54.021951,0 -119.221894,54.022696,0 -119.224238,54.023543,0 -119.225392,54.023717,0 -119.227227,54.024121,0 -119.228782,54.024442,0 -119.229860,54.024642,0 -119.230622,54.024639,0 -119.231727,54.024756,0 -119.234082,54.025444,0 -119.236046,54.025917,0 -119.239350,54.026780,0 -119.240724,54.027253,0 -119.241378,54.027625,0 -119.242364,54.028553,0 -119.243330,54.029316,0 -119.244092,54.030595,0 -119.244424,54.030979,0 -119.244853,54.031193,0 -119.245690,54.031609,0 -119.246270,54.032249,0 -119.246570,54.032655,0 -119.247064,54.033021,0 -119.248341,54.033800,0 -119.249998,54.034927,0 -119.250545,54.035255,0 -119.251312,54.035469,0 -119.252111,54.035859,0 -119.258345,54.040005,0 -119.262197,54.042386,0 -119.264986,54.043936,0 -119.267615,54.045568,0 -119.269288,54.046740,0 -119.270726,54.047470,0 -119.271080,54.047785,0 -119.271144,54.048144,0 -119.271295,54.050097,0 -119.271681,54.050519,0 -119.272207,54.050840,0 -119.274331,54.051753,0 -119.275844,54.052182,0 -119.277056,54.052389,0 -119.278751,54.052975,0 -119.279856,54.053183,0 -119.281240,54.053863,0 -119.282968,54.054279,0 -119.283107,54.054449,0 -119.283611,54.055161,0 -119.284373,54.055450,0 -119.285725,54.055948,0 -119.286562,54.056471,0 -119.290435,54.058032,0 -119.291347,54.058341,0 -119.292538,54.058964,0 -119.293696,54.059248,0 -119.294598,54.059279,0 -119.295907,54.059500,0 -119.296582,54.059708,0 -119.297478,54.059852,0 -119.299372,54.060029,0 -119.299860,54.060139,0 -119.300466,54.060410,0 -119.303336,54.061839,0 -119.305525,54.063039,0 -119.305584,54.063183,0 -119.305562,54.063618,0 -119.305337,54.064414,0 -119.305412,54.064761,0 -119.305788,54.065239,0 -119.305933,54.065634,0 -119.305960,54.065746,0 -119.306022,54.065898,0 -119.306582,54.066901,0 -119.306866,54.067119,0 -119.307601,54.067462,0 -119.308770,54.067795,0 -119.309538,54.068186,0 -119.310482,54.068992,0 -119.310820,54.069297,0 -119.311302,54.069552,0 -119.312257,54.070600,0 -119.312316,54.070865,0 -119.312134,54.071784,0 -119.312220,54.072117,0 -119.312531,54.072832,0 -119.312617,54.074220,0 -119.312574,54.075177,0 -119.312434,54.076086,0 -119.312515,54.076363,0 -119.313293,54.077430,0 -119.313320,54.077714,0 -119.313561,54.078019,0 -119.314140,54.078670,0 -119.314543,54.080159,0 -119.314682,54.080596,0 -119.314854,54.080892,0 -119.315181,54.081172,0 -119.315691,54.081547,0 -119.315868,54.081764,0 -119.316538,54.083133,0 -119.317166,54.084262,0 -119.317246,54.084722,0 -119.317375,54.085033,0 -119.318249,54.086264,0 -119.318341,54.086663,0 -119.318249,54.087120,0 -119.318185,54.087790,0 -119.318271,54.088224,0 -119.318512,54.088765,0 -119.318920,54.089266,0 -119.319295,54.089505,0 -119.319837,54.089718,0 -119.321216,54.090071,0 -119.321538,54.090187,0 -119.321752,54.090404,0 -119.322005,54.090788,0 -119.322101,54.091301,0 -119.322101,54.091625,0 -119.322037,54.091965,0 -119.322096,54.092125,0 -119.322342,54.092295,0 -119.323576,54.092899,0 -119.323769,54.093043,0 -119.324005,54.093274,0 -119.324048,54.093463,0 -119.324005,54.093689,0 -119.323828,54.094063,0 -119.323769,54.094664,0 -119.323791,54.095086,0 -119.323804,54.095242,0 -119.323930,54.095806,0 </coordinates></LineString></Placemark>
<Placemark><name>Computed walking line</name><Style><LineStyle><color>ff1e26d7</color><width>3</width></LineStyle></Style><LineString><tessellate>1</tessellate><coordinates>-119.389988,54.068003,0 -119.389444,54.067460,0 -119.389444,54.067191,0 -119.389444,54.066921,0 -119.389444,54.066652,0 -119.389444,54.066383,0 -119.389444,54.066113,0 -119.389903,54.065574,0 -119.389903,54.065305,0 -119.389903,54.065035,0 -119.389903,54.064766,0 -119.389903,54.064496,0 -119.389903,54.064227,0 -119.389903,54.063958,0 -119.389903,54.063688,0 -119.389903,54.063419,0 -119.390362,54.062880,0 -119.390821,54.062610,0 -119.390728,54.062707,0 </coordinates></LineString></Placemark>
</Document></kml>
