{"features":[{"geometry":{"coordinates":[-119.390728,54.062707],"type":"Point"},"properties":{"elevation_m":1991.0,"kind":"waypoint","name":"Waypoint","note":"The point this guide is built around. It sits in a high bowl with a short view."},"type":"Feature"},{"geometry":{"coordinates":[-119.39173890872004,54.05209977514181],"type":"Point"},"properties":{"elevation_m":2026.0,"kind":"glassing","name":"G1 glassing point","note":"Sees 6.8 km2 of open ground within 3 km. 1.2 km from the waypoint, bearing 183 true."},"type":"Feature"},{"geometry":{"coordinates":[-119.33666496685366,54.02486809713517],"type":"Point"},"properties":{"elevation_m":2160.0,"kind":"glassing","name":"G2 glassing point","note":"Sees 6.4 km2 of open ground within 3 km. 5.5 km from the waypoint, bearing 140 true."},"type":"Feature"},{"geometry":{"coordinates":[-119.32106068332482,54.047517473966664],"type":"Point"},"properties":{"elevation_m":1918.0,"kind":"glassing","name":"G3 glassing point","note":"Sees 5.5 km2 of open ground within 3 km. 4.9 km from the waypoint, bearing 110 true."},"type":"Feature"},{"geometry":{"coordinates":[-119.32289648138703,54.021631464492415],"type":"Point"},"properties":{"elevation_m":2008.0,"kind":"glassing","name":"G4 glassing point","note":"Sees 4.9 km2 of open ground within 3 km. 6.4 km from the waypoint, bearing 136 true."},"type":"Feature"},{"geometry":{"coordinates":[-119.38898521162675,54.04104748257695],"type":"Point"},"properties":{"elevation_m":1950.0,"kind":"glassing","name":"G5 glassing point","note":"Sees 4.6 km2 of open ground within 3 km. 2.4 km from the waypoint, bearing 177 true."},"type":"Feature"},{"geometry":{"coordinates":[-119.42478327383989,54.05506452427677],"type":"Point"},"properties":{"elevation_m":2017.0,"kind":"glassing","name":"G6 glassing point","note":"Sees 4.5 km2 of open ground within 3 km. 2.4 km from the waypoint, bearing 249 true."},"type":"Feature"},{"geometry":{"coordinates":[-119.42616012238653,54.03403718855988],"type":"Point"},"properties":{"elevation_m":2021.0,"kind":"glassing","name":"G7 glassing point","note":"Sees 3.0 km2 of open ground within 3 km. 3.9 km from the waypoint, bearing 216 true."},"type":"Feature"},{"geometry":{"coordinates":[-119.45736868944415,54.06880741516695],"type":"Point"},"properties":{"elevation_m":2020.0,"kind":"glassing","name":"G8 glassing point","note":"Sees 2.8 km2 of open ground within 3 km. 4.4 km from the waypoint, bearing 279 true."},"type":"Feature"},{"geometry":{"coordinates":[-119.3899884,54.0680032],"type":"Point"},"properties":{"elevation_m":2002.0,"kind":"road","name":"End of mapped track","note":"Where the track drawn in OpenStreetMap stops. Riders report old roads along most of the ridge line."},"type":"Feature"},{"geometry":{"coordinates":[-119.3239303,54.0958062],"type":"Point"},"properties":{"elevation_m":1284.0,"kind":"road","name":"Caw Ridge turnoff","note":"Leave the gravel here. 8.1 km of old exploration road climbs to the ridge. A staging area is reported at the turnoff."},"type":"Feature"},{"geometry":{"coordinates":[-119.1764484,53.9243588],"type":"Point"},"properties":{"elevation_m":973.0,"kind":"road","name":"Beaverdam Road turnoff","note":"Leave Highway 40 here, 8 km north of Grande Cache. The road crosses coal mine property: stay on Beaverdam Road."},"type":"Feature"},{"geometry":{"coordinates":[-119.1186,53.8881],"type":"Point"},"properties":{"elevation_m":1257.0,"kind":"service","name":"Grande Cache","note":"Fuel, groceries, lodging, tourism centre. Last services."},"type":"Feature"},{"geometry":{"coordinates":[-119.1189092,53.890938],"type":"Point"},"properties":{"elevation_m":1261.0,"kind":"service","name":"Grande Cache hospital","note":"Grande Cache Community Health Complex, 10200 Shand Avenue. Emergency department open 24 hours. Helipad."},"type":"Feature"},{"geometry":{"coordinates":[-119.1134877,53.8885839],"type":"Point"},"properties":{"elevation_m":1260.0,"kind":"service","name":"Fuel: Fas Gas","note":"Fuel in Grande Cache."},"type":"Feature"},{"geometry":{"coordinates":[-119.1159509,53.8917315],"type":"Point"},"properties":{"elevation_m":1266.0,"kind":"service","name":"Fuel: Petro-Canada","note":"Fuel in Grande Cache."},"type":"Feature"},{"geometry":{"coordinates":[-119.011219,54.062174],"type":"Point"},"properties":{"elevation_m":902.0,"kind":"camp","name":"Sheep Creek campground","note":"Provincial recreation area on Highway 40, 25 km north of Grande Cache. Boat launch."},"type":"Feature"},{"geometry":{"coordinates":[-119.158516,53.89036],"type":"Point"},"properties":{"elevation_m":961.0,"kind":"camp","name":"Smoky River South campground","note":"Provincial recreation area, 22 unserviced sites. Usually open to Thanksgiving."},"type":"Feature"},{"geometry":{"coordinates":[-119.186183,53.850132],"type":"Point"},"properties":{"elevation_m":1011.0,"kind":"camp","name":"Sulphur Gates campground","note":"Provincial recreation area and Willmore staging. 11 sites, open all year. Firearm discharge permit rules apply here."},"type":"Feature"},{"geometry":{"coordinates":[[-119.1185216,53.8881749],[-119.1188624,53.8887507],[-119.1193988,53.8896328],[-119.119178,53.8896874],[-119.1182975,53.8898836],[-119.1179648,53.8899577],[-119.1183024,53.8905771],[-119.1184202,53.8907933],[-119.1176121,53.890959],[-119.1167214,53.8911416],[-119.1164965,53.8911912],[-119.1174744,53.8924335],[-119.1176257,53.8926739],[-119.1177679,53.8930008],[-119.117895,53.8932929],[-119.1183282,53.8939508],[-119.1188225,53.8946864]],"type":"LineString"},"properties":{"kind":"drive-town","km":0.9,"name":"Shand Avenue West"},"type":"Feature"},{"geometry":{"coordinates":[[-119.1188225,53.8946864],[-119.119154,53.8950991],[-119.1196266,53.8956876],[-119.1199831,53.896132],[-119.1204503,53.8966053],[-119.1210919,53.8970509],[-119.1215937,53.8973006],[-119.1221948,53.8975851],[-119.1226759,53.8977816],[-119.1233954,53.8980206],[-119.1235092,53.8980515],[-119.124019,53.8981897],[-119.1246622,53.8983481],[-119.1253542,53.8984581],[-119.1260516,53.898545],[-119.1267248,53.8986134],[-119.1274345,53.8986487],[-119.1282354,53.89864],[-119.1289433,53.8985894],[-119.1296878,53.8985006],[-119.1301739,53.8984221],[-119.1306257,53.8983262],[-119.1309906,53.8982487],[-119.1316711,53.8980391],[-119.1322617,53.8978656],[-119.1323818,53.8978125],[-119.1326832,53.8976791],[-119.1329671,53.8975535],[-119.1341213,53.8969853],[-119.135821,53.8960628],[-119.1383554,53.8947029],[-119.1404717,53.8935634],[-119.1413131,53.893116],[-119.142541,53.8925732],[-119.1435986,53.8921643],[-119.1445577,53.8917935],[-119.1463693,53.8910882],[-119.1472636,53.8907207],[-119.1477528,53.8904853],[-119.148215,53.8902188],[-119.1482884,53.8901764],[-119.1489603,53.8898367],[-119.1496998,53.8893154],[-119.1507472,53.8885625],[-119.1518273,53.8877188],[-119.152529,53.8870422],[-119.1529153,53.8867561],[-119.153329,53.8864322],[-119.1536292,53.8862184],[-119.1539677,53.8860229],[-119.1543783,53.8858098],[-119.1548403,53.8856322],[-119.155398,53.8854385],[-119.1559887,53.8853018],[-119.1566536,53.8851826],[-119.1575662,53.8850822],[-119.1585172,53.8850574],[-119.1593577,53.8851194],[-119.1601041,53.8852302],[-119.1608322,53.8853812],[-119.1614134,53.8855513],[-119.1623279,53.8859078],[-119.1627702,53.88618],[-119.1631581,53.8864703],[-119.163466,53.886802],[-119.163673,53.8871156],[-119.1638443,53.8874719],[-119.1639481,53.8877691],[-119.1640435,53.8881365],[-119.1641843,53.8888699],[-119.1645509,53.8907789],[-119.1648502,53.892336],[-119.1650242,53.8934761],[-119.1651618,53.8946134],[-119.1651941,53.8956743],[-119.1650893,53.8966908],[-119.164905,53.8977439],[-119.1648103,53.8983862],[-119.1647894,53.8990477],[-119.1648776,53.8996459],[-119.1650627,53.9002831],[-119.1652767,53.900892],[-119.1654956,53.9013505],[-119.166002,53.9020916],[-119.16651,53.9026784],[-119.166855,53.9030587],[-119.1678275,53.9039541],[-119.169461,53.9056283],[-119.1703056,53.9065252],[-119.1707189,53.9069486],[-119.1709407,53.9071635],[-119.1712385,53.9075639],[-119.1714906,53.9079087],[-119.1717679,53.9084791],[-119.1721437,53.9094647],[-119.1721976,53.9096063],[-119.1728733,53.9118581],[-119.1734851,53.9138839],[-119.1746781,53.9179585],[-119.1755439,53.9209534],[-119.1761748,53.9232807],[-119.1764484,53.9243588]],"type":"LineString"},"properties":{"kind":"drive-highway","km":8.1,"name":"Bighorn Highway"},"type":"Feature"},{"geometry":{"coordinates":[[-119.1764484,53.9243588],[-119.1767488,53.9243341],[-119.1780462,53.9246792],[-119.1781308,53.9248394],[-119.1783356,53.9255549],[-119.1783451,53.9260312],[-119.1782662,53.9265631],[-119.1781075,53.9270244],[-119.178058,53.9275378],[-119.1781025,53.9278067],[-119.1782617,53.9279386],[-119.1784457,53.9279622],[-119.178896,53.9275405],[-119.1797321,53.926923],[-119.1834339,53.9254713],[-119.1848492,53.9245735],[-119.185545,53.9244799],[-119.1872949,53.9244481],[-119.1877952,53.924403],[-119.189466,53.9240219],[-119.191647,53.9243687],[-119.1918746,53.9246432],[-119.1915392,53.924928],[-119.1908243,53.9252378],[-119.1904955,53.9256483],[-119.1902788,53.9261647],[-119.1904152,53.9264409],[-119.1910607,53.9268427],[-119.1915089,53.927257],[-119.1915854,53.9275523],[-119.1915082,53.9278234],[-119.1915031,53.928309],[-119.1916356,53.928801],[-119.1922173,53.9294376],[-119.1926129,53.9297181],[-119.1939152,53.9304405],[-119.1946542,53.9305888],[-119.196292,53.9307386],[-119.1965555,53.9308237],[-119.1973382,53.931223],[-119.1981,53.9315147],[-119.1991476,53.9317382],[-119.2008783,53.9319133],[-119.2035325,53.9325568],[-119.204897,53.9327206],[-119.2062644,53.9326505],[-119.2069384,53.932719],[-119.2074168,53.9328361],[-119.2090667,53.933498],[-119.2098661,53.9342114],[-119.2102766,53.9344826],[-119.2109738,53.9347035],[-119.2126714,53.9351127],[-119.2135266,53.9354386],[-119.2147495,53.9358026],[-119.2163068,53.9361514],[-119.217103,53.9362266],[-119.2180296,53.9364613],[-119.218512,53.9366501],[-119.2192393,53.9368614],[-119.2200356,53.9372243],[-119.2205903,53.9376276],[-119.2219613,53.9381956],[-119.2230154,53.9385357],[-119.2250597,53.9394417],[-119.2256158,53.9395843],[-119.226553,53.9397287],[-119.2273241,53.9399032],[-119.2300611,53.9406525],[-119.2308623,53.9408174],[-119.2317671,53.9409265],[-119.2357664,53.9410589],[-119.2362113,53.9411135],[-119.2369221,53.941298],[-119.2370743,53.9412952],[-119.2380306,53.9415111],[-119.238768,53.9416232],[-119.240685,53.9421359],[-119.2429519,53.9429206],[-119.2453339,53.9435773],[-119.2476705,53.9445225],[-119.2485334,53.9449829],[-119.2506121,53.9462295],[-119.2521313,53.9472708],[-119.2526289,53.947738],[-119.25286,53.9480663],[-119.2535199,53.9494098],[-119.2540413,53.9504715],[-119.2542347,53.951232],[-119.2541875,53.9526174],[-119.2542417,53.9530568],[-119.254735,53.9542882],[-119.254968,53.9546524],[-119.2551772,53.9548553],[-119.2557005,53.955232],[-119.2600589,53.9577482],[-119.2610572,53.9584487],[-119.2630312,53.9599937],[-119.2636568,53.9605663],[-119.2645212,53.9610445],[-119.2678634,53.9619523],[-119.2685109,53.9620839],[-119.2694143,53.9621568],[-119.2700948,53.962054],[-119.2702264,53.9619737],[-119.2705817,53.9617571],[-119.2707528,53.9615381],[-119.2708601,53.960709],[-119.2707163,53.9603072],[-119.270217,53.9595345],[-119.2701892,53.9590226],[-119.2702669,53.9587694],[-119.2710537,53.9575408],[-119.2716868,53.9562882],[-119.2719748,53.9559771],[-119.2728139,53.9554308],[-119.2731116,53.9552993],[-119.2737424,53.9551255],[-119.2748623,53.9549784],[-119.2754085,53.9549321],[-119.2760338,53.9549383],[-119.2772144,53.9551321],[-119.2788238,53.9557508],[-119.280388,53.9569698],[-119.2813128,53.9587809],[-119.2823643,53.9602959],[-119.2837783,53.9624616],[-119.2843577,53.9637744],[-119.2839285,53.9652008],[-119.2832634,53.9659582],[-119.2830917,53.9672205],[-119.2827698,53.9690633],[-119.2814824,53.9705274],[-119.2804953,53.9715876],[-119.279637,53.9728497],[-119.2785641,53.9740865],[-119.2778152,53.9747232],[-119.2770621,53.9753359],[-119.2762038,53.9759038],[-119.2762896,53.9765348],[-119.2756673,53.9770774],[-119.2751524,53.977721],[-119.2738434,53.9781753],[-119.2733499,53.9789956],[-119.2733284,53.9794751],[-119.2725774,53.9797905],[-119.2712492,53.9800107],[-119.2698738,53.9806486],[-119.2685648,53.9814057],[-119.2669126,53.9822132],[-119.2663118,53.9828063],[-119.2656895,53.9835255],[-119.2642519,53.9846358],[-119.262237,53.9858906],[-119.260883,53.9870708],[-119.2602393,53.9881811],[-119.2591449,53.9893796],[-119.2582222,53.9899473],[-119.2573425,53.9901996],[-119.2560765,53.9901618],[-119.2542097,53.9902248],[-119.2528149,53.9909817],[-119.2515275,53.99189],[-119.2501112,53.9924829],[-119.2480964,53.9929806],[-119.2472381,53.9928544],[-119.2461416,53.9929497],[-119.2451974,53.9933786],[-119.2437812,53.9942616],[-119.2413565,53.9958888],[-119.2398545,53.997188],[-119.2385456,53.9983736],[-119.2372581,53.9988655],[-119.236786,53.9995718],[-119.2351123,54.0010349],[-119.2343399,54.0020565],[-119.2341467,54.0026618],[-119.2333957,54.0035699],[-119.2331189,54.0038656],[-119.23287,54.0040362],[-119.2321941,54.0041938],[-119.2314967,54.0043767],[-119.2308873,54.0044394],[-119.22919,54.0050387],[-119.2277953,54.0055684],[-119.2273575,54.0057446],[-119.2263254,54.0061989],[-119.2248763,54.0069128],[-119.2245545,54.0072659],[-119.2243774,54.0084198],[-119.2238893,54.0089588],[-119.2223711,54.0099203],[-119.2210354,54.0107777],[-119.2204239,54.0110898],[-119.2197909,54.0113452],[-119.2194207,54.0116257],[-119.2192651,54.0123192],[-119.2193242,54.0129906],[-119.2196782,54.0138291],[-119.2193993,54.014595],[-119.2191257,54.0151939],[-119.2186214,54.0156068],[-119.2180367,54.0160449],[-119.2178811,54.0163065],[-119.2178625,54.0164341],[-119.2176022,54.0168014],[-119.2171569,54.0169306],[-119.2165722,54.0172741],[-119.2156227,54.0182134],[-119.2151828,54.0193196],[-119.2147966,54.0205141],[-119.2147966,54.0207284],[-119.2148878,54.020908],[-119.2161116,54.021171],[-119.2194314,54.0219512],[-119.2218944,54.0226964],[-119.224238,54.0235426],[-119.225392,54.0237174],[-119.2272266,54.0241208],[-119.2287823,54.0244422],[-119.2298599,54.0246424],[-119.2306216,54.0246393],[-119.2317267,54.0247559],[-119.2340824,54.0254443],[-119.2360457,54.025917],[-119.2393502,54.0267804],[-119.2407235,54.027253],[-119.241378,54.0276249],[-119.2423643,54.028553],[-119.2433299,54.0293155],[-119.2440917,54.0305947],[-119.2444243,54.0309791],[-119.2448534,54.0311934],[-119.2456903,54.0316093],[-119.2462696,54.0322489],[-119.24657,54.0326553],[-119.2470636,54.0330208],[-119.248341,54.0338004],[-119.2499979,54.0349269],[-119.2505451,54.0352545],[-119.2513122,54.0354688],[-119.2521115,54.0358594],[-119.2583449,54.0400051],[-119.2621966,54.0423865],[-119.2649861,54.0439363],[-119.2676146,54.0455678],[-119.2692883,54.0467395],[-119.270726,54.0474702],[-119.2710801,54.0477852],[-119.2711444,54.0481442],[-119.2712946,54.0500968],[-119.2716809,54.0505188],[-119.2722066,54.0508401],[-119.2743309,54.0517533],[-119.2758437,54.0521816],[-119.277056,54.0523895],[-119.2787512,54.0529752],[-119.2798562,54.0531831],[-119.2812403,54.0538633],[-119.2829676,54.0542789],[-119.2831071,54.054449],[-119.2836113,54.0551606],[-119.2843731,54.0554503],[-119.2857249,54.0559479],[-119.2865618,54.0564706],[-119.2904349,54.0580324],[-119.2913468,54.058341],[-119.2925377,54.0589644],[-119.2936964,54.0592478],[-119.2945977,54.0592793],[-119.2959066,54.0594997],[-119.2965825,54.0597075],[-119.2974784,54.0598523],[-119.299372,54.0600286],[-119.2998602,54.0601388],[-119.3004663,54.0604096],[-119.3033363,54.061839],[-119.305525,54.0630386],[-119.305584,54.0631834],[-119.3055625,54.0636178],[-119.3053372,54.0644144],[-119.3054123,54.0647607],[-119.3057878,54.0652392],[-119.3059327,54.0656343],[-119.3059595,54.065746],[-119.3060225,54.0658984],[-119.3065818,54.0669014],[-119.3068661,54.0671186],[-119.307601,54.0674617],[-119.3087705,54.0677954],[-119.3095376,54.0681858],[-119.3104817,54.0689917],[-119.3108197,54.069297],[-119.3113025,54.069552],[-119.3122573,54.0706002],[-119.3123163,54.0708646],[-119.312134,54.0717837],[-119.3122198,54.0721174],[-119.3125309,54.0728319],[-119.3126167,54.07422],[-119.3125738,54.0751768],[-119.3124344,54.0760864],[-119.3125148,54.0763634],[-119.3132927,54.0774303],[-119.3133195,54.0777136],[-119.3135609,54.0780188],[-119.3141402,54.0786703],[-119.3145426,54.0801589],[-119.314682,54.0805963],[-119.3148537,54.0808921],[-119.3151809,54.0811722],[-119.3156906,54.0815467],[-119.3158676,54.0817639],[-119.3165381,54.0831327],[-119.3171658,54.0842624],[-119.3172462,54.0847219],[-119.317375,54.0850334],[-119.3182494,54.0862637],[-119.3183406,54.0866633],[-119.3182494,54.0871196],[-119.318185,54.0877898],[-119.3182708,54.088224],[-119.3185122,54.0887652],[-119.3189199,54.0892655],[-119.3192954,54.0895046],[-119.3198373,54.0897185],[-119.3212159,54.0900709],[-119.3215378,54.0901873],[-119.3217524,54.0904044],[-119.3220045,54.0907883],[-119.322101,54.0913011],[-119.322101,54.0916252],[-119.3220367,54.0919649],[-119.3220957,54.0921254],[-119.3223424,54.0922953],[-119.3235763,54.0928993],[-119.3237694,54.0930425],[-119.3240054,54.0932737],[-119.3240483,54.0934625],[-119.3240054,54.093689],[-119.3238284,54.0940634],[-119.3237694,54.0946643],[-119.3237908,54.0950858],[-119.3238042,54.0952423],[-119.3239303,54.0958062]],"type":"LineString"},"properties":{"kind":"drive-gravel","km":31.4,"name":"Beaverdam Road"},"type":"Feature"},{"geometry":{"coordinates":[[-119.3239303,54.0958062],[-119.3242327,54.095759],[-119.3251983,54.0951236],[-119.3257831,54.0949631],[-119.3274031,54.0948687],[-119.3278537,54.0948216],[-119.328991,54.0945195],[-119.3295542,54.0942742],[-119.3299619,54.0940791],[-119.3307559,54.0933524],[-119.3314371,54.0929292],[-119.3316651,54.0926602],[-119.3320541,54.0920892],[-119.3322525,54.0919351],[-119.3325395,54.0913514],[-119.3328614,54.0911737],[-119.3342025,54.0905554],[-119.3346478,54.090181],[-119.3357555,54.0892497],[-119.3366084,54.0885874],[-119.3371959,54.088224],[-119.337743,54.0880494],[-119.3379388,54.0880384],[-119.3380086,54.0880116],[-119.3380998,54.087966],[-119.3381668,54.0879015],[-119.3382982,54.0878763],[-119.3385826,54.0878574],[-119.3390747,54.0878755],[-119.3406546,54.0880871],[-119.340853,54.088128],[-119.3416684,54.0880604],[-119.3426045,54.0878716],[-119.3438088,54.0874012],[-119.3445169,54.087225],[-119.3455362,54.0869103],[-119.3468907,54.0866476],[-119.3481084,54.0866334],[-119.3485751,54.0865721],[-119.3492242,54.0865595],[-119.3505385,54.0866382],[-119.3513002,54.0865469],[-119.3515899,54.086399],[-119.3517616,54.0861032],[-119.3517777,54.0857854],[-119.3519601,54.0852757],[-119.3523839,54.0849547],[-119.353092,54.0842593],[-119.353328,54.084146],[-119.3542775,54.0839541],[-119.3548354,54.0839289],[-119.3558493,54.0840516],[-119.3571528,54.0839761],[-119.3580594,54.0839163],[-119.3583706,54.0838408],[-119.35851,54.0837149],[-119.3584403,54.0834191],[-119.3583652,54.0831579],[-119.3584081,54.0827457],[-119.3582579,54.082475],[-119.3570187,54.0816348],[-119.3568631,54.0813799],[-119.3568685,54.0811974],[-119.3570563,54.0810558],[-119.3573728,54.0810023],[-119.357995,54.0810935],[-119.3584939,54.0810715],[-119.3589982,54.0809425],[-119.3614122,54.0803571],[-119.3622973,54.0800424],[-119.3627426,54.0798001],[-119.3628981,54.0795137],[-119.3628498,54.0792588],[-119.3627157,54.0789945],[-119.3625548,54.0788906],[-119.3623885,54.0789221],[-119.3623509,54.0790165],[-119.3623563,54.0792871],[-119.3622973,54.0793878],[-119.3622115,54.0794067],[-119.3621042,54.0793501],[-119.3620881,54.0791046],[-119.3616804,54.0782234],[-119.3617662,54.0777954],[-119.3616911,54.077616],[-119.3613478,54.077487],[-119.3606504,54.0773201],[-119.360527,54.077232],[-119.3605968,54.0771187],[-119.3608704,54.0770526],[-119.361836,54.0769393],[-119.3628767,54.0763036],[-119.3628767,54.0760895],[-119.3628659,54.0757748],[-119.3630376,54.0755513],[-119.3640783,54.0747393],[-119.3643841,54.0747393],[-119.3647596,54.0748589],[-119.3651029,54.0752303],[-119.3656876,54.0762721],[-119.3658968,54.0764106],[-119.3661972,54.07642],[-119.3664118,54.0762784],[-119.3663689,54.0761179],[-119.3661221,54.0756395],[-119.3661114,54.0751233],[-119.3661275,54.0745001],[-119.3657949,54.0741193],[-119.3658754,54.0733764],[-119.3658271,54.0730711],[-119.3655857,54.0728193],[-119.3653389,54.0727217],[-119.3649527,54.0727406],[-119.3636652,54.0730648],[-119.3628498,54.0734866],[-119.3625387,54.0737416],[-119.3623724,54.0737258],[-119.3617448,54.0735968],[-119.3610045,54.0732568],[-119.3601194,54.0724983],[-119.3599584,54.0721835],[-119.359937,54.0716012],[-119.3603071,54.0710818],[-119.3610957,54.0708394],[-119.3619486,54.0702445],[-119.3622276,54.0700745],[-119.3625172,54.0700902],[-119.3626674,54.0702225],[-119.3630161,54.0706443],[-119.3632575,54.0708237],[-119.3636921,54.0708583],[-119.3641963,54.0707041],[-119.3646147,54.0704932],[-119.3659237,54.0701658],[-119.3672111,54.0701249],[-119.368005,54.0702697],[-119.3684664,54.0703735],[-119.3686702,54.0703547],[-119.3696197,54.0695614],[-119.3709394,54.0691364],[-119.3726667,54.0686548],[-119.3738308,54.0684848],[-119.3751183,54.0677923],[-119.3756225,54.0676317],[-119.3768295,54.0675404],[-119.3780955,54.0675845],[-119.3790665,54.067509],[-119.3796673,54.0675247],[-119.3812283,54.0673767],[-119.3851336,54.0675247],[-119.3857988,54.067594],[-119.38692,54.0679969],[-119.3871238,54.0685698],[-119.3873813,54.0687965],[-119.3877568,54.0688657],[-119.3882504,54.0688342],[-119.3887868,54.0685698],[-119.3892589,54.0682361],[-119.3899884,54.0680032]],"type":"LineString"},"properties":{"kind":"drive-track","km":8.1,"name":"Unnamed"},"type":"Feature"},{"geometry":{"coordinates":[[-119.3899884,54.0680032],[-119.3894441611423,54.06746027397484],[-119.3894441611423,54.06719084049183],[-119.3894441611423,54.066921405260615],[-119.3894441611423,54.066651968281185],[-119.3894441611423,54.066382529553515],[-119.3894441611423,54.06611308907764],[-119.38990311065784,54.065574202881145],[-119.38990311065784,54.06530475716056],[-119.38990311065784,54.06503530969171],[-119.38990311065784,54.06476586047462],[-119.38990311065784,54.06449640950925],[-119.38990311065784,54.064226956795615],[-119.38990311065784,54.06395750233375],[-119.38990311065784,54.063688046123566],[-119.38990311065784,54.06341858816512],[-119.39036206017339,54.06287966700334],[-119.39082100968893,54.062610203800034],[-119.390728,54.062707]],"type":"LineString"},"properties":{"kind":"walk","name":"Computed walking line"},"type":"Feature"}],"type":"FeatureCollection"}